County,Market Name,Location,Address Line 1,City,State,Zip,Contact,Phone,Market Link,Operation Hours,Operation Season,FMNP,Operating Months,Latitude,Longitude,FCC Issued,EBT/SNAP,FCC Accepted,Location Points
Albany,Altamont Farmers' Market,"Altamont Free Library, 181 Main St.",181 Main Street,Altamont,NY,12009,Kelly Best,5188618554,http://nfmd.org/ny/altamont/1004383/,"Mon, Tue, Thu, Fri  11am-6pm, Sat/Sun  10am-2pm",July 1-October 1,Y,M,42.70149,-74.03254,N,N,Y,"(42.70149, -74.03254)"
Albany,Altamont Orchards Farm Stand,"6654 Dunnsville Road, Altamont",6654 Dunnsville Road,Altamont,NY,12009,Jim Abbruzzese,5188616515,http://www.altamontorchards.com,Daily  9:30am-5pm,August 27-December 24,Y,M/X,42.720708,-74.01624,N,N,Y,"(42.720708, -74.01624)"
Albany,CDPHP Farmers' Market,"CDPHP prkg lot off Washington Ave., 500 Patroon Creek Blvd. Albany",500 Patroon Creek Bvld.,Albany,NY,12206,Randy Tryon,5186415611,http://www.cdphp.com,Thursday  11am-1:30pm,May 26-October 13,Y,P/M,42.68418,-73.80587,N,N,Y,"(42.68418, -73.80587)"
Albany,Colonie Crossings Farmers' Market,580 Albany Shaker Rd. Loudonville,580 Albany Shaker Rd,Colonie,NY,12211,Laura Archambault,5184562136,http://www.colonie.org,Saturday  9am-1pm,May 21-October 1,Y,P/M,42.71016,-73.78029,N,N,Y,"(42.71016, -73.78029)"
Albany,Cook Park Farmers' Market,Sharon Drive Pavilion Cook Park Colonie,3 Sharon drive,Colonie,NY,12205,Krysta Dennis,5186692636,http://www.cookparkfarmersmarket.com,Thursday  4pm-7pm,May 12-October 13,Y,P/M,42.70742,-73.83453,N,N,Y,"(42.70742, -73.83453)"
Albany,Delaware Community Farmers' Market,"Delaware Branch Library, 331 Delaware Ave. Albany",331 Delaware Ave,Albany,NY,12209,Louise McNeilly,5184320516,,"Jun-Sept: Tues 4p-7p, Oct-Nov: Tues 3p-6p",June 21-November 15,Y,M,42.64305,-73.77824,Y,Y,Y,"(42.64305, -73.77824)"
Albany,Delmar Saturday Farmers' Market,"Bethlehem Central Middle School, 332 Kenwood Avenue",332 Kenwood Avenue,Delmar,NY,12054,Ken Myer,5184871991,http://www.delmarmarket.org,Saturday  9am-1pm,May 7-December 17,Y,P/M/X,42.6212,-73.82577,N,Y,Y,"(42.6212, -73.82577)"
Albany,Delmar Tuesday Farmers' Market,"First United Methodist Church Lot, 428 Kenwood Ave.",428 Kenwood Ave,Delmar,NY,12054,Frank Stanton,5187568228,http://www.cdfm518.com,Tuesday  2:30pm-6pm,May 3-November 22,Y,P/M,42.62298,-73.83623,N,Y,Y,"(42.62298, -73.83623)"
Albany,Downtown Albany Farmers' Market,SUNY Plaza 353 Broadway & State St (Indoor Market - Inside SUNY Bldg),353 Broadway,Albany,NY,12207,Ron Bulich,5182912449,http://www.cdfma518.com,Thursday  11am-2pm,Year-round,Y,YR,42.64847,-73.75012,Y,Y,Y,"(42.64847, -73.75012)"
Albany,Empire State Plaza Friday Farmers' Market,Empire State Plaza near the Capitol,170 State St,Albany,NY,12210,Jason Rumpf,5184732982,http://www.ogs.ny.gov,Friday  10am-2pm,May 4-October 14,Y,P/M,42.65162,-73.75692,Y,Y,Y,"(42.65162, -73.75692)"
Albany,Empire State Plaza Wed Farmers' Market,"Empire State Plaza, In Front of Capitol, (Winter inside South Concourse)",170 State St,Albany,NY,12210,Jason Rumpf,5184732982,http://www.ogs.ny.gov,Wednesday  10am-2pm,Year-round,Y,YR,42.65068,-73.758,Y,Y,Y,"(42.65068, -73.758)"
Albany,Farm to Preschool III Farmers' Market,Cohoes Community Center  22-40 Remsen St.,22-40 Remsen Street,Cohoes,NY,12047,Darlene Yule,5184267181,http://www.cdcccc.org,Mon  2:30pm-5:30pm,June 13-September 26,Y,M,42.7756,-73.70149,Y,Y,Y,"(42.7756, -73.70149)"
Albany,Harriman State Campus Farmers' Market,"Harriman State Office Campus, behind Bldg. 8A Albany",1366 Washington Ave.,Albany,NY,12203,Jason Rumpf,5184732982,http://www.ogs.ny.gov,Thursday  10am-2pm,May 5-October 13,Y,P/M,42.678038,-73.809942,N,N,Y,"(42.678038, -73.809942)"
Albany,New Covenant Farmers' Market,"New Covenant Presbyterian Church, 916 Western Ave.",916 Western Ave,Albany,NY,12203,Katy Stenta,5184828063,https://www.facebook.com/NewCovenantFarmersMarket/,Tuesday  3pm-6pm,May 24-October 4,Y,P/M,42.67228,-73.81026,N,N,Y,"(42.67228, -73.81026)"
Albany,South End Farmers' Market,Lincoln Park Eagle St & Morton Ave  Albany,Eagle St and Morton Ave,Albany,NY,12202,Ray Turner,5185066524,,Saturday  12pm-4pm,July 9-October 8,Y,M,42.64326,-73.76304,N,Y,Y,"(42.64326, -73.76304)"
Albany,Veggie Mobile-Arbor Hill/West Hill,Henry Johnson Blvd & 2nd St. Albany,Henry Johnson Boulevard and 2nd Street,Albany,NY,12210,Audrey Bridge,5182748685,http://www.capitalroots.org,Thu 12:15pm-1pm,Year-round,Y,YR,42.66226,-73.76013,Y,Y,Y,"(42.66226, -73.76013)"
Albany,Veggie Mobile-Center for Disability,646 South Pearl Street Albany,646 South Pearl Street,Albany,NY,12202,Audrey Bridge,5182748685,http://www.capitalroots.org,Tue 12:15pm-1pm,Year-round,Y,YR,42.63003,-73.76585,Y,Y,Y,"(42.63003, -73.76585)"
Albany,Veggie Mobile-Cohoes Senior Ctr,100 Cayuga Plaza Cohoes,100 Cayuga Plaza,Cohoes,NY,12047,Audrey Bridge,5182748685,http://www.capitalroots.org,Wednesday 3pm-4pm,Year-round,Y,YR,42.77712,-73.70101,Y,Y,Y,"(42.77712, -73.70101)"
Albany,Veggie Mobile-Creighton Storey,158 3rd Street Albany,158 3rd Street,Albany,NY,12210,Audrey Bridge,5182748685,http://www.capitalroots.org,Thu 5pm-5:45pm,Year-round,Y,YR,42.66205,-73.7578,Y,Y,Y,"(42.66205, -73.7578)"
Albany,Veggie Mobile-Howe Library,Schuyler & Broad St. Albany,Schuyler St and Broad Street,Albany,NY,12202,Audrey Bridge,5182748685,http://www.capitalroots.org,Tue 3pm-3:45pm,Year-round,Y,YR,42.64112,-73.75802,Y,Y,Y,"(42.64112, -73.75802)"
Albany,Veggie Mobile-Koinonia Primary Care,533 Clinton Ave. (at N. Lake) Albany,533 Clinton Avenue,Albany,NY,12206,Audrey Bridge,5182748685,http://www.capitalroots.org,Tue 2pm-2:45pm,Year-round,Y,YR,42.66508,-73.76804,Y,Y,Y,"(42.66508, -73.76804)"
Albany,Veggie Mobile-Lincoln Square,3 Lincoln Square Albany,3 Lincoln Square,Albany,NY,12202,Audrey Bridge,5182748685,http://www.capitalroots.org,Mon 5pm-5:45pm,Year-round,Y,YR,42.6428,-73.76118,Y,Y,Y,"(42.6428, -73.76118)"
Albany,Veggie Mobile-N. Albany YMCA,616 N. Pearl St. Albany,616 North Pearl Street,Albany,NY,12204,Audrey Bridge,5182748685,http://www.capitalroots.org,Wed 4:45pm-5:45pm,Year-round,Y,YR,42.67368,-73.73953,Y,Y,Y,"(42.67368, -73.73953)"
Albany,Veggie Mobile-Robert Whalen,305 Colonie Street Albany,305 Colonie Street,Albany,NY,12210,Audrey Bridge,5182748685,http://www.capitalroots.org,Wed 11:15am-12pm,Year-round,Y,YR,42.66338,-73.75595,Y,Y,Y,"(42.66338, -73.75595)"
Albany,Veggie Mobile-South Mall Towers,101 S. Pearl St. Albany,101 South Pearl Street,Albany,NY,12207,Audrey Bridge,5182748685,http://www.capitalroots.org,Fri  11am-12:15pm,Year-round,Y,YR,42.6465,-73.75482,Y,Y,Y,"(42.6465, -73.75482)"
Albany,Veggie Mobile-St. Sophia Church,440 Whitehall Rd. Albany,440 Whitehall Road,Albany,NY,12208,Audrey Bridge,5182748685,http://www.capitalroots.org,Thu 12:15pm-1pm,Year-round,Y,YR,42.65197,-73.81477,Y,Y,Y,"(42.65197, -73.81477)"
Albany,Veggie Mobile-St. Sophia's,440 Whitehall Road Albany,440 Whitehall Road,Albany,NY,12208,Audrey Bridge,5182748685,http://www.capitalroots.org,Wed 12:15pm-1pm,Year-round,Y,YR,42.65244,-73.81416,Y,Y,Y,"(42.65244, -73.81416)"
Albany,Veggie Mobile-Steamboat Square Apts,20 Rensselaer St. Albany,20 Rensselaer Street,Albany,NY,12202,Audrey Bridge,5182748685,http://www.capitalroots.org,Wed 11am-11:45am,Year-round,Y,YR,42.64093,-73.75363,Y,Y,Y,"(42.64093, -73.75363)"
Albany,Veggie Mobile-Thurlow Terrace,2 Thurlow Terrace Albany,2 Thurlow Terrace,Albany,NY,12203,Audrey Bridge,5182748685,http://www.capitalroots.org,Wed 12pm-1pm,Year-round,Y,YR,42.66032,-73.77248,Y,Y,Y,"(42.66032, -73.77248)"
Albany,Veggie Mobile-Whitney Young Health Ctr,920 Lark Drive Albany,920 Lark Drive,Albany,NY,12210,Audrey Bridge,5182748685,http://www.capitalroots.org,Tue 11am-12pm,Year-round,Y,YR,42.66215,-73.74859,Y,Y,Y,"(42.66215, -73.74859)"
Albany,Voorheesville Farmers' Market,"First United Methodist Church lot, 68 Maple Ave.",68 Maple Ave,Voorheesville,NY,12186,Dianne Luci,5187654536,https://www.facebook.com/VoorheesvilleFarmersMarket,Wed  3:30pm-6:30pm,June 15-September 28,Y,M,42.64892,-73.92991,N,N,Y,"(42.64892, -73.92991)"
Allegany,Alfred Farmers' Market,Village Band Stand Main St.,Main Street and Saxon Drive,Alfred,NY,14802,Holly Harris,6073820885,http://www.alfredfarmersmarket.com,Sunday  11am-3pm,July-October,Y,M,42.25396,-77.7904,N,Y,Y,"(42.25396, -77.7904)"
Allegany,Angelica Farmers' Market,Park Circle,28 Park Circle,Angelica,NY,14709,Staci Curry,5854663787,,Saturday  9am-1pm,June 1-September 24,Y,M,42.3066,-78.01619,N,N,Y,"(42.3066, -78.01619)"
Allegany,Belmont Farmers' Market,"Grange Hall Lawn, 32 Willets Ave Rt 19",32 Willets Ave,Belmont,NY,14813,Phyllis Couture,7169423710,,Thursday  11am-5pm,May 26-October 27,Y,P/M,42.22613,-78.03994,N,Y,Y,"(42.22613, -78.03994)"
Allegany,Houghton Farmers' Market,Houghton College Route 19,1 Willard Ave,Houghton,NY,14744,Stephen Demarte,7165605594,,Friday  1pm-6pm,June 3-October 28,Y,M,42.42556,-78.15706,N,N,Y,"(42.42556, -78.15706)"
Allegany,On the River Farm Stand,"7579 Route 19 , Belfast",7579 Route 19,Belfast,NY,14711,Stephen Demarte,7165605594,,"Friday  3pm-7pm, Saturday  12pm-7pm",Year-round,Y,YR,42.34485,-78.11563,N,N,Y,"(42.34485, -78.11563)"
Allegany,Wellsville Farmers' Market,Giant Food Mart 44 Park Ave.,44 Park Ave.,Wellsville,NY,14895,Daniel Sprung,5856106181,,Thursday  11am-5pm,June 16-October 6,Y,M,42.120079,-77.947159,N,N,Y,"(42.120079, -77.947159)"
Bronx,Bissel Gardens Farmers' Market,Baychester Ave. & E 241 St.,Baychester Ave and East 241st St,Bronx,NY,10470,Heather Warren-Dombrowa,3474272547,http://www.bisselgardens.org,Sat/Wed  9am-5pm,July 9-November 19,Y,M,40.90151,-73.84702,N,Y,Y,"(40.90151, -73.84702)"
Bronx,Bronx Borough Hall Greenmarket,Grand Concourse btwn 161st & 163rd Sts.,901 Grand Concourse,Bronx,NY,10452,Chelsea Whittaker,2127887476,http://www.grownyc.org/greenmarket,Tuesday  8am-4pm,June 7-November 22,Y,M,40.82715,-73.92276,N,Y,Y,"(40.82715, -73.92276)"
Bronx,Harvest Home Bronx Museum Farmers' Market,"Grand Concourse & E. 165th St., at Bronx Museum of the Arts",1040 Grand Concourse,Bronx,NY,10456,Maritza Owens,2128283361,http://www.harvesthomefm.org,Sunday  8am-4pm,July 10-November 20,N,M,40.83113,-73.9201,N,Y,Y,"(40.83113, -73.9201)"
Bronx,Harvest Home Co-op City Farmers' Market,Ash Loop & Aldrich St.,199 Aldrich St.,Bronx,NY,10475,Maritza Owens,2128283361,http://www.harvesthomefm.org,Wednesday  8am-4pm,July 6-November 23,Y,M,40.87025,-73.83097,N,Y,Y,"(40.87025, -73.83097)"
Bronx,Harvest Home Hunts Point Farmers' Market,"Monsignor Del Valle Square, btwn Southern & Bruckner Blvds.",925 Hunts Point Ave.,Bronx,NY,10474,Maritza Owens,2128283361,http://www.harvesthomefm.org,Wednesday  8am-4pm,June 15-November 23,Y,M,40.82073,-73.89088,N,Y,Y,"(40.82073, -73.89088)"
Bronx,Harvest Home Jacobi  Hospital Farmers' Market,1400 Pelham Parkway,1400 Pelham Pkwy,Bronx,NY,10461,Maritza Owens,2128283361,http://www.harvesthomefm.org,Tue/Fri  8am-4pm,May 10-November 22,Y,P/M,40.85431,-73.8467,N,Y,Y,"(40.85431, -73.8467)"
Bronx,Harvest Home Mt. Eden Farmers' Market,Claremont Park Mt. Eden & Morris Aves.,Mt Eden Pkwy and Morris Ave,Bronx,NY,10457,Maritza Owens,2128283361,http://www.harvesthomefm.org,Tue/Thu  8am-4pm,May 24-November 23,Y,P/M,40.84305,-73.90947,N,Y,Y,"(40.84305, -73.90947)"
Clinton,Rehoboth Homestead Farm Stand,3071 Route 9 Peru,3071 Route 9,Peru,NY,12972,Beth Spaugh,5186437822,http://www.rhomestead.com,Tuesday  3pm-6pm,June 1-October 30,Y,M,44.56491,-73.44945,N,N,Y,"(44.56491, -73.44945)"
Bronx,Harvest Home N Central Bronx Farmers' Market,Mosholu Parkway North & Jerome Ave.,Jerome Ave and East Mosholu Pkwy North,Bronx,NY,10467,Maritza Owens,2128283361,http://www.harvesthomefm.org,Wednesday  8am-4pm,July 6-November 23,Y,M,40.88046,-73.88385,N,Y,Y,"(40.88046, -73.88385)"
Bronx,Harvest Home Soundview Farmers' Market,Morrison Ave. btwn Westchester Ave. & Harrod Pl.,Morrison Ave and Harrod Place,Bronx,NY,10472,Maritza Owens,2128283361,http://www.harvesthomefm.org,Saturday  8am-4pm,June 18-November 19,Y,M,40.82905,-73.87443,N,Y,Y,"(40.82905, -73.87443)"
Bronx,Harvest Home St. Marys Park Farmers' Market,149th St. btwn St. Ann & Jackson Aves.,646 E 149th St,Bronx,NY,10455,Maritza Owens,2128283361,http://www.harvesthomefm.org,Thursday  8am-4pm,July 7-November 17,Y,M,40.81099,-73.91173,N,Y,Y,"(40.81099, -73.91173)"
Bronx,Healthy Choice Farmers' Market,1434 Longfellow Ave. Bronx,1434 Longfellow Ave.,Bronx,NY,10459,Sandy Helms,7185893060,,Thursday  10am-1:30pm,April 7-November 17,Y,P/M,40.830746,-73.886882,N,N,Y,"(40.830746, -73.886882)"
Bronx,La Familia Verde Farmers' Market,"Tremont Park on Tremont Ave., btwn LaFontaine & Arthur Aves.",East Tremont Ave and Arthur Ave,Bronx,NY,10457,Heidi Hynes,7185831765,http://www.lafamiliaverde.org,Tuesday  8am-3pm,July 12-November 15,Y,M,40.84643,-73.89334,N,Y,Y,"(40.84643, -73.89334)"
Bronx,"Learn it, Grow it, Eat it Youthmarket",169th St. & Boston Rd. at McKinley Square,E. 169th St. and Boston Rd.,Bronx,NY,10456,Kori Petrovic,2127887476,http://www.grownyc.org/youthmarket,Wednesday  10am-3pm,July 6-November 23,Y,M,40.83121,-73.90022,N,Y,Y,"(40.83121, -73.90022)"
Bronx,Lincoln Hospital Greenmarket,149th St btwn Park and Morris Aves Bronx,East 149th St and Morris Ave,Bronx,NY,10451,Chelsea Whittaker,2127887476,http://www.grownyc.org/greenmarket,Fri/Tue  8am-3pm,June 24-November 22,Y,M,40.81739,-73.92274,N,Y,Y,"(40.81739, -73.92274)"
Bronx,Mott Haven Farmers' Market,"Padre Plaza Community Garden, 139th St. & St. Ann's Ave.",E. 139th & 283 St. Saint Anns Ave,Bronx,NY,10454,Sheila Young,7189241143,,Tuesday  10am-4pm,July 12-November 15,Y,M,40.80782,-73.91697,N,Y,Y,"(40.80782, -73.91697)"
Bronx,New York Botanical Garden Greenmarket,"Mosholu Gate on Southern Blvd., Mosholu Pkwy & Bedford Park Blvd.",2855 Southern Blvd,Bronx,NY,10458,Chelsea Whittaker,2127887476,http://www.grownyc.org/greenmarket,Wednesday  9am-3pm,June 22-October 26,Y,M,40.866408,-73.882303,N,Y,Y,"(40.866408, -73.882303)"
Bronx,Norwood Youthmarket,E Gun Hill Rd. & Dekalb Ave.,Dekalb Ave. and East Gun Hill Rd.,Bronx,NY,10467,Kori Petrovic,2127887476,http://www.grownyc.org/youthmarket,Thursday  12pm-7pm,July 7-November 17,Y,M,40.88223,-73.88048,N,Y,Y,"(40.88223, -73.88048)"
Bronx,Parkchester Greenmarket,Westchester Ave. & White Plains Rd.,Westchester Ave and White Plains Rd,Bronx,NY,10472,Chelsea Whittaker,2127887476,http://www.grownyc.org/greenmarket,Friday  8am-4pm,June 10-November 18,Y,M,40.83301,-73.86277,N,Y,Y,"(40.83301, -73.86277)"
Bronx,Poe Park Greenmarket,E 192nd St. btwn Grand Concourse & Valentine Ave.,200 E. 192nd St,Bronx,NY,10458,Chelsea Whittaker,2127887476,http://www.grownyc.org/greenmarket,Tuesday  8am-3pm,June 28-November 22,Y,M,40.86412,-73.8955,N,Y,Y,"(40.86412, -73.8955)"
Bronx,Project EATS Montefiore WFC Farm Stand,3011 Boston Rd.,3011 Boston Rd.,BRONX,NY,10469,Matt Linder,2126121528,http://www.projecteats.org,Wednesday  2pm-6pm,May 31-November 30,Y,P/M,40.8697,-73.85733,N,N,Y,"(40.8697, -73.85733)"
Bronx,PS 721X Farm Stand,2697 Westchester Ave.,2697 Westchester Av.,Bronx,NY,10461,Jeremy Kottkamp,9172672119,,Thursday  9:30am-1pm,May 12-October 27,Y,P/M,40.84248,-73.83865,N,N,Y,"(40.84248, -73.83865)"
Bronx,Riverdale Neighborhood House Youthmarket,"420 W 256th St. , Corner of Mosholu Ave.",W 256th St. and Mosholu Ave.,Bronx,NY,10466,Kori Petrovic,2127887476,http://www.grownyc.org/youthmarket,Thursday  1pm-7pm,July 7-October 27,Y,M,40.90388,-73.90313,N,Y,Y,"(40.90388, -73.90313)"
Bronx,Riverdale Y Sunday Farmers' Market,Independence Ave. W. 237th St.,649 W 237th St,Bronx,NY,10463,Doris Kaufman,7185488200,http://www.riverdaley.org,Sunday  9am-2pm,May-November,N,P/M,40.888442,-73.912784,N,N,Y,"(40.888442, -73.912784)"
Bronx,South Bronx Farmers' Market,"138th St btwn Willis & Alexander Aves. , Mott Haven",330-398 East 138th Street,Bronx,NY,10454,Lily Kesselman,5164186355,http://www.southbronxfarmersmarket.com,Saturday  10am-4pm,June 18-November 19,Y,M,40.80913,-73.92297,N,Y,Y,"(40.80913, -73.92297)"
Bronx,Taqwa Community Farmers' Market,90 West Ogden Ave. & 164th st,90 West Ogden Ave. at 164th St.,Bronx,NY,10452,Bobby Watson,9178052866,,Saturday  9am-4pm,July 9-November 12,N,M,40.82957,-73.92104,N,N,Y,"(40.82957, -73.92104)"
Bronx,Wholesale Greenmarket,Halleck St. & Viele Ave. Auxiliary Lot,Halleck Street and Viele Avenue,Bronx,NY,10474,Chelsea Whittaker,2127887476,,Tue-Sat  2am-8am,April 8-December 31,Y,P/M/X/W,40.80752,-73.87989,N,N,Y,"(40.80752, -73.87989)"
Broome,Broome County Regional Saturday Farmers' Market,840 Upper Front St. Binghamton,840 Upper Front St.,Binghamton,NY,13905,Dina Truncali,6075845010,http://www.bcregionalmkt.com,Saturday  9am-1pm,Year-round,Y,YR,42.12921,-75.90609,Y,Y,Y,"(42.12921, -75.90609)"
Broome,Broome County Regional Tuesday Farmers' Market,840 Upper Front St. Binghamton,840 Upper Front St.,Binghamton,NY,13905,Dina Truncali,6075845010,http://www.bcregionalmkt.com,Tuesday  4pm-7pm,July 19-October 25,N,M,42.12921,-75.90609,N,N,Y,"(42.12921, -75.90609)"
Broome,CHOWbus Mobile Market,"Contact market for locations and times, (607)-724-9130 ext 331",3 Otsiningo Street,Binghamton,NY,13903,Michael Leahey,6077249130,http://www.broomecouncil.net,Mon-Fri,Year-round,Y,YR,42.09963,-75.89718,Y,Y,Y,"(42.09963, -75.89718)"
Broome,Deposit Farmers' Market,"First United Methodist Church WIC Clinic , 107 Second St.",107 Second St,Deposit,NY,13754,Jeanne Darling,6078656531,http://www.ccedelaware.org,Thursday  10am-2pm,Only Aug 18 & Sep 15,Y,M,42.06166,-75.42605,N,N,Y,"(42.06166, -75.42605)"
Broome,Downtown Binghamton Farmers' Market,Court House Square 80 Collier St.,80 Collier St,Binghamton,NY,13901,Eric Denk,6072069471,http://www.binghamtonfarmersmarket.com,Tue/Fri  9am-2pm,June 10-October 28,Y,M,42.09836,-75.91157,Y,Y,Y,"(42.09836, -75.91157)"
Broome,Endicott Visitor Center Farmers' Market,300 Lincoln Ave. Endicott,300 Lincoln Ave.,Endicott,NY,13760,Monica Jordan,6077575355,http://www.endicottny.com,Thursday  4:30pm-7pm,June 2-October 13,Y,M,42.09805,-76.05142,N,N,Y,"(42.09805, -76.05142)"
Broome,Koo Koose Farmers' Market,Village Memorial Park Front St. Deposit,149 Front Street,Deposit,NY,13754,Dorothy Crantz,6074672956,,Saturday  9am-1pm,June-September,Y,M,42.061003,-75.425572,N,N,Y,"(42.061003, -75.425572)"
Broome,Vestal Farmers' Market,"Library parking lot, near museum, 320 Vestal Pkwy E (Rt. 434)",320 Vestal Pkwy E,Vestal,NY,13850,Emil Bielicici,6077481514,https://www.facebook.com/VestalFarmersMarket,Sat/Wed  9am-1pm,May 28-November 23,Y,P/M,42.087322,-76.045678,N,N,Y,"(42.087322, -76.045678)"
Cattaraugus,Canaseraga Farmers' Market,"Firemans Memorial Park, Main Street across from school",4-8 Main Street,Canaseraga,NY,14822,Sue Paine,6075458311,,Saturday 9am-2pm,June-October,N,M,42.46131,-77.77724,N,N,Y,"(42.46131, -77.77724)"
Cattaraugus,Canticle Farm Stand,"3809 Old State Road, Allegany",3809 Old State Road,Allegany,NY,14706,Mark Printz,7163789714,http://www.canticlefarm.org,"Tue only Dec-June 14, Tue & Fri  June- Nov. 2pm-6pm","year round, December-May  Tue  2pm-6pm",Y,yr,42.094426,-78.506766,N,Y,Y,"(42.094426, -78.506766)"
Cattaraugus,Childs Blueberries Farm Stand,3172 Cooper Hill Road  Hinsdale,3172 Cooper Hill Road,Hinsdale,NY,14743,Dan Childs,7165572334,http://www.childsblueberries.com,Mon-Fri  9am-7pm,Year-round,N,YR,42.229,-78.47579,N,N,Y,"(42.229, -78.47579)"
Cattaraugus,Franklinville Farmers' Market,13 Park Square Rt 16,13 Park Sq,Franklinville,NY,14737,Phyllis Couture,7169423710,,Wednesday  3pm-6pm,June 15-October 26,Y,M,42.33772,-78.45771,N,Y,Y,"(42.33772, -78.45771)"
Cattaraugus,Miller's Farm Market,1685 Olean Portville Rd. Olean,1685 Olean Portville Rd.,Olean,NY,14760,Keith Miller,7163722521,,"Mon-Sat  9am-6pm, Sunday  9am-5pm",April 14-December 24,Y,P/M/X,42.071439,-78.39814,N,N,Y,"(42.071439, -78.39814)"
Cattaraugus,Olean Southern Tier Farmers' Market,Tractor Supply Store 1900 Constitution Ave.,1900 Constitution Ave,Olean,NY,14760,Phyllis Couture,7169423710,,Friday  2pm-6pm,May 20-October 28,Y,P/M,42.08294,-78.45503,N,Y,Y,"(42.08294, -78.45503)"
Cattaraugus,R.E.A.P. Olean Farmers' Market,Olean Mall  400 N. Union St.,400 N. Union St.,Olean,NY,14760,Mark Schindlbeck,7166769181,https://www.facebook.com/olean.farmers.market/,Saturday  8am-1pm,May 14-October 29,Y,P/M,42.08329,-78.42987,N,Y,Y,"(42.08329, -78.42987)"
Cattaraugus,Salamanca Farmers' Market,12 Park Ave. Jefferson Park,12 Park Ave,Salamanca,NY,14779,Phyllis Couture,7169423710,,Tuesday  11am-5pm,May 24-October 25,Y,P/M,42.15497,-78.71739,N,Y,Y,"(42.15497, -78.71739)"
Cattaraugus,South Dayton Farmers' Market,Village Park  Rt 322 & Park St,Rt 322 and Park st.,South Dayton,NY,14138,Linda Dewey,7166729004,https://www.facebook.com/pages/South-Dayton-Farmers-Market/1662449950658252,Saturday  9am-1pm,June 18-October 15,Y,M,42.3609,-79.04925,N,N,Y,"(42.3609, -79.04925)"
Cayuga,Auburn Farmers' Market,96 State Street  Curley's Restaurant Pkg Lot,96 State Street,Auburn,NY,13021,Mark Soper,3157048609,http://www.auburnfarmerscoopmarketinc.com,Tue/Thu/Sat  7am-2pm,June 2-October 29,Y,M,42.93406,-76.56985,N,Y,Y,"(42.93406, -76.56985)"
Cayuga,Moravia Farmers' Market,Kinney Drug Store pkg lot 130 Main St.,130 Main St,Moravia,NY,13118,Barbara Flynn,3154962235,,Thursday  10am-5pm,June 9-October 27,Y,M,42.71209,-76.42079,N,N,Y,"(42.71209, -76.42079)"
Cayuga,Owen Orchards,8174 Grant Ave.  Weedsport,8174 Grant Ave.,Weedsport,NY,13166,Gordon Tripp,3152524097,http://www.owenorchard.com,"Monday-Friday  9am-6pm, Saturday  9am-5pm, Sunday  10am-4pm",August-February,N,M/X/W/P,43.01314,-76.50749,N,N,Y,"(43.01314, -76.50749)"
Cayuga,Village of Aurora Farmers' Market,"Wells College Softball Field Parking Lot, Poplar Ridge Rd. and State Route 90",State Route 90 and Poplar Ridge Road,Aurora,NY,13026,Marian Brown,3153643304,http://www.auroranyfarmersmarket.com,Saturday  9am-1pm,June 4-October 29,Y,M,42.73862,-76.70211,N,N,Y,"(42.73862, -76.70211)"
Chautauqua,Abers Acres Farm Stand,884 Route 394  Kennedy,884 Rte. 394,Kennedy,NY,14747,Sue Abers,7162672431,http://www.abersacres.com,Daily  9am-6:30pm,Year-round,Y,YR,42.14495,-79.10996,N,Y,Y,"(42.14495, -79.10996)"
Chautauqua,Anderson's Produce Farm Stand,3058 Terry Rd.  Sinclairville,3058 Terry Road,Sinclairville,NY,14782,Barb Swan,7166659440,,Daily  10am-6pm,July 25-October 15,Y,M,42.231548,-79.255691,N,N,Y,"(42.231548, -79.255691)"
Chautauqua,Downtown Jamestown Farmers' Market,Cherry St. btwn W 2nd & W 3rd Sts.,Cherry and West 2nd St,Jamestown,NY,14701,Christina King,7166642477,http://www.jamestownrenaissance.org,"Thurs  12pm-6pm, Sept/Oct 12pm-4pm",June 2-October 27,Y,M,42.09567,-79.24234,N,Y,Y,"(42.09567, -79.24234)"
Chautauqua,Dunkirk Farmers' Market,Dunkirk Senior Center 45 Cliffstar Ave,45 Cliffstar Avenue,Dunkirk,NY,14048,Nicole Waite,7163669876,http://www.dunkirktoday.com/things-to-do/community-gardens,Wednesday  9am-2pm,June 15-September 28,Y,M,42.48555,-79.32285,Y,Y,Y,"(42.48555, -79.32285)"
Chautauqua,Falconer Farmers' Market,Davis Park  W. Main & Homestead Sts.,W Main St and Homestead St,Falconer,NY,14733,DeEtte Dispenza,7166654400,,Saturday  9am-2pm,June 4-October 29,Y,M,42.11763,-79.19952,N,N,Y,"(42.11763, -79.19952)"
Chautauqua,Fredonia Farmers' Market,Village Hall Barker Commons 9-11 Church St.,11 Church St,Fredonia,NY,14063,Anneliese Bruegel,7169652716,,Saturday  9am-1pm,May 21-October 29,Y,P/M,42.44064,-79.33235,N,Y,Y,"(42.44064, -79.33235)"
Chautauqua,Fredonia WINTER Farmers' Market,321 East Main St. (Rt 20) Masonic Forest Lodge,321 East Main St. (Rte 20),Fredonia,NY,14063,Anneliese Bruegel,7169652716,http://www.facebook.com/FredoniaFarmersMarket,Saturday 10am-1pm,November 5-May 13,Y,M/X/W/P,42.44764,-79.315,N,Y,Y,"(42.44764, -79.315)"
Chautauqua,Hathaway Farms Farm Stand,"9595 East Main Road Route 20 , 1.5 miles east of Ripley",9595 East Main Road Route 20,Ripley,NY,14775,Patricia Hathaway,7167536072,,"Mon-Sat  10am-6pm, Sunday  12pm-6pm",June 1-November 1,Y,M,42.28014,-79.68442,N,Y,Y,"(42.28014, -79.68442)"
Chautauqua,Lakewood Farmers' Market,Chautauqua Ave.,Chautauqua Ave and West Second St,Lakewood,NY,14750,Joe Johnson,7167638557,http://www.lakewoodny.com,Tuesday  1pm-5pm,June 7-August 30,Y,M,42.10189,-79.3262,N,N,Y,"(42.10189, -79.3262)"
Chautauqua,Richard Feinen Farms Farm Stand,3251 Route 39 Forestville,3251 Route 39,Forestville,NY,14062,Richard Feinen,7166805462,,Daily 10am-6pm,June 1-November 31,Y,M,42.46786,-79.27186,N,N,Y,"(42.46786, -79.27186)"
Chautauqua,Roberto Fred Farm Stand,10655 Temple Rd Dunkirk,10655 Temple Rd,Dunkirk,NY,14048,Roberto Fred,7163667200,,Daily 9am-6pm,June-December,Y,M,42.464201,-79.361694,N,N,Y,"(42.464201, -79.361694)"
Chautauqua,Westfield Farmers' Market,Rt 20 & Rt 394,Rt 20 and Rt 394,Westfield,NY,14787,Arianne Correll,7166401166,http://www.westfieldny.com/farmers-market,Saturday  9am-2pm,May 28-September 24,Y,P/M,42.32203,-79.57812,N,N,Y,"(42.32203, -79.57812)"
Chemung,Elmira Eastside Farmers' Market,West Lawn of Holiday Inn  760 E. Water St.,760 East Water St,Elmira,NY,14901,Andrew Fagan,6077344453,http://www.ccechemung.org,Friday  2:30pm-6pm,June 10-October 21,Y,M,42.08905,-76.7922,Y,Y,Y,"(42.08905, -76.7922)"
Chemung,Elmira Wisner Park Farmers' Market,Wisner Park 200 N Main Street,200 N Main St,Elmira,NY,14901,Jennifer Herrick,6077340341,http://www.wisnermarket.org,Thursday  10am-2pm,June 21-September 29,Y,M,42.08943,-76.80801,N,N,Y,"(42.08943, -76.80801)"
Chemung,Grove Park Farmers' Market,4th St. & Walnut Ave. Grove Park,Walnut Ave and West 4th St,Elmira,NY,14901,Matthew Glenn,6075464535,https://www.facebook.com/GroveParkFarmersMarket,Monday  3pm-6pm,June 6-October 30,Y,M,42.0921,-76.82013,N,Y,Y,"(42.0921, -76.82013)"
Chemung,Teal Park Farmers' Market,"Horseheads , corner of S. Main and Steuben St.",S. Main and Steuben St.,Horseheads,NY,14845,Jabe Warren,5705373636,,Saturday  10am-1pm,June 25-September 24,Y,M,42.16417,-76.81919,N,N,Y,"(42.16417, -76.81919)"
Chenango,Coventry Farmers' Market,"Coventry Town Hall, 1839 State Hwy Route 235",1839 NY-235,Greene,NY,13778,Ellen Evans,6076567319,http://townofcoventryny.com,"Sunday  12pm-4pm , Thursday  11am-4pm",June 30-October 20,Y,M,42.291625,-75.640573,N,N,Y,"(42.291625, -75.640573)"
Chenango,Norwich Farmers' Market,"East Park  75 North Broad St., Winter weather: inside Howard Johnson",75 North Broad St.,Norwich,NY,13815,Sandy Pierce,6073344928,https://www.facebook.com/NorwichNYFarmersMarket,Wed  10am-6pm,Year-round,Y,YR,42.53363,-75.524,N,Y,Y,"(42.53363, -75.524)"
Chenango,Oxford Farmers' Market,Lafayette Park,Lafayette Park,Oxford,NY,13830,Mina Takahashi,6078435699,https://www.facebook.com/OxfordNYFarmersMarket,"Saturday 9am-12pm, Wednesdays 11am-1pm",May-October,N,P/M,42.44255,-75.5983,N,N,Y,"(42.44255, -75.5983)"
Chenango,Oxford WINTER Farmers' Market,"St. Paul's Parish House Comm Ctr, 34 Main St. Oxford",34 Main St.,Oxford,NY,13830,Mina Takahashi,6078435699,https://www.facebook.com/OxfordNYFarmersMarket,1st Saturday  10am-1pm,November-April,N,X/W/P,42.440234,-75.594121,N,N,Y,"(42.440234, -75.594121)"
Chenango,Sunrise Farms Farm Stand,252 Plymouth-North Norwich Rd.  Plymouth,252 Plymouth-North Norwich Rd.,Plymouth,NY,13832,Kathryn Clemens,6073365834,,Daily  7am-8pm,Year-round,Y,YR,42.62427,-75.59152,N,N,Y,"(42.62427, -75.59152)"
Clinton,Country Dreams Farm Farm Stand,260 Pellerin Road Plattsburgh,260 Pellerin Rd.,Plattsburgh,NY,12901,Melissa Monty-Provost,5185656051,http://www.countrydreamsfarm.com,Daily  8am-5pm,July 1-October 31,Y,M,44.74671,-73.53235,N,N,Y,"(44.74671, -73.53235)"
Clinton,Keeseville Farmers' Market,Next to Adirondack Hardware on Front St.,1721 Front St,Keeseville,NY,12944,Vicky Rayl,5186517680,http://www.adirondackfarmersmarket.com,Tuesday  10am-2pm,June 21-August 30,Y,M,44.50436,-73.48061,N,Y,Y,"(44.50436, -73.48061)"
Clinton,Northern Orchard Farm Stand,470 Union Road Peru,470 Union Road,Peru,NY,12972,Cynthia Mulbury,5186439718,,Daily  10am-6pm,May 1-December 23,Y,P/M/X,44.55639,-73.53716,N,Y,Y,"(44.55639, -73.53716)"
Clinton,Plattsburgh Farmers' & Crafters Market,"City parking lot , Durkee & Broad St.",Broad St and Durkee St,Plattsburgh,NY,12901,Patricia Parker,5183100719,https://www.facebook.com/pages/Plattsburgh-Farmers-and-Crafters-Market/121588034547095,"Saturday  9am-2pm, June 29 - Oct 5, Wed  10am-2pm",May 7-October 8,Y,P/M,44.69535,-73.45226,N,Y,Y,"(44.69535, -73.45226)"
Clinton,Rouses Point Farmers' Market,Dodge Memorial Library 144 Lake St.,144 Lake Street,Rouses Point,NY,12979,Connie Cassevaugh,5182973536,,Friday  3pm-7pm,June 24-September 2,Y,M,44.99029,-73.36438,N,N,Y,"(44.99029, -73.36438)"
Clinton,Shield's Vegetables / Dyer Farms,6303 State Route 22 Plattsburgh,6303 State Route 22,Plattsburgh,NY,12901,Sam Dyer,5185610473,,Daily  10am-6pm,July 16-October 31,Y,M,44.73789,-73.47064,N,N,Y,"(44.73789, -73.47064)"
Columbia,City of Hudson Farmers' Market,DMV parking lot Sixth & Columbia Sts.,Columbia St and North 6th St,Hudson,NY,12534,Lisa Walsh,5188287217,http://www.hudsonfarmersmarketny.com,Saturday  9am-1pm,May 7-November 19,Y,P/M,42.24866,-73.78369,Y,Y,Y,"(42.24866, -73.78369)"
Columbia,Copake Hillsdale Farmers' Market,Roeliff Jansen Park 9140 Route 22,9140 Route 22,Hillsdale,NY,12529,Diane Creed,5183251430,http://www.copakehillsdalefarmersmarket.com,Saturday  9am-1pm,May 28-October 29,Y,P/M,42.17077,-73.51771,Y,Y,Y,"(42.17077, -73.51771)"
Columbia,Hudson WINTER Farmers' Market,601 Union St.,601 Union St.,Hudson,NY,12534,Marilyn Cederoth,5189650552,,Saturday  10am-1pm,"Dec, February-April",N,X/W/P,42.24738,-73.78535,N,N,Y,"(42.24738, -73.78535)"
Columbia,Kinderhook Farmers' Market,Kinderhook Village Square 1 Hudson Street,US Route 9 and Hudson St,Kinderhook,NY,12106,Kim Voltz,5187559293,http://www.kinderhookfarmersmarket.com,Sat  8:30am-12:30pm,May 7-October 8,Y,P/M,42.3954,-73.69817,N,N,Y,"(42.3954, -73.69817)"
Columbia,New Lebanon Country Farmers' Market,36 Old Route 20,36 Old Route 20,New Lebanon,NY,12125,Chelsea Vigue,5083173502,http://www.facebook.com/newlebanoncountrymarket,Sunday  10am-2pm,June 5-October 16,Y,M,42.47165,-73.37991,N,N,Y,"(42.47165, -73.37991)"
Columbia,Philmont Farmers' Market,116 Main Street,116 Main St,Philmont,NY,12565,Sally Baker,5186970038,http://www.pbinc.org/revitalization,Sunday  10am-2pm,May 29-October 16,Y,P/M,42.24868,-73.65097,Y,Y,Y,"(42.24868, -73.65097)"
Columbia,Upstreet Farmers' Market,7th Street Park Hudson,7th Street Park,Hudson,NY,12534,Tess Parker,6033616889,http://facebook.com/upstreetmarket,Wednesday  4pm-7pm,May 25-October 26,Y,P/M,42.24744,-73.78299,N,N,Y,"(42.24744, -73.78299)"
Cortland,Cincinnatus Farmers' Market,"Cortland-Chenango Rural Services, 2704 Lower Cincinnatus Rd.",2704 Lower Cincinnatus Rd,Cincinnatus,NY,13040,Paul Halstead,6078368972,,Saturday  9am-12pm,May 1-November 30,Y,P/M,42.53812,-75.89662,N,N,Y,"(42.53812, -75.89662)"
Cortland,City of Cortland Farmers' Market,Main St. btwn Court & Orchard Sts.,Main St and Orchard St,Cortland,NY,13045,Julie Maddren,6077588373,,Tue/Sat  8am-2pm,May 24 -October 29,Y,P/M,42.60028,-76.18044,N,Y,Y,"(42.60028, -76.18044)"
Cortland,Dave's Veggies Farm Market,"5178 NYS Route 41 , Homer",5178 NY-41,Homer,NY,13077,David Root,6075430226,http://www.davesveggies.com,"Mon-Sat  10am-7pm, Sunday 10am-6pm",May 1-October 31,Y,P/M,42.659118,-76.203042,N,Y,Y,"(42.659118, -76.203042)"
Cortland,Homer Farmers' Market,First Religious Society's Green  on Main St.,South Main St and Central Park Pl,Homer,NY,13077,Bob Holdsworth,6072994920,,"Saturday  9am-1pm, Wed  4pm-7pm",May7-October 29,Y,P/M,42.63595,-76.17869,N,Y,Y,"(42.63595, -76.17869)"
Cortland,Virgil Farmers' Market,Virgil School 4 Corners Cortland,Route 215 and Route 392,Virgil,NY,13045,Christine Applegate,6078356205,,Saturday  9am-12pm,June 18-October 8,Y,M,42.51057,-76.19472,N,N,Y,"(42.51057, -76.19472)"
Delaware,Catskill Cattle Farm Stand,96 Laurel Bank Ave,96 Laurel Bank Ave,Deposit,NY,13754,Lonny or Liz Schaefer,6077276320,http://www.catskillcattle.com,Sun-Sat  8am-8pm,May 1-October 31,Y,M,42.07063,-75.40936,N,N,Y,"(42.07063, -75.40936)"
Delaware,Delhi Farmers' Market,Courthouse Square Main St.,Main St and Court St,Delhi,NY,13753,Meg Kennedy,6072938128,,Wednesdays,June 1-September 28,Y,M,42.27792,-74.91652,N,N,Y,"(42.27792, -74.91652)"
Delaware,Franklin Farmers' Market,Chapel Hall 25 Institute St.  Village of Franklin,25 Institute St.,Franklin,NY,13775,Ellen Curtis,6078295631,,Sunday  10am-2pm,May 29-October 9,Y,P/M,42.33901,-75.1672,N,N,Y,"(42.33901, -75.1672)"
Delaware,Hobart Farmers' Market,Stamford Town Hall Green 101 Maple Ave.,101 Maple Ave,Hobart,NY,12167,Andrew Flach,6075384007,https://www.facebook.com/HobartFarmersMarket/,Friday  4pm-7pm,June 3-September 30,Y,M,42.37016,-74.66867,N,N,Y,"(42.37016, -74.66867)"
Delaware,Pakatakan Farmers' Market,Round Barn of Halcottville 46676 State Hwy 30,46676 State Route 30,Halcottsville,NY,12438,Georgianna Fairlie,8452544290,http://roundbarnmarket.org,Saturday  9am-2pm,May 14-October 8,Y,P/M,42.20003,-74.596774,N,N,Y,"(42.20003, -74.596774)"
Delaware,RambleBramble Farm Stand,56508 State Hgwy 10 South Kortright,56508 NY-10,South Kortright,NY,13842,Jamie Bianco,6075384036,http://www.ramblefarm.com,Mon-Thu  9am-7pm,May 27-October 31,Y,P/M,42.34342,-74.724,N,N,Y,"(42.34342, -74.724)"
Delaware,Sidney Farmers' Market,"Video Entertainment Plus parking lot, 89 Main St.",89 Main St,Sidney,NY,13838,Jeanne Darling,6078656531,http://www.ccedelaware.org,"Tuesday  2pm-6pm, (4th Tue of Month 10a-6p)",June 28-August 30,Y,M,42.31426,-75.39045,N,N,Y,"(42.31426, -75.39045)"
Delaware,Walton Farmers' Market,UHS Delaware Valley Hospital 2 Titus Place,2 Titus Place,Walton,NY,13856,Jeanne Darling,6078656531,http://www.ccedelaware.org,1st & 3rd Wed 10-2,July 6-October 19,Y,M,42.16464,-75.12792,N,N,Y,"(42.16464, -75.12792)"
Dutchess,Amenia Farmers' Market,Amenia Town Hall 4988 Route 22,4974 Route 22,Amenia,NY,12501,Sophie Purdy Meili,4133297389,http://www.ameniafarmersmarket.com,Fridays  3pm-7pm,May-October,N,P/M,41.851201,-73.555719,N,Y,Y,"(41.851201, -73.555719)"
Dutchess,Amenia WINTER Farmers' Market,Amenia Town Hall 4988 Route 22,4988 New York 22,Amenia,NY,12501,Sophie Purdy Meili,4133297389,http://www.ameniafarmersmarket.com,"Saturday  10am-2pm, 1st & 3rd Saturday  Jan-Apr",November-April,N,M/X/W/P,41.851397,-73.554943,N,Y,Y,"(41.851397, -73.554943)"
Dutchess,Arlington Farmers' Market,"Vassar College Alumni Lawn , 123 Raymond Ave. Poughkeepsie",123 Raymond Ave,Poughkeepsie,NY,12603,Bob Legacy,9144747533,http://www.arlingtonhasit.org,Thursday  3pm-7pm,June 2-October 27,Y,M,41.68187,-73.89636,N,N,Y,"(41.68187, -73.89636)"
Dutchess,Beacon Farmers' Market,Beacon Ferry Dock 55 Red Flynn Rd.,55 Red Flynn Dr,Beacon,NY,12508,Sarah Simon,6175387577,,Sunday  10am-2pm,April 24-November 20,Y,P/M,41.50576,-73.9854,Y,Y,Y,"(41.50576, -73.9854)"
Dutchess,Beacon WINTER Farmers' Market,413 Main St.,413 Main Street,Beacon,NY,12508,Sarah Simon,6175387577,,Sunday  10am-2pm,December 4-April 16,N,X/W/P,41.50321,-73.96674,N,N,Y,"(41.50321, -73.96674)"
Dutchess,Dykeman Farm Farm Stand,31 Dykeman Lane Pawling,31 Dykeman Lane,Pawling,NY,12564,Beth Dykeman,8458326086,http://www.bestcorn.com,Daily  10am-6pm,July 1-November 1,Y,M,41.62739,-73.60795,N,N,Y,"(41.62739, -73.60795)"
Dutchess,Hyde Park Farmers' Market,Near Town Hall 4390 Rt 9,4390 Route 9,Hyde Park,NY,12538,Dot Chenevert,8452299336,http://www.hydeparkfarmersmarket.org,Saturday  9am-2pm,June 4-October 29,Y,M,41.7913,-73.93615,N,N,Y,"(41.7913, -73.93615)"
Dutchess,Millbrook Farmers' Market,Front St. & Franklin Ave. (Bank lot),Front St. and Franklin Ave.,Millbrook,NY,12545,Ian Daly,8452434410,http://www.millbrooknyfarmersmarket.com/,Saturday  9am - 1pm,May 28-October 29,N,P/M,41.78321,-73.69651,N,N,Y,"(41.78321, -73.69651)"
Dutchess,Millerton Farmers' Market,6 Dutchess Ave.,6 Dutchess Ave.,Millerton,NY,12546,Sheila DePaola,5187894259,http://www.millertonfarmersmarket.org/,Saturday 10am-2pm,Year-round,Y,YR,41.95424,-73.50979,N,Y,Y,"(41.95424, -73.50979)"
Dutchess,Pawling Farmers' Market,Pawling Village Green Charles Colman Blvd.,154 Charles Colman Blvd.,Pawling,NY,12564,Terry Deegan,9172244801,http://www.pawlingfarmersmarket.org,Saturday  9am-1pm,June 18-October 1,Y,M,41.56315,-73.60143,N,N,Y,"(41.56315, -73.60143)"
Dutchess,Poughkeepsie Plenty Fresh Interfaith Towers,66 Washington St.,66 Washington Street,Poughkeepsie,NY,12601,Cloud Bartoli,8454543792,http://www.dutchessoutreach.org/ppm,Thursday  11:30am-1pm,June 9-October 20,N,M,41.70773,-73.92935,N,Y,Y,"(41.70773, -73.92935)"
Dutchess,Poughkeepsie Plenty Fresh Maplewood,457 Maple St.,457 Maple St.,Poughkeepsie,ny,12601,Cloud Bartoli,8454543792,http://www.dutchessoutreach.org/ppm,Wednesday  2pm-3pm,June 8-October 19,Y,M,41.70012,-73.91199,N,N,Y,"(41.70012, -73.91199)"
Dutchess,Poughkeepsie Plenty Fresh Market,29 N Hamilton Street  Family Partnership Center,29 N Hamilton Street,Poughkeepsie,NY,12601,Cloud Bartoli,8454543792,http://www.dutchessoutreach.org/ppm,Wednesday  11:30am-1pm,June 8-October 19,Y,M,41.70459,-73.92197,N,N,Y,"(41.70459, -73.92197)"
Dutchess,Poughkeepsie Plenty Fresh Soldier's Fountain,Little Market and Montgomery st,Little Market and Montgomery st,Poughkeepsie,NY,12601,Cloud Bartoli,8454543792,http://www.dutchessoutreach.org/ppm,Thursday  2pm-3:30pm,June 9-October 20,Y,M,41.6995,-73.93151,N,N,Y,"(41.6995, -73.93151)"
Dutchess,Rhinebeck Farmers' Market,Municipal lot 61 E. Market St.,61 East Market St,Rhinebeck,NY,12572,Andrea Bartolomeo,5188211481,http://www.rhinebeckfarmersmarket.com,Sunday  10am-2pm,May 8-November 20,Y,P/M,41.92738,-73.91021,Y,Y,Y,"(41.92738, -73.91021)"
Dutchess,Rhinebeck WINTER Farmers' Market,Town Hall 80 E. Market St,80 E. Market St,Rhinebeck,NY,12572,Andrea Bartolomeo,5188211481,http://www.rhinebeckfarmersmarket.com,Alt. Sundays  10am-2pm,December 4-April 23,Y,X/W/P,41.926894,-73.908946,Y,Y,Y,"(41.926894, -73.908946)"
Dutchess,Share the Bounty Farm Stand,Hudson River Healthcare 3360 Route 343 Amenia,3360 Route 343,Amenia,NY,12501,Edward Frederick,8458387038,,Tuesday  9am-4pm,June 7-November 1,Y,M,41.85035,-73.55065,N,Y,Y,"(41.85035, -73.55065)"
Dutchess,Village of Fishkill Farmers' Market,Old Grand Union lot 1004 Main St. Rt. 52,1004 Main St,Fishkill,NY,12524,Julie Spann,9144565120,http://www.vofishkill.us,Thursday  9am-3pm,May 26-October 27,Y,P/M,41.53212,-73.90574,N,N,Y,"(41.53212, -73.90574)"
Erie,5 Loaves Farm Stand,1172 West Ave. Buffalo,1172 West Ave,Buffalo,NY,14213,Matt Kauffman,7168039241,http://5loavesfarm.blogspot.com,Saturday  10am-1pm,May 7-October 30,Y,P/M,42.9222,-78.8965,N,Y,Y,"(42.9222, -78.8965)"
Erie,Alden Farmers' Market,"13119 Broadway (Route 20) , btwn Tractor Supply & Save a Lot",13119 Broadway,Alden,NY,14004,Jenny Urbanski,7169376177,http://www.aldenny.org,Saturday  8:30am-1pm,May 14-October 15,Y,P/M,42.89784,-78.49904,N,N,Y,"(42.89784, -78.49904)"
Erie,Blasdell Farmers' Market,4271 Lake Ave,4271 Lake Ave,Hamburg,NY,14219,Jamie Decker,7166497917,http://www.hamburg-chamber.org,Wednesday  9am-2pm,May 18-September 28,Y,P/M,42.79704,-78.81905,N,N,Y,"(42.79704, -78.81905)"
Erie,Bowman Farms Farm stand,11259 Gowanda State Rd. North Collins,11259 Gowanda State Rd.,North Collins,NY,14111,Bruce Bowman,7168185222,http://www.bowmanfarmsinc.com,Daily  9am-5:30pm,June-October,Y,M,42.574596,-78.93425,N,Y,Y,"(42.574596, -78.93425)"
Erie,Broadway Farmers' Market,999 Broadway Buffalo parking entrances on Gibson or Lombard St.,999 Broadway,Buffalo,NY,14212,Kathleen Peterson,7168930705,https://www.facebook.com/BroadwayMarketBuffalo?ref=hl,Mon-Sat  8am-5pm,May 4-December 24,N,P/M/X,42.893162,-78.837667,N,N,Y,"(42.893162, -78.837667)"
Erie,Clarence Hollow Farmers' Market,Town parking lot 10717 Main St. (Rt. 5),10717 Main St,Clarence,NY,14031,Cheryl Anthony,7167591075,http://www.clarencefarmersmarket.com,Saturday  8am-1pm,June 4-October 29,Y,M,42.9808,-78.58904,N,N,Y,"(42.9808, -78.58904)"
Erie,Clinton Bailey Farmers' Market,"1443-1517 Clinton St. Buffalo, corner of Clinton & Bailey Sts., (FMNP Saturdays Only)",Bailey Ave and Clinton St,Buffalo,NY,14206,Sharon Baldi,7162080003,http://www.clintonbaileymarket.com,"Sat 6am-6pm  , (Sat Nov-April 6am-1pm) , Sun 7am-2pm , Mon-Fri  7am-5pm",Year-round,Y,YR,42.87205,-78.81998,N,Y,Y,"(42.87205, -78.81998)"
Erie,Common Roots Urban Farm Stand,309 Peckham St Buffalo,309 Peckham St,Buffalo,NY,14206,Terra Dumas,7162829109,,Saturday 10am-1pm,June 11-September 24,Y,M,42.88783,-78.84284,N,N,Y,"(42.88783, -78.84284)"
Erie,Downtown Buffalo Country Market,Buffalo Place Main St. btwn Court & Church Streets,344 Main Street,Buffalo,NY,14202,Erin Carmina,7168563150,http://www.buffaloplace.com,Tue/Thu  8am-2:30pm,May 12-October 27,Y,P/M,42.88418,-78.87491,N,Y,Y,"(42.88418, -78.87491)"
Erie,East Aurora Farmers' Market,Aurora Village (TOPS) Plaza 123 Grey St.,123 Grey St,East Aurora,NY,14052,Barbara Andres-Kester,7163482801,http://facebook.com/EastAuroraFarmersMarket,Sat/Wed  7am-1pm,May 7-November 23,Y,P/M,42.76593,-78.63413,N,N,Y,"(42.76593, -78.63413)"
Erie,Elmwood Village Farmers' Market,Elmwood Village at Elmwood Ave & Bidwell Pkwy,Elmwood Ave and Bidwell Pkwy,Buffalo,NY,14222,Karen Vilonen,7166915388,http://www.elmwoodmarket.org,Saturday  8am-1pm,May 7-November 26,Y,P/M,42.92371,-78.87702,N,Y,Y,"(42.92371, -78.87702)"
Erie,Elmwood Village WINTER Market,Elmwood Ave.  SUNY Buffalo,Elmwood Ave.,Buffalo,NY,14213,Karen Vilonen,7166915388,http://www.elmwoodmarket.org,Saturday  10am-2pm,December 5-April 29,N,X/W/P,42.95691,-78.87836,N,Y,Y,"(42.95691, -78.87836)"
Erie,Farm 2 Preschool Kenmore Ave Farmers' Market,500 Kenmore Ave. Buffalo,500 Kenmore Ave,Buffalo,NY,14223,Darla Ferrante,5856544745,,Tuesday  3pm-6pm,June 7-October 11,Y,M,42.95796,-78.83643,Y,Y,Y,"(42.95796, -78.83643)"
Erie,Grider Street Farmers' Market,351 Grider St. Buffalo,351 Grider St,Buffalo,NY,14215,Kelly Showard,7168984737,,Friday  10am-2pm,June 3-September 30,Y,M,42.924297,-78.828694,N,Y,Y,"(42.924297, -78.828694)"
Erie,Hamburg Farmers' Market,"Village municipal parking lot Main & Buffalo Sts. , (entrance on Main & Union Sts)",30 Buffalo St,Hamburg,NY,14075,Jamie Decker,7166497917,http://www.hamburg-chamber.org,Saturday  7:30am-1pm,May 7-October 29,Y,P/M,42.71677,-78.82994,N,N,Y,"(42.71677, -78.82994)"
Erie,Holland Farmers' Market,Municipal lot Route 16 Next to Fire Hall,25 North Main St,Holland,NY,14080,Marg Wnek,7165379590,http://www.thehollandmkt.com,Sunday  8:30am-1pm,May 1-October 30,Y,P/M,42.64149,-78.54248,N,N,Y,"(42.64149, -78.54248)"
Erie,Kenmore Farmers' Market,2919 Delaware Ave. at Delaware Rd.,2919 Delaware Ave,Buffalo,NY,14217,Patrick Mang,7168764118,https://www.facebook.com/pages/Kenmore-Farmers-Market/132985793616,Saturday  8am-12:30pm,June 18-October 29,Y,M,42.96362,-78.8698,N,N,Y,"(42.96362, -78.8698)"
Erie,Lancaster Sunday Farmers' Market,4913 Transit Rd.,4913 Transit Rd.,Buffalo,NY,14221,Ann Jordan,7164812961,http://www.lancastervillagemarket.com,Sunday  9am-2pm,May 1-Octobter 30,Y,P/M,42.98538,-78.69692,N,Y,Y,"(42.98538, -78.69692)"
Erie,MAP ELIM Mobile Market,"Parking lot 70 Chalmers Ave. Buffalo, btw Holden St & Filmore Ave.",70 Chalmers Avenue,Buffalo,NY,14214,Danielle Rovillo,7168825327,http://www.mass-ave.org,Thursday  4pm-6pm,June 9-October 27,Y,M,42.93819,-78.8358,N,Y,Y,"(42.93819, -78.8358)"
Erie,MAP Farm Stand,389 Massachusetts Ave. Buffalo,389 Massachusetts Ave.,Buffalo,NY,14213,Danielle Rovillo,7168825327,http://www.mass-ave.org,Tuesday  4pm-6pm,June 7-October 25,Y,M,42.9128,-78.88774,N,Y,Y,"(42.9128, -78.88774)"
Erie,MAP Gerard Place Mobile Market,Front lawn 2515 Bailey Ave. at E. Delavan Buffalo,2515 Bailey Ave,Buffalo,NY,14215,Danielle Rovillo,7168825327,http://www.mass-ave.org,Wednesday  11am-1pm,June 8-October 26,Y,M,42.92323,-78.81325,N,Y,Y,"(42.92323, -78.81325)"
Erie,MAP Mulberry Street Block Club,"Moot Community Center Parking lot, 292 High Street Buffalo",292 High Street,Buffalo,NY,14204,Danielle Rovillo,7168825327,http://www.mass-ave.org,Thursday 11am-1pm,June 9-October 27,Y,M,42.90029,-78.85812,N,Y,Y,"(42.90029, -78.85812)"
Erie,MAP Salvation Army Mobile Market,Parking lot 960 Main St. at High St. Buffalo,960 Main Street,Buffalo,NY,14202,Danielle Rovillo,7168825327,http://www.mass-ave.org,Friday  11am-1pm,June 10-October 28,Y,M,42.90008,-78.87024,N,Y,Y,"(42.90008, -78.87024)"
Erie,MAP West Side Community Service,"Parking lot 161 Vermont St Buffalo, btw Fargo & West Aves.",161 Vermont St,Buffalo,NY,14213,Danielle Rovillo,7168825327,http://www.mass-ave.org,"Monthly, first Wed , 4pm-6pm","July 6, Aug 3, Sept 7, Oct 5",Y,M,42.90547,-78.89222,N,Y,Y,"(42.90547, -78.89222)"
Erie,North Buffalo Farmers' Market,85 Dakota St. Buffalo,85 Dakota St.,Buffalo,NY,14216,Patricia Banning,7168866635,http://www.northbuffalo.org,Thursday  3pm-7pm,June 2-October 27,Y,M,42.94668,-78.86602,N,Y,Y,"(42.94668, -78.86602)"
Herkimer,Mohawk Farmers' Market,Weller Park 41 W Main St.,41 West Main St,Mohawk,NY,13407,Marilyn Bridger,3158661671,,Wednesday  2pm-5pm,June 1-October 5,Y,M,43.01075,-75.00846,N,N,Y,"(43.01075, -75.00846)"
Erie,Orchard Park at Fox Run Farmers' Market,Orchard Park One Fox Run Lane,One Fox Run Lane,Orchard Park,NY,14127,Michelle Bermingham,7166625001,https://www.facebook.com/pages/Orchard-Park-Farmers-Market-at-Fox-Run/199492926762050,Thursday  9am-1:30pm,May 26-October 27,Y,P/M,42.76345,-78.77619,N,N,Y,"(42.76345, -78.77619)"
Erie,Seneca Nation Farmers' Market,"11150 US-20 (Routes 5 & 20) Irving, Seneca OneStop Gas Station",11150 US-20,Irving,NY,14081,Azalia Garlow,7169037066,http://www.foodisourmedicine.org,Tuesday  10am-3pm,May 17-October 18,Y,P/M,42.57931,-79.07662,N,N,Y,"(42.57931, -79.07662)"
Erie,Springville Farmers' Market,Gentner Auction 341 W. Main St. (Rt. 39),341 West Main St,Springville,NY,14141,Donna Goldhawk,7165600198,,Wednesday  7am-3pm,Year-round,Y,YR,42.50906,-78.67989,N,N,Y,"(42.50906, -78.67989)"
Erie,Uptown Fresh Healthy Lifestyles Market,3248 Bailey Ave. (next to fire station) Buffalo,3248 Bailey Ave.,Buffalo,NY,14215,Prennessia Salder-Lambert,7168483430,http://www.buffalopromiseneighborhood.org,Saturday  10am-2pm,June 25-September 24,Y,M,42.94321,-78.8137,N,Y,Y,"(42.94321, -78.8137)"
Erie,Westside Farm Stand,251 Vermont St. Buffalo,251 Vermont St.,Buffalo,NY,14213,Carrie Nader,7168833182,https://www.facebook.com/westsideherbsandalliums,Friday  5pm-7pm,May 20-November 18,Y,P/M,42.90728,-78.88948,N,N,Y,"(42.90728, -78.88948)"
Erie,Williamsville Mill Farmers' Market,"Island Park , 5565 Main St. Williamsville",5565 Main St.,Williamsville,NY,14221,Ellie Grenauer,7169846572,http://www.williamsvillefarmersmarket.com,Saturday  8am-1pm,May 14-October 29,Y,P/M,42.962438,-78.745756,N,N,Y,"(42.962438, -78.745756)"
Essex,Drinkwine Produce Farm Stand,Route 9N & 22nd Streetroad Ticonderoga,Route 9N,Ticonderoga,NY,12883,Henry Drinkwine,5185856346,,Daily  10am-6pm,June 1-October 31,Y,M,43.86062,-73.44656,N,N,Y,"(43.86062, -73.44656)"
Essex,Elizabethtown Farmers' Market,Behind Adirondack Center Museum,7590 Court St,Elizabethtown,NY,12932,Vicky Rayl,5186517680,http://www.adirondackfarmersmarket.com,Friday  9am-1pm,June 3-September 16,Y,M,44.21505,-73.59094,N,N,Y,"(44.21505, -73.59094)"
Essex,Keene Farmers' Market,Rt. 73 Marcy Airfield 1 mi South of Rt. 9N jct.,2253 State Route 73,Keene Valley,NY,12943,Vicky Rayl,5186517680,http://www.adirondackfarmersmarket.com,Sunday  9:30am-2pm,June 19-October 9,Y,M,44.22067,-73.78561,N,N,Y,"(44.22067, -73.78561)"
Essex,Lake Placid Farmers' Market,Saint Agnes School parking lot,2322 Saranac Ave,Lake Placid,NY,12946,Gail Brill,5185861063,http://www.ausablevalleygrangefarmersmarkets.com/,Wednesday  9am-1pm,June 1-October 19,Y,M,44.2925,-73.98829,N,N,Y,"(44.2925, -73.98829)"
Essex,Rivermede Farm Market,"1925 Route 73, Keene Valley",1925 Route 73,Keene Valley,NY,12943,Robert Hastings,5185764686,http://www.rivermedefarm.com,"Daily  9am-5pm  , May-Dec  daily, Jan-May  closed Wed/Thu",Year-round,N,YR,44.19937,-73.7865,N,N,Y,"(44.19937, -73.7865)"
Essex,Schroon Lake Farmers' Market,Town Hall parking lot 15 Leland Ave,15 Leland Ave,Schroon Lake,NY,12870,Gail Brill,5185861063,http://www.ausablevalleygrangefarmersmarkets.com/,Monday  9am-1pm,June 27-August 29,Y,M,43.83666,-73.76049,N,N,Y,"(43.83666, -73.76049)"
Essex,Ticonderoga Farmers' Market,1114 Wicker Street near Walmart entrance,1114 Wicker Street,Ticonderoga,NY,12883,Mathew Courtright,5185856619,https://www.facebook.com/TiAreaFarmersMarket,Saturday  10am-1pm,July 2-October 29,Y,M,43.85688,-73.43642,N,N,Y,"(43.85688, -73.43642)"
Essex,Willsboro Farmers' Market,Route 22 South of Champlain National Bank,3900 NY Rt 22,Willsboro,NY,12996,Vicky Rayl,5186517680,http://www.adirondackfarmersmarket.com,Thursday  9am-1pm,June 16-September 8,Y,M,44.36971,-73.395629,N,N,Y,"(44.36971, -73.395629)"
Franklin,Chateaugay Lake Farmers' Market,Route 374 Hollywood Inn,4939 State Route 374,Merrill,NY,12955,Vicky Rayl,5186517680,http://www.adirondackfarmersmarket.com,Saturday  9am-1pm,June 18-September 3,Y,M,44.78327,-73.98388,N,N,Y,"(44.78327, -73.98388)"
Franklin,JCEO  Route 11 Garden Stand,"3400 State Route 11, Malone",3400 State Route 11,Malone,NY,12953,Richard LaVigne,5183194028,http://www.jceo.org,"Mon-Fri  10am-6pm, Saturday 10am-4pm",June 27-September 3,Y,M,44.8476,-74.31148,N,N,Y,"(44.8476, -74.31148)"
Franklin,JCEO Route 51 Garden Stand,"394 County Rt 51 (Creighton Rd.), Malone",394 County Highway 51,Malone,NY,12953,Richard LaVigne,5183194028,http://www.jceo.org,"Mon-Fri  10am-6pm, Saturday 10am-4pm",June 27-September 3,Y,M,44.8572,-74.33951,N,N,Y,"(44.8572, -74.33951)"
Franklin,Malone Farmers' Market,Malone Airport Rt. 11 opposite Wal-Mart,Airport Road and US 11,Malone,NY,12953,Vicky Rayl,5186517680,http://www.adirondackfarmersmarket.com,Wed  12pm-4:30pm,June 15-October 12,Y,M,44.84733,-74.32773,N,Y,Y,"(44.84733, -74.32773)"
Franklin,Saranac Green Market,"Town Green Route 3 near High School, McCutcheon Lane and Chazy Lake Rd.",McCutcheon Lane and Chazy Lake Road,Saranac,NY,12981,Joe Orefice,5182931380,http://www.saranacgreenmarket.com/,Sundays 10am-1pm,July 3-September 11,N,M,44.66116,-73.73588,N,N,Y,"(44.66116, -73.73588)"
Franklin,Saranac Lake Farmers' Market,Lake Flour Bakery 23 River St.,23 River Street,Saranac Lake,NY,12983,Vicky Rayl,5186517680,http://www.adirondackfarmersmarket.com,Tuesday  10am-2pm,May 10-September 27,Y,P/M,44.3248,-74.13056,N,N,Y,"(44.3248, -74.13056)"
Franklin,Saranac Lake Village Farmers' Market,Riverside Park  Corner of Main St. & Route 3,Main St and Route 3,Saranac Lake,NY,12983,Gail Brill,5185861063,http://www.ausablevalleygrangefarmersmarkets.com/,Saturday  9am-2pm,June 4-October 8,Y,M,44.32503,-74.13178,N,N,Y,"(44.32503, -74.13178)"
Franklin,Saranac Lake WINTER Farmers' Market,421 Lake Flower Ave.,421 Lake Flower Ave.,Saranac Lake,NY,12983,Ian Ater,5188345012,http://www.ausablevalleygrangefarmersmarkets.com/,Saturday  10am-2pm,October 29-December 17,N,M/X,44.31646,-74.12123,N,N,Y,"(44.31646, -74.12123)"
Franklin,Tupper Lake Farmers' Market,Wild Center Museum 46 Museum Dr,46 Museum Dr,Tupper Lake,NY,12986,Vicky Rayl,5186517680,http://www.adirondackfarmersmarket.com,Thursday  10am-2pm,June 9-September 22,Y,M,44.21956,-74.43693,N,Y,Y,"(44.21956, -74.43693)"
Fulton,Gloversville Farmers' Market,"Elm Street Pavilion, btwn Church & Spring Sts.",9 Elm Street,Gloversville,NY,12078,Michael Tillson,5188829306,http://www.fmfma.org,Sat  8:30am-12:30pm,May 7-October 15,Y,P/M,43.052604,-74.345796,N,Y,Y,"(43.052604, -74.345796)"
Fulton,Johnstown Farmers' Market,City Park W Main St.,Main and William,Johnstown,NY,12095,Michael Tillson,5188829306,http://www.fmfma.org,Tuesday  3pm-6pm,June 14-October 18,Y,M,43.00636,-74.37421,N,Y,Y,"(43.00636, -74.37421)"
Fulton,Northville Farmers' Market,"Waterfront Park, S. Main St., behind Timeless Tavern",162 South Main St,Northville,NY,12134,Wendy Reu,5188634211,http://www.villageofnorthville.com/events/,Fri  2pm-5pm,May 27-October 9,N,P/M,43.22568,-74.17102,N,N,Y,"(43.22568, -74.17102)"
Genesee,Curbside Market - 400 Towers,400 East Main St. Batavia,400 East Main St.,Batavia,NY,14020,Mitch Gruber,5853283380,,Monday 11am-11:40am,July-November,Y,M,42.99659,-78.17634,N,Y,Y,"(42.99659, -78.17634)"
Genesee,Curbside Market-Gillam Grant Comm Ctr,6966 W. Bergen Rd. Bergen,6966 W Bergen Road,Bergen,NY,14416,Mitch Gruber,5853283380,http://www.foodlinkny.org,Monday  10am-10:30am,July-November,Y,M,43.0771,-78.00657,N,Y,Y,"(43.0771, -78.00657)"
Genesee,Genesee Country Farmers' Market,Downtown Batavia Market Bank St. & Alva Place,Bank St and Alva Place,Batavia,NY,14020,Michael Bakos,7168664958,,Tue/Thu/Fri  9am-5pm,June 10-October 28,Y,M,42.99905,-78.18151,Y,Y,Y,"(42.99905, -78.18151)"
Genesee,Leon Halat Jr Farm Stand,8282 Park Rd. Batavia,8282 Park Rd.,Batavia,NY,14020,Leon Halat Jr,7164744573,,Tue-Sat  9:30am-5pm,June 10-December 23,Y,M/X,43.01245,-78.2021,N,N,Y,"(43.01245, -78.2021)"
Genesee,LeRoy Farmers' Market,Trigon Park Route 5 (Main St.),Trigon Park,Le Roy,NY,14482,Sharon Jeary,5857682527,http://www.villageofleroy.org,Saturday  9am-12:30pm,June 25-October 15,Y,M,42.97756,-77.98592,N,N,Y,"(42.97756, -77.98592)"
Greene,Black Horse Farms Farm Stand,10094 Rt. 9W,10094 Rte 9W,Athens,NY,12015,Chellie Apa,5187318776,http://www.blackhorsefarms.com,"Daily  8am-6pm, closed Dec 25-Mar 26, 9am-5pm",Year-round,Y,YR,42.30634,-73.85043,N,Y,Y,"(42.30634, -73.85043)"
Greene,Bulich Creekside Farm Farm Stand,1682 Route 23B,1682 Route 23B,Leeds,NY,12451,Ron Bulich,5182912449,,"Mon-Fri  12pm-6pm, Sat/Sun 10am-6pm",May 10-October 31,Y,P/M,42.26297,-73.92541,N,N,Y,"(42.26297, -73.92541)"
Greene,Catskill Farmers' Market,344 Main St. Catskill,344 Main St.,Catskill,NY,12414,Rebecca Van Alstyne,5187198244,http://www.catskillcommunitycenter.org,Friday  4pm-7pm,June 3-October 14,Y,M,42.21821,-73.86507,N,N,Y,"(42.21821, -73.86507)"
Greene,Coxsackie Farmers' Market,Coxsackie Boat Launch 1 Betke Blvd,1 Betke Boulevard,Coxsackie,NY,12051,Kimberly Bender,5183303008,http://www.coxsackiefarmersmarket.org,Wednesday  4pm-7pm,May 18-September 28,Y,P/M,42.3525,-73.79622,N,N,Y,"(42.3525, -73.79622)"
Hamilton,Indian Lake Community Farmers' Market,Parking lot at the intersection of Routes 28 & 30 Indian Lake,Route 28 and Route 30,Indian Lake,NY,12842,Brenda Valentine,5186485636,,Saturday  10am-2pm,July 2-September 24,N,M,43.78247,-74.26541,N,N,Y,"(43.78247, -74.26541)"
Hamilton,Speculator Farmers & Crafters Farmers' Market,Speculator Village Pavilion,State Route 30 and Elliot Ln,Speculator,NY,12164,Donna Benkovich,5185484521,http://www.speculatorchamber.com,Thursday  2pm-5pm,June 23-September 15,Y,M,43.49679,-74.36073,N,N,Y,"(43.49679, -74.36073)"
Herkimer,Dolgeville Farmers' Market,Municipal Parking Lot between Main and Helmer,55 North Main Street,Dolgeville,NY,13329,Joseph Jablonski,3157177710,http://farmersmarketherkimerhealthnet.com/dolgeville,Saturday  9am-1pm,May 21-October 29,Y,P/M,43.10413,-74.77077,N,N,Y,"(43.10413, -74.77077)"
Herkimer,Dolgeville WINTER Farmers'  Market,78 South Main Street Askarada Place,78 South Main Street,Dolgeville,NY,13329,Dean Foreman,5187289602,,1st and 3rd Sats  9am-1pm,November 19-April 15,N,M/X/W/P,43.09993,-74.77387,N,N,Y,"(43.09993, -74.77387)"
Herkimer,Ilion Farmers' Market,"Clapsaddle Farm heated barns  , 437 Otsego St. (State Rt 51 S)",437 Otsego St,Ilion,NY,13357,James Parker,3158944660,http://farmmarket.herkimerhealthnet.com/ilion.html,"Friday  12pm-6pm, Saturday  10am-5pm",Year-round,Y,YR,43.00028,-75.04423,N,Y,Y,"(43.00028, -75.04423)"
Herkimer,Little Falls Farmers' & Flea Market,"M&T Bank parking lot, Albany St.",Albany Street and 2nd Street,Little Falls,NY,13365,Mary Davis,3158662619,,Saturday  8am-1pm,May 7-November 19,Y,P/M,43.04284,-74.85828,N,N,Y,"(43.04284, -74.85828)"
Herkimer,Little Falls WINTER Farmers Market,Travelodge 20 Albany St.,20 Albany St.,Little Falls,NY,13365,Michael Skwara,3159850088,,2nd & 4th Sat  9am-1pm,November-April,N,M/X/W/P,43.042006,-74.859812,N,N,Y,"(43.042006, -74.859812)"
Herkimer,MAWS Farm Stand,"7342 Main Street , Newport",7342 Main Street,Newport,NY,13416,Michael Skwara,3159850088,http://www.mawsfarm.com,"Mon-Sat  10am-6pm, Sunday  12pm-6pm, Hours change Nov 1",Year-round,Y,YR,43.18096,-75.01054,N,Y,Y,"(43.18096, -75.01054)"
Herkimer,Old Forge Farmers' Market,Park Ave Lamberion st behind Old Forge Hardware,Crosby Blvd and Park Ave,Old Forge,NY,13420,Nicholas Rose,3153693353,http://www.cap-21.org,Friday  1pm-5pm,June 24-October 7,Y,M,43.70893,-74.97286,N,Y,Y,"(43.70893, -74.97286)"
Herkimer,Salisbury Farmers' Market,Town Hall Parking Lot 126 State Route 29A,126 State Route 29A,Salisbury Center,NY,13329,Gina Thompson,3154299102,,Friday  9am-1pm,May 27-October 14,Y,P/M,43.14304,-74.78544,N,N,Y,"(43.14304, -74.78544)"
Jefferson,Alexandria Bay Farmers' Market,Kinney Drugs Route 12,21 Route 12,Alexandria Bay,NY,13607,Keri Jobson,3154829531,http://www.visitalexbay.org,Friday  9am-3pm,May 20-September 16,N,P/M,44.33191,-75.91425,N,N,Y,"(44.33191, -75.91425)"
Jefferson,Black River Farmers' Market,"Sally Ploof Hunter Library, 101 Public Works Drive Black River",101 Public Works Drive,Black River,NY,13612,Shawn Hunt,3157735163,,Tuesday  11am-6pm,June 21-September 13,Y,M,44.01594,-75.78625,N,N,Y,"(44.01594, -75.78625)"
Jefferson,Bushgardens Farm Stand,"10371 NYS Route 26, Carthage",10371 NYS Route 26,Carthage,NY,13619,Loren Bush,3157836745,,"M/T/Th/Sat/Sun  6a-9p, Wed/Fri  3pm-8pm",May 15-November 1,Y,P/M,43.91954,-75.58686,N,Y,Y,"(43.91954, -75.58686)"
Jefferson,Cape Vincent Farmers' Market,Village Green Gouvello St.,Broadway St and James St,Cape Vincent,NY,13618,Shelley Higgins,3156542481,http://www.capevincent.org,Saturday  10am-4pm,June 18-October 8,Y,M,44.12838,-76.33472,N,N,Y,"(44.12838, -76.33472)"
Jefferson,Carthage Farmers' Market,"Farmers Market Pavilion , 150 Riverside Dr. (behind Carthage Rescue Squad)",215 Spring St,Carthage,NY,13619,Lori Boland,3154933590,http://www.carthageny.com,Friday  7am-2pm,May 27-October 28,Y,P/M,43.97798,-75.61225,N,N,Y,"(43.97798, -75.61225)"
Jefferson,Clayton Chamber of Commerce Farmers' Market,Village Park Circle,615 East Line Road,Clayton,NY,13624,Tricia Bannister,3156863771,http://www.1000island-clayton.com,Thursday  11am-5pm,June 2-October 15,Y,M,44.2298,-76.07713,N,N,Y,"(44.2298, -76.07713)"
Jefferson,Little m Farm,16611 County Route 64 Watertown,16611 County Rd 64,Watertown,NY,13601,Gail Millard,3154089752,,Tue-Sun  9am-6pm,April 30-November 20,N,P/M,43.90772,-75.97562,N,Y,Y,"(43.90772, -75.97562)"
Jefferson,MDC Show & Market Hogs Farm Stand,"39449 County Rd. 24, Antwerp",39449 County Rd. 24,Antwert,NY,13608,Gerard Marshall,3152211193,,"Mon-Sat  9am-9pm, Sunday  10am-6pm",May 15-November 1,Y,P/M,44.23889,-75.6159,N,N,Y,"(44.23889, -75.6159)"
Jefferson,The Cheese Store Farmers' Market,"19401 NYS Rt. 3 Outer Arsenal St., Jefferson Bulk Milk Co-op Watertown",19401 NYS Route 3,Watertown,NY,13601,Brian Gorman,3157885257,http://www.jeffersonbulkmilk.com,Friday  2:30pm-6:30pm,May 27-October 7,Y,P/M,43.96978,-75.98608,N,N,Y,"(43.96978, -75.98608)"
Jefferson,Tickle the Earth Farm Stand,13501 County Route 155,13501 County Route 155,Adams Center,NY,13606,Almeda Grandjean,3155835660,,Daily  11am-5pm,May -October,N,P/M,43.88524,-75.94957,N,Y,Y,"(43.88524, -75.94957)"
Jefferson,Watertown Farm & Craft Market,317 Washington St. Dulles State Office Bldg.,317 Washington Street,Watertown,NY,13601,Kylie Peck,,http://www.watertownny.com,Wed  6:30am-3:30pm,May 25-October 5,Y,P/M,43.97173,-75.91116,Y,Y,Y,"(43.97173, -75.91116)"
Jefferson,Watertown Saturday Farmers' Market,Pavilion at J.B. Wise 175 Black River Pkway,175 Black River Parkway,Watertown,NY,13601,Kathleen Mereand,3157829339,https://www.facebook.com/Watertown-Saturday-Farmers-Market-106662177762/,Saturday  9am-2pm,June 4-October 15,Y,M,43.97651,-75.90988,N,Y,Y,"(43.97651, -75.90988)"
Jefferson,Windswept Meadows Farm Stand,17025 Cty Rt 68 Watertown,17025 County Road 68,Watertown,NY,13601,Delta Keeney,3157881933,http://www.keeneyswindsweptmeadowsfarm.com,Daily  7am-9pm,July 1-Oct 31,Y,M,43.91784,-75.87206,N,Y,Y,"(43.91784, -75.87206)"
Kings,Bartel-Pritchard Square Greenmarket,"Prospect Park West at 15th St. , Inside park entrance",Prospect Park West and 14th Street,Brooklyn,NY,11215,Chelsea Whittaker,2127887476,http://www.grownyc.org/greenmarket,Wed/Sun  8am-3pm,Year-round,Y,YR,40.66094,-73.97979,N,Y,Y,"(40.66094, -73.97979)"
Kings,Bay Ridge Greenmarket,3rd Ave. & 95th St. inside Walgreen's parking lot,Third Ave and 95th St,Brooklyn,NY,11209,Chelsea Whittaker,2127887476,http://www.grownyc.org/greenmarket,Saturday  8am-3pm,May 7-November 19,Y,P/M,40.61724,-74.03362,N,Y,Y,"(40.61724, -74.03362)"
Kings,Bensonhurst Greenmarket,18th Ave. btwn 81st & 82nd Sts.,8100 18th Ave,Brooklyn,NY,11214,Chelsea Whittaker,2127887476,http://www.grownyc.org/greenmarket,Sunday  9am-4pm,June 5-November 20,Y,M,40.60958,-73.99944,N,Y,Y,"(40.60958, -73.99944)"
Kings,Boro Park Greenmarket,14th Ave. btwn 49th & 50th Sts.,14th Ave and 49th St,Brooklyn,NY,11219,Chelsea Whittaker,2127887476,http://www.grownyc.org/greenmarket,Thursday  8am-3pm,July 7-November 17,Y,M,40.6337,-73.98992,N,Y,Y,"(40.6337, -73.98992)"
Kings,Brooklyn Borough Hall Greenmarket,Court & Montague Sts. Supreme Court Plaza,Court St and Montague St,Brooklyn,NY,11201,Chelsea Whittaker,2127887476,http://www.grownyc.org/greenmarket,Tue/Thu/Sat  8am-5pm,Year-round,Y,YR,40.69375,-73.99047,N,Y,Y,"(40.69375, -73.99047)"
Kings,Brownsville Pitkin Youthmarket,Pitkin Ave. Between Thomas Boyland & Amboy Streets,Pitkin Ave. between Thomas Boyland and Amboy Streets,Brooklyn,NY,11212,Kori Petrovic,2127887476,http://www.grownyc.org/youthmarket,Saturday 10am-3pm,July 9-November 19,Y,M,40.69245,-73.99036,N,Y,Y,"(40.69245, -73.99036)"
Kings,Brownsville Rockaway Youthmarket,Rockaway Ave btwn Livonia & Dumont Aves.,Rockaway Ave and Livonia Ave,Brooklyn,NY,11212,Kori Petrovic,2127887476,http://www.grownyc.org/youthmarket,Friday  12pm-5pm,July 8-November 18,Y,M,40.66255,-73.90895,N,Y,Y,"(40.66255, -73.90895)"
Kings,Bushwick Broadway Farmers' Market,Broadway and Boyland St.,Broadway and Thomas S Boyland Street,Brooklyn,NY,11385,Sean-Michael Fleming,6463939305,http://www.bushwickfarmersmarket.org,Thursday  9am-3pm,June 30-November 17,Y,M,40.6853,-73.91473,N,Y,Y,"(40.6853, -73.91473)"
Kings,Bushwick Maria Hernandez Farmers' Market,Maria Hernandez Park Knickerbocker Ave. at Starr St.,Knickerbocker Ave and Starr St,Brooklyn,NY,11237,Sean-Michael Fleming,6463939305,http://www.bushwickfarmersmarket.org,Saturday  9am-3pm,June 25-November 19,Y,M,40.70281,-73.92539,N,Y,Y,"(40.70281, -73.92539)"
Kings,Carroll Gardens Greenmarket,Carroll St. btwn Smith & Court Sts.,Carroll St and Court St,Brooklyn,NY,11231,Chelsea Whittaker,2127887476,http://www.grownyc.org/greenmarket,Sunday  8am-3pm,Year-round,Y,YR,40.68106,-73.99653,N,Y,Y,"(40.68106, -73.99653)"
Kings,Coney Island Farm Stand,Surf Ave. & W. 16th St.,Surf Ave and West 16th Street,Brooklyn,NY,11224,Rocco Brescia,9178739261,http://www.astelladevelopment.org,Sunday  9am-3pm,July 12-November 22,Y,M,40.57542,-73.98337,N,Y,Y,"(40.57542, -73.98337)"
Kings,Cortelyou Greenmarket,Cortelyou Rd. btwn Argyle & Rugby Rds.,1399 Cortelyou Rd,Brooklyn,NY,11226,Chelsea Whittaker,2127887476,http://www.grownyc.org/greenmarket,Sunday  8am-3pm,Year-round,Y,YR,40.64044,-73.96617,N,Y,Y,"(40.64044, -73.96617)"
Kings,Cypress Hills Youthmarket,Fulton St. btwn Richmond & Logan Sts.,Fulton St. and Logan St.,Brooklyn,NY,11208,Kori Petrovic,2127887476,http://www.grownyc.org/youthmarket,Friday  11am-6pm,July 8-November 18,Y,M,40.68206,-73.87788,N,Y,Y,"(40.68206, -73.87788)"
Kings,East New York Farmers' Market I,"United Comm. Centers, Schenck Ave, btwn New Lots & Livonia",613 New Lots Ave,Brooklyn,NY,11207,Ana Aguirre,7186497979,http://www.eastnewyorkfarms.org,Saturday  9am-3pm,June 25-November 26,Y,M,40.6647,-73.88659,N,Y,Y,"(40.6647, -73.88659)"
Kings,East New York Farmers' Market II,New Lots & Georgia Aves.,New Lots Ave and Georgia Ave,Brooklyn,NY,11207,Ana Aguirre,7186497979,http://www.eastnewyorkfarms.org,Wed  3:30pm- 6:30pm,July 6-October 26,Y,M,40.66075,-73.8955,N,Y,Y,"(40.66075, -73.8955)"
Kings,Flatbush Junction Youthmarket,Flatbush & Nostrand Aves.,Flatbush Ave and Nostrand Ave,Brooklyn,NY,11210,Kori Petrovic,2127887476,http://www.grownyc.org/greenmarket,Saturday  8:30am-3pm,July 9-November 19,Y,M,40.63286,-73.9477,N,Y,Y,"(40.63286, -73.9477)"
Kings,Fort Greene Park Greenmarket,Washington Park btwn Dekalb Ave. & Willoughby St.,Washington Park and DeKalb Ave,Brooklyn,NY,11205,Chelsea Whittaker,2127887476,http://www.grownyc.org/greenmarket,Saturday  8am-4pm,Year-round,Y,YR,40.68962,-73.97313,N,Y,Y,"(40.68962, -73.97313)"
Kings,Graham Avenue Farmers' Market,Cook St. & Graham Ave.,Graham Ave and Cook St,Brooklyn,NY,11206,Betty Cooney,7183876643,http://www.grahamavenuebid.net,Saturday  8am-4:30pm,July 2-October 29,Y,M,40.70235,-73.94238,N,Y,Y,"(40.70235, -73.94238)"
Kings,Grand Army Plaza Greenmarket,Flatbush Ave. & Prospect Park West,Flatbush Ave and Grand Army Plaza,Brooklyn,NY,11238,Chelsea Whittaker,2127887476,http://www.grownyc.org/greenmarket,Saturday  8am-4pm,Year-round,Y,YR,40.67412,-73.9695,N,Y,Y,"(40.67412, -73.9695)"
Kings,H.S. for Public Service Youth Farm Farmers' Market,600 Kingston Ave.,600 Kingston Ave,Brooklyn,NY,11203,Steve Frillman,2125942155,http://www.theyouthfarm.org,Wed  2:30pm-6:30pm,June 22-October 26,Y,M,40.65866,-73.94384,N,Y,Y,"(40.65866, -73.94384)"
Kings,Harvest Home Clinton Hills Farmers' Market,"Lafayette St., Btwn Washington & Waverly Aves.",267 Lafayette St,Brooklyn,NY,11238,Maritza Owens,2128283361,http://www.harvesthomefm.org,Tuesday  8am-4pm,July 5-November 22,Y,M,40.6882,-73.96615,N,Y,Y,"(40.6882, -73.96615)"
Kings,Harvest Home Coney Island Farmers' Market,Ocean Parkway btwn Ave. Z & Shore Rd.,Ocean Pkwy and Avenue Z,Brooklyn,NY,11235,Maritza Owens,2128283361,http://www.harvesthomefm.org,Wed/Fri  8am-4pm,June 15-November 23,Y,M,40.58669,-73.96578,N,Y,Y,"(40.58669, -73.96578)"
Kings,Harvest Home Kings Co. Hospital Farmers' Market,Clarkson Ave btwn E 37th & E 38th Sts.,511 Clarkson Ave,Brooklyn,NY,11203,Maritza Owens,2128283361,http://www.harvesthomefm.org,Wednesday  8am-4pm,June 8-November 23,Y,M,40.65588,-73.94245,N,Y,Y,"(40.65588, -73.94245)"
Kings,Harvest Home Marcy Park Farmers' Market,Myrtle & Marcy Aves.,Myrtle Ave and Marcy Ave,Brooklyn,NY,11206,Maritza Owens,2128283361,http://www.harvesthomefm.org,Thursday  8am-4pm,July 9-November 19,Y,M,40.69537,-73.94922,N,Y,Y,"(40.69537, -73.94922)"
Kings,Hattie Carthan After Church Farmers' Market,49 Van Buren St. Hattie Carthan Herban Farm,49 Van Buren St,Brooklyn,NY,11221,Yonnette Fleming,7186383566,http://www.hattiecarthancommunitymarket.com,Sunday  1pm-6pm,August 2-November 22,Y,M,40.69024,-73.94359,N,Y,Y,"(40.69024, -73.94359)"
Kings,Hattie Carthan Community Farmers' Market,363-365 Clifton Pl. Nostrand & Marcy Aves.,365 Clifton Pl,Brooklyn,NY,11216,Yonnette Fleming,7186383566,http://www.hattiecarthancommunitymarket.com,Saturday  9am-3pm,July 11-November 21,Y,M,40.68965,-73.94879,N,Y,Y,"(40.68965, -73.94879)"
Kings,Isabahlia Farmers' Market,Powell Street Garden 410 Livonia Ave.,410 Livonia Ave,Brooklyn,NY,11212,Brenda Thompson-Duchene,7184983174,http://www.isabahlialoefinc.org,Saturday  8am-4pm,June 25-October 29,Y,M,40.66353,-73.90226,N,Y,Y,"(40.66353, -73.90226)"
Kings,Isabahlia WINTER Farmers' Market,93 New Lots Ave.,93 New Lots Ave,Brooklyn,NY,11212,Brenda Thompson-Duchene,7184983174,,Saturday  8am-1pm,November 5-December 16,N,M/X,40.65817,-73.90181,N,Y,Y,"(40.65817, -73.90181)"
Kings,Kensington Youthmarket,Ft. Hamilton Pkwy btwn E. 4th & E. 5th Sts.,Fort Hamilton Pkwy and East 5th St,Brooklyn,NY,11218,Kori Petrovic,2127887476,http://www.grownyc.org/youthmarket,Saturday  8am-4pm,June 4-November 19,Y,M,40.64917,-73.97659,N,Y,Y,"(40.64917, -73.97659)"
Kings,Live Market Farmers' Market,Farragut Rd. btwn Albany Ave and E 40th St.,Farragut Rd. and East 40th Street,Brooklyn,NY,11203,Shahkeem Williams,3476093731,,Sunday  8am-3pm,July 10-November 27,Y,M,40.63685,-73.93849,N,N,Y,"(40.63685, -73.93849)"
Kings,Malcolm X Blvd. Community Farmers' Market,Jackie Robinson Park btwn Chauncy & Marion Sts.,Malcolm X Blvd and Marion St,Brooklyn,NY,11233,Rev. Robert Jackson,9173016747,http://www.brooklynrescuemission.org,Saturday  8am-3pm,July 16-November 12,Y,M,40.67975,-73.92865,N,Y,Y,"(40.67975, -73.92865)"
Kings,Marcy Plaza Community Farmers' Market,Marcy Plaza & Fulton St.,1368 Fulton Street,Brooklyn,NY,11216,Rev. Robert Jackson,9173016747,http://www.brooklynrescuemission.org,Wednesday  11am-6pm,July 6-November 16,Y,M,40.68007,-73.94565,N,Y,Y,"(40.68007, -73.94565)"
Kings,McCarren Park Greenmarket,Union Ave btwn Driggs Ave & N 12th St,N 12th Street and Driggs Ave,Brooklyn,NY,11222,Chelsea Whittaker,2127887476,http://www.grownyc.org/greenmarket,Saturday  8am-3pm,Year-round,Y,YR,40.72046,-73.95269,N,Y,Y,"(40.72046, -73.95269)"
Kings,McGolrick Park Farmers' Market,Inside McGolrick Park near Pavilion,103 Russel Street,Brooklyn,NY,11222,Frankie Rowland,9149234837,http://www.downtoearthmarkets.com,Sunday  10am-4pm,April 24-November 20,Y,P/M,40.72405,-73.94428,N,Y,Y,"(40.72405, -73.94428)"
Kings,McGolrick Park WINTER Farmers' Market,"Park Church Co-op , 129 Russell St.",129 Russell St.,Brooklyn,NY,11222,Frankie Rowland,9149234837,http://www.downtoearthmarkets.com,"Sunday  11am-4pm, Monthly  Jan-Mar",January 8-May 28,N,M/X/W/P,40.72481,-73.94467,N,Y,Y,"(40.72481, -73.94467)"
Kings,Park Slope Sunday Farmers' Market,Fourth Street off Fifth Ave.  near PS 51,Fourth Street and Fifth Avenue,Brooklyn,NY,11215,Emily Grayson,9149234837,http://www.downtoearthmarkets.com,Sunday  10am-5pm,Year-round,Y,YR,40.6722,-73.98379,N,Y,Y,"(40.6722, -73.98379)"
Kings,Park Slope Wednesday Farmers' Market,4th St. at 5th Ave. in front of Washington Park,4th Street at 5th Avenue,Brooklyn,NY,11215,Emily Grayson,9149234837,http://www.downtoearthmarkets.com,Wednesday  3pm-7pm,May 11-November 16,Y,P/M,40.6722,-73.98379,N,Y,Y,"(40.6722, -73.98379)"
Kings,Parkside Greenmarket,Parkside & Ocean Ave.  Brooklyn,Parkside Ave. & Ocean Ave.,Brooklyn,NY,11226,Chelsea Whittaker,2127887476,http://www.grownyc.org/greenmarket,Sunday  8am-4pm,June 12-November 20,Y,M,40.655116,-73.961895,N,Y,Y,"(40.655116, -73.961895)"
Kings,Pitkin-Verde Farmers' Market,2094 Pitkin Ave. Brooklyn,2094 Pitkin Ave,Brooklyn,NY,11207,Aida Castillo,9178938801,http://www.cypresshills.org,Tuesday  9am-5pm,June 21-November 22,Y,M,40.67175,-73.89525,N,Y,Y,"(40.67175, -73.89525)"
Kings,Project EATS Brooklyn Museum Farm Stand,200 Eastern Parkway,200 Eastern Parkway,Brooklyn,NY,11238,Matt Linder,2126121528,http://www.projectEATS.org,Thursday  2pm-7pm,May 19-November 23,Y,P/M,40.67115,-73.96348,N,Y,Y,"(40.67115, -73.96348)"
Kings,Project EATS Marcus Garvey Village Farm Stand,300 Chester St. (at Dumont Ave),300 Chester Street,Brooklyn,NY,11212,Matt Linder,2126121528,http://www.projectEATS.org,Tues  2pm-6pm,May 31-November 29,Y,P/M,40.66432,-73.91036,N,Y,Y,"(40.66432, -73.91036)"
Kings,Red Hook Farm Stand,580 Columbia St. across from IKEA,580 Columbia St,Brooklyn,NY,11231,Corey Blant,7185015394,http://www.added-value.org/farmers-market,Saturday  8am-3pm,June 18-November 19,Y,M,40.67198,-74.00901,N,Y,Y,"(40.67198, -74.00901)"
Kings,Saratoga Farm Stand,Saratoga Ave. & Fulton Street,2048 Saratoga Ave,Brooklyn,NY,11233,Jenny Marks,9143305191,http://bedstuyagainsthunger.org,Saturday  10am-2pm,July 18-November 19,Y,M,40.678507,-73.915944,N,N,Y,"(40.678507, -73.915944)"
Kings,Sunset Park Greenmarket,4th Ave. btwn 59th & 60th Sts.,4th Ave and 60th St,Brooklyn,NY,11220,Chelsea Whittaker,2127887476,http://www.grownyc.org/greenmarket,Saturday  8am-3pm,July 9-November 19,Y,M,40.64081,-74.01836,N,Y,Y,"(40.64081, -74.01836)"
Kings,Urban Oasis Farm Stand,"Kingsboro Psychiatric Center,, 681 Clarkson Ave. btwn Troy Ave & 43rd St.",681 Clarkson Ave,Brooklyn,NY,11203,Michelle Almonte,7182217907,,Wednesday  2pm-5:30pm,June 29-November 9,Y,M,40.65621,-73.93741,N,Y,Y,"(40.65621, -73.93741)"
Kings,Williamsburg Greenmarket,Taylor St btwn Bedford & Lee Aves.,199 Taylor St,Brooklyn,NY,11211,Chelsea Whittaker,2127887476,http://www.grownyc.org/greenmarket,Thursday  8am-4pm,July 7-November 17,Y,M,40.70643,-73.96211,N,Y,Y,"(40.70643, -73.96211)"
Lewis,Colwell's Farm Stand and Garden Center,"6007 State Route 12 , Glenfield",6007 State Route 12,Glenfield,NY,13343,Michael & Violet Colwell,3153767402,http://www.colwellsfarmmarket.com,"Mon-Sat  8am-7pm, Sunday  9am-6pm",April 1-December 25,Y,P/M/X,43.71844,-75.41148,N,Y,Y,"(43.71844, -75.41148)"
Lewis,Lewis Co. General Hospital Farmers' Market,"7785 N. State St.  Lowville, near Children's Clinic back parking lot",7785 North State St,Lowville,NY,13367,Tina Schell,3153765087,http://www.lcgh.net,Thursday  11am-3pm,June 23-September 29,Y,M,43.79521,-75.49955,N,Y,Y,"(43.79521, -75.49955)"
Lewis,Lowville Farmers' Market,Lewis County Fairgrounds 5473 Bostwick St.,5473 Bostwick Street,Lowville,NY,13367,Chris Bush,3157838642,,Saturday  8am-2pm,May-October,Y,P/M,43.79319,-75.4909,Y,Y,Y,"(43.79319, -75.4909)"
Lewis,Lyons Falls Farmers' Market,Riverside Park 6904 Laura St.,6904 Laura St,Lyons Falls,NY,13368,Liz Clair,3153486135,http://www.lyonsfallsalive.org,Tuesday  12pm-5pm,June 21-October 11,Y,M,43.61458,-75.3562,N,N,Y,"(43.61458, -75.3562)"
Livingston,Curbside Market-Rotating,rotating locations for WIC clinics and Congregate Meal Sites,2 Murray Hill Drive,Mt. Morris,NY,14510,Mitch Gruber,5853283380,http://www.foodlinkny.org,Contact market for times and locations,July-September,Y,M,42.732804,-77.884454,N,Y,Y,"(42.732804, -77.884454)"
Livingston,Curbside Market-Tri County Family Med,60 Red Jacket St. Dansville,60 Red Jacket Street,Dansville,NY,14437,Mitch Gruber,5853283380,http://www.foodlinkny.org,Thursday  10am-10:45am,July-November,Y,M,42.55055,-77.69462,N,Y,Y,"(42.55055, -77.69462)"
Livingston,Dansville Farmers' Market,100 Maple Ave.,100 Maple St,Dansville,NY,14437,Gary Roth,5853352963,http://ragingwindsfarmmarket.com/?page_id=9,Friday  11am-4pm,May 20-October 7,Y,P/M,42.56598,-77.70782,N,Y,Y,"(42.56598, -77.70782)"
Livingston,Geneseo Farmers' Market,Center St. & Main St.,Main St and Center St,Geneseo,NY,14454,Cate Concannon,5858804456,http://www.geneseofarmersmarket.org,Thursday  3pm-6:30pm,June 23-October 20,Y,M,42.79624,-77.81679,Y,Y,Y,"(42.79624, -77.81679)"
Livingston,Lima Presbyterian Church Farmers' Market,"7295 W. Main St., Corner of  Route 15A & Routes 20 & 5",7295 W. Main St.,Lima,NY,14485,Suzanne Muehleisen,5857529238,http://www.limapreschurch.org,Tuesday  3pm-6pm,June 14-October 25,Y,M,42.90496,-77.61175,N,N,Y,"(42.90496, -77.61175)"
Livingston,Mount Morris Village Farmers' Market,103 Main St.,36 North Main St,Mount Morris,NY,14510,Lisa Torcello,5856584160,,Tuesday  1pm-6pm,May 24-October 11,Y,P/M,42.73078,-77.87658,N,Y,Y,"(42.73078, -77.87658)"
Madison,Cazenovia Farmers' Market,Memorial Park Albany St./US 20,48 Albany St. Memorial Park,Cazenovia,NY,13035,Aileen Randolph,3154154426,http://www.cazenoviachamber.com,Saturday  9am-2pm,May 7-October 29,Y,P/M,42.92975,-75.85456,N,N,Y,"(42.92975, -75.85456)"
Madison,Cazenovia WINTER Farmers' Market,"American Legion Hall, 26 Chenango St",26 Chenango Street,Cazenovia,NY,13035,Aileen Randolph,3154154426,http://www.cazenoviachamber.com,3rd Saturday  10am-1pm,November-April,Y,X/W/P,42.92467,-75.85168,N,N,Y,"(42.92467, -75.85168)"
Madison,Cottage Lawn Farmers' Market,"435 Main St., Madison Co. Historical Society Oneida",435 Main St.,Oneida,NY,13421,Marlene Parlow,3153634136,http://www.mchs1900.org,Tuesday  3pm-7pm,May 17-Sept 13,N,P/M,43.087786,-75.646416,N,N,Y,"(43.087786, -75.646416)"
Madison,Hamilton Parry's Hardware WINTER Farmers' Market,100 Utica Street Hamilton,100 Utica Street,Hamilton,NY,13346,Gwenn Werner,3158240002,http://www.parryshamilton.com,2nd Saturday  10am-1pm,November-April,N,M/X/W/P,42.832844,-75.548027,N,N,Y,"(42.832844, -75.548027)"
Madison,Oneida City Farmers' Market,"Oneida & Main Sts. Across from City Hall, downtown Oneida",Oneida and Main Sts.,Oneida,NY,13421,Marty Winchell,3153634308,http://www.oneidafarmersmarket.com/,Thursday  11am-7pm,June 2-October 27,N,M,43.0962,-75.65257,N,Y,Y,"(43.0962, -75.65257)"
Madison,Oneida Towers Farmers' Market,226 Farrier Ave. Oneida,226 Farrier Ave.,Oneida,NY,13421,Kevin Salm,3158294668,,Thursday  3pm-4pm,July 7-October 13,Y,M,43.09384,-75.65524,N,N,Y,"(43.09384, -75.65524)"
Madison,Town of Lenox/Canastota Farmers' Market,3392 Seneca Turnpike Canastota (new location),South Main St and West Hickory St,Canastota,NY,13032,Lois Brown,3156979291,,"Saturday  10am-5pm, weather permitting",July 9-October 15,Y,M,43.07476,-75.75539,N,N,Y,"(43.07476, -75.75539)"
Madison,Village of Hamilton Farmers' Market,Village Green 3 Broad St.,Broad St and Payne St,Hamilton,NY,13346,Kim Taranto,3158241111,http://www.hamilton-ny.gov,Saturday  8am-1pm,May 7-October 29,Y,P/M,42.82684,-75.54436,N,N,Y,"(42.82684, -75.54436)"
Monroe,441 Ministries Farm Stand,441 Parsells Ave.  Rochester,441 Paresells Ave,Rochester,NY,14609,Mitch Gruber,5853283380,http://www.foodlinkny.org,Tuesday  3pm-7pm,July-September,Y,M,43.1658,-77.56665,N,N,Y,"(43.1658, -77.56665)"
Monroe,Aenon Baptist Farm Stand,175 Genesee St.  Rochester,175 Genesee St,Rochester,NY,14611,Mitch Gruber,5853283380,http://www.foodlinkny.org,Wednesday  11am-2pm,July-September,Y,M,43.1466,-77.63608,N,Y,Y,"(43.1466, -77.63608)"
Monroe,Bridges to Wellness Farm Stand,Gantt Community Center  700 North St. Rochester,700 North Street,Rochester,NY,14605,Mitch Gruber,5853283380,http://www.foodlinkny.org,Tuesday  4pm-6pm,July-September,Y,M,43.17027,-77.59682,N,Y,Y,"(43.17027, -77.59682)"
Monroe,Brightly's Farm Market,525 Drake Rd.  Hamlin,525 Drake Rd.,Hamlin,NY,14464,Betsy Brightly,5859679499,http://www.brightlyfarms.com,"Daily  9am-5pm, closed Sat/Sun after Dec 25",Year-round,Y,YR,43.29471,-77.94344,N,Y,Y,"(43.29471, -77.94344)"
Monroe,Brighton Farmers' Market,Brighton High School lot  1150 Winton Rd. South,1150 Winton Rd South,Rochester,NY,14618,Sue Gardner-Smith,5852698918,http://www.brightonfarmersmarket.org,Sunday  9am-1pm,May 22-October 30,Y,P/M,43.12204,-77.56808,Y,Y,Y,"(43.12204, -77.56808)"
Monroe,Brighton WINTER Farmers' Market,Brookside Center  220 Idlewood Rd. Rochester,220 Idlewood Road,Rochester,NY,14618,Sue Gardner-Smith,5852698918,http://www.brightonfarmersmarket.org,Sunday  1pm-4pm,November 1-May 15,Y,M/X/W/P,43.11275,-77.56809,Y,Y,Y,"(43.11275, -77.56809)"
Monroe,Brockport Farmers' Market,Market St. off Main St.,Main St and Market St,Brockport,NY,14420,Charlene Veltz,5856373602,https://www.facebook.com/The-Brockport-Farmers-Market-119617824757169/,Sunday  8am-1pm,June 19-October 30,Y,M,43.21556,-77.9385,N,N,Y,"(43.21556, -77.9385)"
Monroe,Cathedral Community Farm Stand,296 Flower City Park Rochester,296 Flower City Park,Rochester,NY,14615,Mitch Gruber,5853283380,http://www.foodlinkny.org,Weds 2:30pm-5:30pm,July-September,Y,M,43.19312,-77.63275,N,Y,Y,"(43.19312, -77.63275)"
Monroe,Curbside Market-Affinity Apts.,1 Affinity Ln Rochester,1 Affinity Lane,Rochester,NY,14616,Mitch Gruber,5853283380,http://www.foodlinkny.org,Alt Fri  3:45pm-4:15pm,July 10-March 31,N,M/X/W,43.24028,-77.67841,N,Y,Y,"(43.24028, -77.67841)"
Monroe,Curbside Market-AJHC Woodward,480 Genesee St. Rochester,480 Genesee Street,Rochester,NY,14611,Mitch Gruber,5853283380,http://www.foodlinkny.org,Monday  2:15pm-3:15pm,July-September,Y,M,43.14061,-77.63585,N,Y,Y,"(43.14061, -77.63585)"
Monroe,Curbside Market-Andrews Terrace,125 St. Paul St. Rochester,125 Saint Paul Street,Rochester,NY,14604,Mitch Gruber,5853283380,http://www.foodlinkny.org,Tue  1:15pm-2:15pm,July-March 31,Y,M/X/W,43.15872,-77.61047,N,Y,Y,"(43.15872, -77.61047)"
Monroe,Curbside Market-Blackwell Estates,5 Antoinette Drive,5 Antoinette Drive,Rochester,NY,14623,Mitch Gruber,5853283380,http://www.foodlinkny.org,Monday 3pm-3:45pm,July-September,Y,M,43.08254,-77.60786,N,Y,Y,"(43.08254, -77.60786)"
Monroe,Curbside Market-Buena Vista,229 Avenue A Rochester,229 Avenue A,Rochester,NY,14621,Mitch Gruber,5853283380,http://www.foodlinkny.org,Thu  11am-11:45am,July-March 31,Y,M/X/W,43.17777,-77.61842,N,Y,Y,"(43.17777, -77.61842)"
Monroe,Curbside Market-Carriage Factory Apts,33 Litchfield St. Rochester,33 Litchfield Street,Rochester,NY,14608,Mitch Gruber,5853283380,http://www.foodlinkny.org,Thu  2:30pm-3:15pm,July-March 31,Y,M/X/W,43.15396,-77.62575,N,Y,Y,"(43.15396, -77.62575)"
Monroe,Curbside Market-CDS1 Monarch,860 Hard Road,860 Hard Road,Rochester,NY,14580,Mitch Gruber,5853283380,http://www.foodlinkny.org,Alt Wed 4pm-4:45pm,July-September,Y,M,43.21682,-77.46121,N,Y,Y,"(43.21682, -77.46121)"
Monroe,Curbside Market-CDS Monarch,840 Holt Road,840 Holt Road,Rochester,NY,14580,Mitch Gruber,5853283380,http://www.foodlinkny.org,Alt Wed 4pm-4:45pm,July-September,Y,M,43.21874,-77.44659,N,Y,Y,"(43.21874, -77.44659)"
Monroe,Curbside Market-Centro De Oro,817 East Main St,817 East Main St,Rochester,NY,14605,Mitch Gruber,5853283380,http://www.foodlinkny.org,Wed 12pm-12:45pm,July-September,Y,M,43.16069,-77.59043,N,Y,Y,"(43.16069, -77.59043)"
Monroe,Curbside Market-Charles Settlement House,71 Parkway Rochester,Jones Ave and Durkin Aly,Rochester,NY,14608,Mitch Gruber,5853283380,http://www.foodlinkny.org,Friday  11am-11:45am,July-March 31,Y,M/X/W,43.16603,-77.63234,N,Y,Y,"(43.16603, -77.63234)"
Monroe,Curbside Market-Charlotte Harbortown I,4575 Lake Ave. Rochester,4575 Lake Avenue,Rochester,NY,14612,Mitch Gruber,5853283380,http://www.foodlinkny.org,Friday  1:15pm-2:15pm,July-March 31,Y,M/X/W,43.25492,-77.61411,N,Y,Y,"(43.25492, -77.61411)"
Monroe,Curbside Market-Charlotte Harbortown II,60 River St. Rochester,60 River Street,Rochester,NY,14612,Mitch Gruber,5853283380,http://www.foodlinkny.org,Friday  2:30pm-3:15pm,July-March 31,Y,M/X/W,43.2444,-77.61607,N,Y,Y,"(43.2444, -77.61607)"
Monroe,Curbside Market-Creek House Commons,1200 White Swan Dr. Rochester,1200 White Swan Dr,Rochester,NY,14626,Mitch Gruber,5853283380,http://www.foodlinkny.org,Friday  3pm-3:45pm,July-September,Y,M,43.21894,-77.73798,N,Y,Y,"(43.21894, -77.73798)"
Monroe,Curbside Market-Danforth Towers,140 West Ave Rochester,140 West Avenue,Rochester,NY,14611,Mitch Gruber,5853283380,http://www.foodlinkny.org,Tue  4:30pm-5:15pm,July-September,Y,M,43.15038,-77.64166,N,Y,Y,"(43.15038, -77.64166)"
Monroe,Curbside Market-DePaul Ridgeview,109 Marburger St. Rochester,109 Marburger Street,Rochester,NY,14621,Mitch Gruber,5853283380,http://www.foodlinkny.org,Thursday  3pm-3:45pm,July-September,Y,M,43.19459,-77.60782,N,Y,Y,"(43.19459, -77.60782)"
Monroe,Curbside Market-Dunn Towers,100 Dunn Tower Dr. Rochester,Dunn Tower Drive,Rochester,NY,14606,Mitch Gruber,5853283380,http://www.foodlinkny.org,Mon  1:15pm-2:15pm,July-March 31,Y,M/X/W,43.16924,-77.69727,N,Y,Y,"(43.16924, -77.69727)"
Monroe,Curbside Market-East Court Apt,410 Alexander St,410 Alexander St,Rochester,NY,14607,Mitch Gruber,5853283380,http://www.foodlinkny.org,Fri 12pm-12:45pm,July-September,Y,M,43.15929,-77.59219,N,Y,Y,"(43.15929, -77.59219)"
Monroe,Curbside Market-Glenwood Gardens,41 Kestrel St. Rochester,41 Kestrel St,Rochester,NY,14613,Mitch Gruber,5853283380,http://www.foodlinkny.org,Alt Mon  3:45pm-4:15pm,July-March 31,Y,M/X/W,43.175465,-77.644124,N,Y,Y,"(43.175465, -77.644124)"
Monroe,Curbside Market-Harris Park Apts,122 Harris Park  Rochester,122 Harris Park,Rochester,NY,14610,Mitch Gruber,5853283380,http://www.foodlinkny.org,Wed  1:15pm-2:15pm,January 9-March 31,N,W,43.15131,-77.55331,N,Y,Y,"(43.15131, -77.55331)"
Monroe,Curbside Market-Hudson Ridge Tower,401 Seneca Manor Rochester,401 Seneca Manor Drive,Rochester,NY,14621,Mitch Gruber,5853283380,http://www.foodlinkny.org,Wed  3:45pm-4:15pm,July-March 31,Y,M/X/W,43.19309,-77.60324,N,Y,Y,"(43.19309, -77.60324)"
Monroe,Curbside Market-Jack Kenny Apts,220 Garland Ave.  Rochester,220 Garland Ave.,Rochester,NY,14611,Mitch Gruber,5853283380,http://www.foodlinkny.org,Alt Mon  3:45pm-4:15pm,January 9-March 31,N,W,43.15879,-77.66278,N,Y,Y,"(43.15879, -77.66278)"
Monroe,Curbside Market-James A Dobson Apts,150 Van Auker St. Rochester,150 Van Auker Street,Rochester,NY,14608,Mitch Gruber,5853283380,http://www.foodlinkny.org,Tue  3:45pm-4:15pm,July-March 31,Y,M/X/W,43.14997,-77.62109,N,Y,Y,"(43.14997, -77.62109)"
Monroe,Curbside Market-Jordan Health Brown Square,322 Lake Ave.,322 Lake Ave,Rochester,NY,14608,Mitch Gruber,5853283380,http://www.foodlinkny.org,Thu  9:45am-10:30am,July-March 31,Y,M/X/W,43.17032,-77.62732,N,Y,Y,"(43.17032, -77.62732)"
Monroe,Curbside Market-Jordan Health Holland,80 Holland St. Rochester,82 Holland Street,Rochester,NY,14605,Mitch Gruber,5853283380,http://www.foodlinkny.org,Tue  9:45am-10:30am,July-March 31,Y,M/X/W,43.1693,-77.60223,N,Y,Y,"(43.1693, -77.60223)"
Monroe,Curbside Market-Jordan Health Woodward,480 Genesee St.  Rochester,480 Genesee St.,Rochester,NY,14611,Mitch Gruber,5853283380,http://www.foodlinkny.org,Mon  2:30pm-3:15pm,January 9-March 31,N,W,43.14068,-77.63599,N,Y,Y,"(43.14068, -77.63599)"
Monroe,Curbside Market-Kennedy Towers,666 S Plymouth Ave. Rochester,666 South Plymouth Ave,Rochester,NY,14608,Mitch Gruber,5853283380,http://www.foodlinkny.org,Thu  3:45pm-4:15pm,July-March 31,Y,M/X/W,43.14251,-77.61894,N,Y,Y,"(43.14251, -77.61894)"
Monroe,Curbside Market-Lena Gantt Estates,86 Vienna St. Rochester,86 Vienna Street,Rochester,NY,14605,Mitch Gruber,5853283380,http://www.foodlinkny.org,Wed  9:45am-10:30am,July-March 31,Y,M/X/W,43.17032,-77.60607,N,Y,Y,"(43.17032, -77.60607)"
Monroe,Curbside Market-LifeSpan,25 Franklin Street,25 Franklin Street,Rochester,NY,14604,Mitch Gruber,5853283380,http://www.foodlinkny.org,Monday  11am-11:45am,July-March 31,Y,M/X/W,43.15805,-77.60484,N,Y,Y,"(43.15805, -77.60484)"
Monroe,Curbside Market-Long Pond,1230 Long Pond Road,1230 Long Pond Road,Rochester,NY,14626,Mitch Gruber,5853283380,http://www.foodlinkny.org,Friday 4:30pm-5:15pm,July-September,Y,M,43.2122,-77.69579,N,Y,Y,"(43.2122, -77.69579)"
Monroe,Curbside Market-Maplewood YMCA,25 Driving Park Ave Rochester,25 Driving Park Ave,Rochester,NY,14613,Mitch Gruber,5853283380,http://www.foodlinkny.org,Friday  9:45am-10:30am,July-March 31,Y,M/X/W,43.18092,-77.63017,N,Y,Y,"(43.18092, -77.63017)"
Monroe,Curbside Market-Monroe Co. WIC,250 Waring Rd. Rochester,250 Waring Rd,Rochester,NY,14609,Mitch Gruber,5853283380,http://www.foodlinkny.org,Wed  3pm-3:45pm,July-September,Y,M,43.1836,-77.56554,N,Y,Y,"(43.1836, -77.56554)"
Monroe,Curbside Market-Montgomery Center,10 Cady St. Rochester,10 Cady Street,Rochester,NY,14608,Mitch Gruber,5853283380,http://www.foodlinkny.org,Thursday  12pm-12:45pm,July-September,Y,M,43.14584,-77.62107,N,Y,Y,"(43.14584, -77.62107)"
Monroe,Curbside Market-Newark Housing Authority,200 East Miller St. Newark,200 East Miller St.,Newark,NY,14513,Mitch Gruber,5853283380,,Tuesday 12:30pm-1pm,July-November,Y,M,43.04589,-77.09149,N,Y,Y,"(43.04589, -77.09149)"
Monroe,Curbside Market-Oak Orchard  Albion,301 West Ave. Albion,301 West Ave,Albion,NY,14411,Mitch Gruber,5853283380,http://www.foodlinkny.org,Wed  10:50am-11:20am,July-November,Y,M,43.24124,-78.20258,N,Y,Y,"(43.24124, -78.20258)"
Monroe,Curbside Market-Oak Orchard Brockport,300 West Ave. Brockport,300 West Avenue,Rochester,NY,14420,Mitch Gruber,5853283380,http://www.foodlinkny.org,Wed 12:30pm-1:15pm,July-November,Y,M,43.149964,-77.646425,N,Y,Y,"(43.149964, -77.646425)"
Monroe,Curbside Market-Ogden Senior Center,200 South Union St. Spencerport,200 South Union St.,Spencerport,NY,14559,Mitch Gruber,5853283380,,Monday 12:30pm-1:15pm,July-November,Y,M,43.19063,-77.80076,N,Y,Y,"(43.19063, -77.80076)"
Monroe,Curbside Market-Pieters Family Life Center,1025 Commons Way Rochester,1025 Commons Way,Rochester,NY,14623,Mitch Gruber,5853283380,http://www.foodlinkny.org,Monday 4pm-4:45pm,July-September,Y,M,43.08363,-77.60593,N,Y,Y,"(43.08363, -77.60593)"
Monroe,Curbside Market-Pinnacle Place,919 Clinton Ave. S. Rochester,919 Clinton Ave South,Rochester,NY,14620,Mitch Gruber,5853283380,http://www.foodlinkny.org,Tue  11am-11:45am,July-March 31,Y,M/X/W,43.14006,-77.59637,N,Y,Y,"(43.14006, -77.59637)"
Monroe,Curbside Market-Rotating,Contact Foodlink for more info,1999 Mount Read Boulevard,Rochester,NY,14615,Mitch Gruber,5853283380,http://www.foodlinkny.org,Mon-Fri 5pm-6:15pm,July-September,Y,M,43.192695,-77.659902,N,Y,Y,"(43.192695, -77.659902)"
Monroe,Curbside Market-Saint Ann's Comm,1500 Portland Ave. Rochester,1500 Portland Avenue,Rochester,NY,14621,Mitch Gruber,5853283380,http://www.foodlinkny.org,Wed  2:30pm-3:15pm,July-March 31,Y,M/X/W,43.19411,-77.5813,N,Y,Y,"(43.19411, -77.5813)"
Monroe,Curbside Market-Saint Bernards Park,2260 Lake Ave.  Rochester,2260 Lake Ave.,Rochester,NY,14612,Mitch Gruber,5853283380,http://www.foodlinkny.org,Alt Fri  3:45pm-4:15pm,January 9-March 31,N,W,43.20764,-77.62947,N,Y,Y,"(43.20764, -77.62947)"
Monroe,Curbside Market-Saint Jude Apartments,4075 Lyell Rd. Rochester,4075 Lyell Rd Rochester NY 14606,Rochester,NY,14606,Mitch Gruber,5853283380,http://www.foodlinkny.org,Friday  4pm-4:45pm,July-September,Y,M,43.163475,-77.736702,N,Y,Y,"(43.163475, -77.736702)"
Monroe,Curbside Market-Saint Michaels,108 Evergreen,108 Evergreen,Rochester,NY,14605,Mitch Gruber,5853283380,http://www.foodlinkny.org,Tuesday 12pm-12:45pm,July-September,Y,M,43.17396,-77.61546,N,Y,Y,"(43.17396, -77.61546)"
Monroe,Curbside Market-Saint Simons Terrace,260 St. Paul St. Rochester,260 Saint Paul Street,Rochester,NY,14605,Mitch Gruber,5853283380,http://www.foodlinkny.org,Tue  4pm-4:45pm,July-September,Y,M,43.16357,-77.61088,N,Y,Y,"(43.16357, -77.61088)"
Monroe,Curbside Market-Savannah Towers,15 Savannah St. Rochester,15 Savannah Street,Rochester,NY,14607,Mitch Gruber,5853283380,http://www.foodlinkny.org,Thu  1:15pm-2:15pm,July-March 31,Y,M/X/W,43.15467,-77.59855,N,Y,Y,"(43.15467, -77.59855)"
Monroe,Curbside Market-South View Towers,500 South Ave. Rochester,500 South Ave,Rochester,NY,14620,Mitch Gruber,5853283380,http://www.foodlinkny.org,Tuesday  2:30pm-3:15pm,July-March 31,Y,M/X/W,43.1465,-77.60524,N,Y,Y,"(43.1465, -77.60524)"
Monroe,Curbside Market-SW Family YMCA,597 Thurston Rd. Rochester,597 Thurston Rd,Rochester,NY,14619,Mitch Gruber,5853283380,http://www.foodlinkny.org,Monday  9:45am-10:30am,July-March 31,Y,M/X/W,43.132866,-77.651137,N,Y,Y,"(43.132866, -77.651137)"
Monroe,Curbside Market-The Hamilton,185 Mt. Hope Ave. Rochester,185 Mount Hope Avenue,Rochester,NY,14620,Mitch Gruber,5853283380,http://www.foodlinkny.org,Monday  12pm-12:45pm,July-September,Y,M,43.14573,-77.61013,N,Y,Y,"(43.14573, -77.61013)"
Monroe,Curbside Market-Trillium Health,259 Monroe Ave. #100,259 Monroe,Rochester,NY,14607,Mitch Gruber,5853283380,http://www.foodlinkny.org,Wed  11am-11:45am,July-March 31,Y,M/X/W,43.14959,-77.59906,N,Y,Y,"(43.14959, -77.59906)"
Monroe,Curbside Market-Unity St. Mary's,89 Genesee St. Rochester,89 Genesee Street,Rochester,NY,14611,Mitch Gruber,5853283380,http://www.foodlinkny.org,Thursday  3:30pm-4:15pm,July-September,Y,M,43.14844,-77.63718,N,Y,Y,"(43.14844, -77.63718)"
Monroe,Curbside Market-YWCA Apartments,175 N. Clinton Ave. Rochester,175 North Clinton Ave,Rochester,NY,14604,Mitch Gruber,5853283380,http://www.foodlinkny.org,Thu  4pm-4:45pm,July-September,Y,M,43.16073,-77.6082,N,Y,Y,"(43.16073, -77.6082)"
Monroe,Farm 2 Preschool Lake Ave Farmers' Market,214 Lake Ave Rochester,214 Lake Ave,Rochester,NY,14608,Darla Ferrante,5856544745,,Thurs  2:30pm-5:30pm,June 2-October 6,Y,M,43.16846,-77.6253,Y,Y,Y,"(43.16846, -77.6253)"
Monroe,Farm 2 Preschool Main St. Farmers' Market,444 E. Main St. Rochester,444 East Main Street,Rochester,NY,14604,Darla Ferrante,5856544745,,Wed  3:30pm-6pm,June 8-October 12,Y,M,43.1588,-77.60064,Y,Y,Y,"(43.1588, -77.60064)"
Monroe,Farm 2 Preschool South Ave Farmers' Market,941 South Ave Rochester,941 South Ave,Rochester,NY,14604,Darla Ferrante,5856544745,,Monday  2pm-4:30pm,June 6-October 3,Y,M,43.13663,-77.60895,Y,Y,Y,"(43.13663, -77.60895)"
Monroe,Genesee Valley RMA Farmers' Market,"Administration Bldg. (south parking lot), 900 Jefferson Rd. Henrietta",900 Jefferson Rd.,Henrietta,NY,14623,"William Mulligan, Jr.",5854244600,http://www.geneseevalleyregionalmarketauthority.com,Friday  11am-4pm,June 3-October 28,Y,M,43.08721,-77.61427,N,N,Y,"(43.08721, -77.61427)"
Monroe,Greece Ridge Mall Farmers' Market,271 Greece Ridge Center Drive  Rochester,217 Greece Ridge Center Dr,Greece,NY,14626,Melanie Fazio,5852251140,http://www.themallatgreeceridge.com,Thu/Sat  8am-3pm,June 4-October 28,Y,M,43.20503,-77.68772,N,N,Y,"(43.20503, -77.68772)"
Monroe,Humbolt R-Center Youth Farm Stand,1045 Altantic Ave Rochester,1090 Atlantic Ave,Rochester,NY,14610,Mitch Gruber,5853283380,http://www.foodlink.org,Thursday 2pm-6pm,July-September,Y,M,43.15675,-77.55488,N,Y,Y,"(43.15675, -77.55488)"
Monroe,Irondequoit Farmers' Market,Town Hall Lawn  1280 Titus Ave. Rochester,1280 Titus Ave,Rochester,NY,14617,Katrina Hall,5853367267,http://www.irondequoit.org,Thursday  4pm-8pm,May 26-October 20,Y,P/M,43.21118,-77.58154,Y,Y,Y,"(43.21118, -77.58154)"
Monroe,Kirby's Farm Market,"9739 Ridge Road West, Brockport",9739 Ridge Rd W,Brockport,NY,14420,Linda Kirby,5856372600,http://kirbysfm.com,Daily 10am-5pm,May-December,N,P/M/X,43.250069,-77.984642,N,N,Y,"(43.250069, -77.984642)"
Monroe,Lakeside Farmers' Market,4370 Lake Ave. Rochester,4370 Lake Ave.,Rochester,NY,14612,Robert Putney,5854782014,,Monday  4pm-7pm,May 16-October 17,Y,P/M,43.2505,-77.61413,N,N,Y,"(43.2505, -77.61413)"
Monroe,Long Season WINTER Farmers' Market,"Brookside Community Center, 220 Idlewood Road, Rochester",220 Idlewood Road,Rochester,NY,14618,Sue Gardner-Smith,5852698918,http://www.brightonfarmersmarket.org/this-week-at-long-season-winter-farmers-market-3/,Sunday  1pm-4pm,November 6-May 7,N,M/X/W/P,43.11292,-77.56801,N,N,Y,"(43.11292, -77.56801)"
Monroe,Mary's Place Farm Stand,613 Lexington Ave,613 Lexington Ave,Rochester,NY,14613,Mitch Gruber,5853283380,http://www.foodlinkny.org,Thursday 1pm-4pm,July-September,Y,M,43.17925,-77.64638,N,Y,Y,"(43.17925, -77.64638)"
Monroe,Mendon Farmers' Market,Mendon Station Park,101 Mendon lonia Road,Mendon,NY,14506,Michael Slusser,5852082933,http://www.mendonfarmersmkt.com,Tuesday  3pm-6pm,June 7-October 11,Y,M,42.99082,-77.50241,Y,Y,Y,"(42.99082, -77.50241)"
Monroe,Monroe Village Farmers' Market,"Blessed Sacrament Church lot, 730 Monroe Ave Rochester",730 Monroe Ave,Rochester,NY,14607,Allen Krisiloff,5854734470,http://www.monroevillagefarmersmarket.org,Wednesday  4pm-7pm,June 15-October 12,Y,M,43.14357,-77.58848,N,Y,Y,"(43.14357, -77.58848)"
Monroe,North Chili Farmers' Market,Methodist Church  2200 Westside Drive,2200 Westside Dr,North Chilli,NY,14514,Roger Dart,5855949222,http://www.umcofnorthchili.org,Saturday  8am-1pm,June 18-October 29,Y,M,43.12648,-77.78969,N,N,Y,"(43.12648, -77.78969)"
Monroe,Parma Baptist Comm Church Farm Stand,4997 W. Ridge Rd Spencerport,4997 W. Ridge Rd,Spencerport,NY,14559,Mitch Gruber,5853283380,http://www.foodlink.org,Saturday 2pm-5pm,July-September,Y,M,43.21828,-77.79032,N,Y,Y,"(43.21828, -77.79032)"
Monroe,Partners in Faith Farm Stand,350 Chili Ave. Rochester,350 Chili Avenue,Rochester,NY,14611,Mitch Gruber,5853283380,http://www.foodlinkny.org,Thursday  4pm-7pm,July-September,Y,M,43.1473,-77.64607,N,Y,Y,"(43.1473, -77.64607)"
Monroe,Pittsford Farmers' Market,"Pittsford Colony Plaza, 3400 Monroe Ave.",3400 Monroe Ave.,Rochester,NY,14618,Cindy Christ,5857338104,,Tue/Sat  9am-1pm,May 7-November 22,N,P/M,43.10282,-77.535917,N,N,Y,"(43.10282, -77.535917)"
Monroe,Project Hope Farm Stand,Conkey Corner Park  92 Conkey Ave. Rochester,Clifford Ave and Conkey Ave,Rochester,NY,14621,Mitch Gruber,5853283380,http://www.foodlinkny.org,Wed  4pm-7pm,July-September,Y,M,43.17472,-77.6196,N,Y,Y,"(43.17472, -77.6196)"
Monroe,Rochester Public Market,280 N. Union St. off East Main St.,280 North Union St.,Rochester,NY,14609,Cindy De Coste,5854286907,http://www.cityofrochester.gov/publicmarket,"Saturday  5am-3pm, Tue/Thu  6am-1pm",Year-round,Y,YR,43.1657,-77.59016,Y,Y,Y,"(43.1657, -77.59016)"
Monroe,Saint Mark's & Saint John's Farm Stand,1245 Culver Road Rochester,1245 Culver Rd,Rochester,NY,14609,Mitch Gruber,5853283380,http://www.foodlinkny.org,Sat  9:30am-12:30pm,July-September,Y,M,43.16807,-77.56219,N,Y,Y,"(43.16807, -77.56219)"
Monroe,Scottsville Midweek Farmers' Market,American Legion Pkg Lot  61 Main Street,61 Main St,Scottsville,NY,14546,Marcy McCall,5858893981,https://www.facebook.com/Scottsville-Midweek-Farmers-Market-125248400836985/,Wednesday  4pm-7pm,June 1-September 28,Y,M,43.0193,-77.75548,N,N,Y,"(43.0193, -77.75548)"
Monroe,South Wedge Farmers' Market,"Genesee Gateway City Park, 151 Mt. Hope Ave. Rochester",151 Mt. Hope Ave,Rochester,NY,14620,Jesse Knoth,5852561740,http://www.swfm.org,Thursday  4pm-7pm,June 9-October 13,Y,M,43.14684,-77.60934,Y,Y,Y,"(43.14684, -77.60934)"
Monroe,Town of Rush Farmers' Market,1900 Rush Scottsville Rd.,1900 Rush Scottsville Rd.,Rush,NY,14543,Patricia Stephens,5855332340,http://www.townofrush.com,Wednesday  3pm-6:30pm,July 6-November 9,Y,M,42.99712,-77.6483,N,N,Y,"(42.99712, -77.6483)"
Monroe,Village of Fairport,"58 S. Main St. parking lot, behind Bank of America",58 South Main St,Fairport,NY,14450,Fritz May,5854213209,http://www.fairportny.com,Saturday  7am-12pm,May 7-November 19,Y,P/M,43.09992,-77.44214,N,N,Y,"(43.09992, -77.44214)"
Monroe,Webster's Joe Obbie Farmers' Market,Webster Town Center  1028 Ridge Rd.,1028 Ridge Rd.,Webster,NY,14580,Jason Bliek,5852611533,http://www.webstersjoeobbiefarmersmarketinc.org,Saturday  8:30am-1pm,June 11-October 29,Y,M,43.20964,-77.45416,N,N,Y,"(43.20964, -77.45416)"
Monroe,Westside Farmers' Market,"St. Monica's Church parking lot, 831 Genesee St. Rochester",831 Genesee St,Rochester,NY,14611,Jackie Farrell,5854368999,http://www.westsidemarketrochester.com,Tuesday  4pm-7:30pm,June 7-October 11,Y,M,43.134058,-77.636523,Y,Y,Y,"(43.134058, -77.636523)"
Montgomery,Amsterdam Saturday Farmers' Market,Walter Elwood Museum 100 Church St.,100 Church St.,Amsterdam,NY,12010,Ben Wallach,5182217828,https://www.facebook.com/AmsterdamSaturdayFarmersMarket/timeline?ref=page_internal,Saturday  10am-2pm,May 21-October 8,Y,P/M,42.93962,-74.18643,N,N,Y,"(42.93962, -74.18643)"
Montgomery,Amsterdam Uptown Farmers' Market,4988 State Highway 30,4988 Route 30,Amsterdam,NY,12010,Michael Tillson,5188829306,http://www.fmfma.org,Wednesday  2pm-5pm,June 16-October 19,Y,M,42.95893,-74.18742,N,Y,Y,"(42.95893, -74.18742)"
Montgomery,Canajoharie Farmers' Market,"Arkell Museum lot, 2 Erie Blvd.",2 Erie Blvd.,Canajoharie,NY,13317,Phyllis Lapi,5186734434,http://www.canajohariefarmersmarket.com,Sunday  11am-2pm,June 5-October 30,Y,M,42.90704,-74.5721,N,N,Y,"(42.90704, -74.5721)"
Montgomery,Damin Farm Farm Stand,"8083 State Highway 5, St. Johnsville",8083 State Highway 5,St. Johnsville,NY,13452,Barb Damin,5185682643,,Saturday  9am-1pm,Year-round,Y,YR,43.00508,-74.72428,N,N,Y,"(43.00508, -74.72428)"
Montgomery,Fort Plain Farmers' Market,Parking lot on 12 Willet St. Ft. Plain,12 Willet Street,Fort Plain,NY,13339,Annette Rorick,5189934271,,Thursday  10am-4pm,May 26-November 17,Y,P/M,42.93177,-74.62118,N,N,Y,"(42.93177, -74.62118)"
Montgomery,Haven of Hope Farm Stand,"19 Cemetery St. , Fonda",19 Cemetary Street,Fonda,NY,12068,Pat Brooking,5187701390,http://www.havenofhopefarm.org,for timings contact Pat Brooking 518-770-1390,March 18-December 23,Y,P/M/X,42.95692,-74.37054,N,N,Y,"(42.95692, -74.37054)"
Montgomery,Karen's Produce Inc.,2311 State Hwy 5S,2311 State Hwy 5S,Amsterdam,NY,12010,Deanna Nelson,5188297397,,"Mon-Thu  10am-9pm, Fri-Sun  9am-9pm",June 15-October 25,Y,M,42.93155,-74.28781,N,N,Y,"(42.93155, -74.28781)"
Nassau,Anna House Farm Stand,2150 Hempstead Turnpike Elmont,2150 Hempstead Turnpike,Elmont,NY,11003,Dana Youkilis,5163589250,http://www.childcarenassau.org,Tuesday  10am-1pm,June 28-September 27,Y,M,40.70919,-73.7216,Y,Y,Y,"(40.70919, -73.7216)"
Nassau,Children's Nest Farmers' Market,2350 Merrick Ave. Merrick,2350 Merrick Ave.,Merrick,NY,11566,Dana Youkilis,5163589250,http://www.childcarenassau.org,Monday  3:30pm-6:30pm,June 27-September 26,Y,M,40.66035,-73.55089,Y,Y,Y,"(40.66035, -73.55089)"
Nassau,Country Fresh Farmers' Market,Farmingdale Village Green 361 Main St,361 Main St,Farmingdale,NY,11735,Mary Schneider,6316735844,,Sunday  10am-3pm,June 5-November 20,Y,M,40.73166,-73.44566,N,N,Y,"(40.73166, -73.44566)"
Nassau,East Meadow Farmers' Market,832 Merrick Ave.  East Meadow,832 Merrick Avenue,East Meadow,NY,11554,Carol Morgenstern,5162971894,http://cce.nassau.org,"Friday  3pm-6pm, Saturday  9am-12pm",July 8-October 8,Y,M,40.70092,-73.56747,N,Y,Y,"(40.70092, -73.56747)"
Nassau,Freeport Community Youth Market,"Freeport Rec. Center N. Parking Lot, 130 East Merrick Rd.",130 East Merrick Rd,Freeport,NY,11520,Debra Wheat-Williams,5163783415,http://www.cedarmore.org,Saturday  11am-4pm,July 9-October 29,Y,M,40.65449,-73.57474,Y,Y,Y,"(40.65449, -73.57474)"
Nassau,Garden City Farmers' Market,"101 County Seat Dr. Mineola, 3rd parking lot behind Supreme Ct. Bldg.",County Seat Dr and Supreme Court Dr,Garden City,NY,11530,Ethel Terry,6313233653,http://www.longislandgrowersmarket.com,Tuesday  7am-1pm,May 31-November 22,Y,P/M,40.73609,-73.63505,N,N,Y,"(40.73609, -73.63505)"
Nassau,Kennedy Plaza Farmers' Market,1 West Chester St. at City Hall  Long Beach,1 West Chester St,Long Beach,NY,11561,Georgia Meckes,8458023090,http://www.ligreenmarket.org/,Wed/Sat  9am-2pm,May 4-November 23,Y,P/M,40.58943,-73.66592,Y,Y,Y,"(40.58943, -73.66592)"
Nassau,New Cassel Farmers' Market,"First Baptist Church parking lot, 212 Garden St. Westbury",212 Garden St,Westbury,NY,11590,Traci Caines,5169979399,https://www.facebook.com/pages/New-Cassel-Farmers-Market/138769932883107,Saturday  11am-3pm,August 20-November 5,Y,M,40.7622,-73.56767,Y,Y,Y,"(40.7622, -73.56767)"
Nassau,New Hyde Park Farmers' Market,"Municipal parking lot near Village Hall, 1441 Jericho Turnpike",1441 Jericho Turnpike,New Hyde Park,NY,11040,Lona Graepel,6319442661,http://www.longislandfarmersmarkets.com,Saturday  8am-1pm,June 4-November 19,Y,M,40.73386,-73.68046,N,Y,Y,"(40.73386, -73.68046)"
Nassau,Port Washington Organic Farmers' Market,Port Washington Town Dock 347 Main St.,Main St and Covert St,Port Washington,NY,11050,Patti Wood,5168830887,http://www.grassrootsinfo.org,Saturday  8am-12pm,June 11-October 29,Y,M,40.83153,-73.7019,N,N,Y,"(40.83153, -73.7019)"
Nassau,Rockville Centre Farmers' Market,Sunrise Hgwy & Longbeach Rd.,Sunrise Hwy and Long Beach Rd,Rockville Centre,NY,11570,Ethel Terry,6313233653,http://www.longislandgrowersmarket.com,Sunday  7am-12pm,May 29-November 20,Y,P/M,40.65712,-73.6321,N,N,Y,"(40.65712, -73.6321)"
Nassau,Roosevelt Community Youth Market,"380 Nassau Rd., Family Health Clinic parking lot",380 Nassau Rd,Roosevelt,NY,11575,Clara Gillens-Eromosele,5165442955,http://www.rooseveltfarmersmarket.com,Sunday  11am-4pm,July 10-October 30,Y,M,40.68185,-73.59092,Y,Y,Y,"(40.68185, -73.59092)"
Nassau,Roslyn-North Hills Farmers' Market,Christopher Morley Park 500 Searing Town Rd.,500 Searingtown Rd,Roslyn Heights,NY,11577,Ethel Terry,6313233653,http://www.longislandgrowersmarket.com,Wednesday  7am-1pm,May 25-November 23,Y,P/M,40.78188,-73.66277,N,N,Y,"(40.78188, -73.66277)"
Nassau,Seaford Farmers' Market,"Seaford Railroad Station Parking Lot 3, Sunrise Highway & Washington St.",Sunrise Highway and Washington St.,Seaford,NY,11783,Ethel Terry,6313233653,http://www.longislandgrowersmarket.com,Saturday  7am-12pm,May 28-November 19,Y,P/M,40.67572,-73.48657,N,N,Y,"(40.67572, -73.48657)"
Nassau,Spinney Hill Farmers' Market,"125 Community Drive, Northshore LIJ parking lot Great Neck",125 Community Drive,Great Neck,NY,11021,Georgia Meckes,8458023090,http://www.ligreenmarket.org,Sunday  9am-2pm,July 10-October 30,Y,M,40.78414,-73.70454,Y,Y,Y,"(40.78414, -73.70454)"
Nassau,Sunnyside Williston Park Farmers' Market,234 Hillside Ave. Willison Park,234 Hillside Ave.,Williston Park,NY,11561,Debora Staiano,6319915990,http://www.sunnysidemarkets.com,Sunday  11am-6pm,June 26-October 30,Y,M,40.75514,-73.64854,N,N,Y,"(40.75514, -73.64854)"
Nassau,YALE Farmers' Market,"Yale Child Care Center , 160 Baldwin Rd. Hempstead",160 Baldwin Road,Hempstead,NY,11550,Dana Youkilis,5163589250,http://www.childcarenassau.org,Wed  3:30pm-6:30pm,June 29-September 28,Y,M,40.69657,-73.61598,Y,Y,Y,"(40.69657, -73.61598)"
New York,125th Street FreshConnect Farmers' Market,"Adam Clayton Powell Jr. State Office Bldg , 163 W 125th St. Plaza",163 West 125th Street,New York,NY,10027,Tupacamaru Tiwoni,6463517611,http://www.125thstreetfarmersmarket.com,Tuesday  10am-7pm,June 7-November 22,Y,M,40.8085,-73.94712,N,Y,Y,"(40.8085, -73.94712)"
New York,175th St. Greenmarket,W 175th St. btwn Wadsworth & Broadway,West 175th St and Broadway,New York,NY,10033,Chelsea Whittaker,2127887476,http://www.grownyc.org/greenmarket,Thursday  8am-5pm,June 30-November 17,Y,M,40.84622,-73.93847,N,Y,Y,"(40.84622, -73.93847)"
New York,57th St. Greenmarket,Ninth Ave. btwn 56th & 57th Sts.,West 57th St and Ninth Ave,New York,NY,10019,Chelsea Whittaker,2127887476,http://www.grownyc.org/greenmarket,Wed/Sat  8am-5pm,May 18-December 24,Y,P/M/X,40.76792,-73.98572,N,Y,Y,"(40.76792, -73.98572)"
New York,79th St. Greenmarket,Columbus Ave. btwn W 78th &  W 81st Sts.,West 79th St and Columbus Ave,New York,NY,10024,Chelsea Whittaker,2127887476,http://www.grownyc.org/greenmarket,Sunday  9am-5pm,Year-round,Y,YR,40.78195,-73.97548,N,Y,Y,"(40.78195, -73.97548)"
New York,82nd St. Saint Stephen's Greenmarket,E 82nd St.  btwn 1st & York Aves.,408 East 82nd Street,New York,NY,10028,Chelsea Whittaker,2127887476,http://www.grownyc.org/greenmarket,Saturday  9am-2:30pm,Year-round,Y,YR,40.77394,-73.9506,N,Y,Y,"(40.77394, -73.9506)"
New York,92nd St. Greenmarket,E 92nd St. and 1st Ave.,East 92nd St and First Ave,New York,NY,10128,Chelsea Whittaker,2127887476,http://www.grownyc.org/greenmarket,Sunday  9am-5pm,June 26-November 20,Y,M,40.78071,-73.94658,N,Y,Y,"(40.78071, -73.94658)"
New York,97th Street Greenmarket,97th St. btwn Amsterdam & Columbus Aves.,West 97th St and Columbus Ave,New York,NY,10025,Chelsea Whittaker,2127887476,http://www.grownyc.org/greenmarket,Friday  8am-2pm,Year-round,Y,YR,40.79356,-73.96701,N,Y,Y,"(40.79356, -73.96701)"
New York,Abingdon Square Greenmarket,W 12th St. and Hudson St.,Hudson St and W 12 St,New York,NY,10014,Chelsea Whittaker,2127887476,http://www.grownyc.org/greenmarket,Saturday  8am-2pm,Year-round,Y,YR,40.73755,-74.00568,N,Y,Y,"(40.73755, -74.00568)"
New York,Bowling Green Greenmarket,Broadway at Battery Place,Battery Place and Broadway,New York,NY,10004,Chelsea Whittaker,2127887476,http://www.grownyc.org/greenmarket,Tue/Thu  8am-5pm,Year-round,Y,YR,40.70462,-74.01422,N,Y,Y,"(40.70462, -74.01422)"
New York,Broadway French Farmers' Market,Broadway btwn 35th & 36th Sts.,1344 Broadway,New York,NY,10018,Johanna Safar,9143181067,http://www.bensidounusa.com,Wed/Thu/Fri  11am-6pm,May 4-November 23,N,P/M,40.751012,-73.987759,N,N,Y,"(40.751012, -73.987759)"
New York,Chelsea Farmers' Market,North side of 23rd St. East of 9th Ave.,23rd Street and 9th Avenue,New York,NY,10011,Emily Grayson,9149234837,http://www.downtoearthmarkets.com,Saturday  9am-5pm,May 21-December 17,Y,P/M/X,40.74651,-74.00137,N,Y,Y,"(40.74651, -74.00137)"
New York,City Hall Park Greenmarket,Broadway btwn Chambers & Warren Sts.,Broadway and Chambers St,New York,NY,10007,Chelsea Whittaker,2127887476,http://www.grownyc.org/greenmarket,Tue/Fri  8am-4pm,March 3-December 23,Y,P/M/X,40.71419,-74.0063,N,Y,Y,"(40.71419, -74.0063)"
New York,Columbia Greenmarket,Broadway btwn W 114th &  W 115th Sts.,Broadway and West 115th St,New York,NY,10027,Chelsea Whittaker,2127887476,http://www.grownyc.org/greenmarket,Sun/Thu  8am-5pm,Year-round,Y,YR,40.80731,-73.9643,N,Y,Y,"(40.80731, -73.9643)"
New York,Dag Hammarskjold Plaza Greenmarket,E 47th St. btwn 1st & 2nd Aves,East 47th St and Second Ave,New York,NY,10017,Chelsea Whittaker,2127887476,http://www.grownyc.org/greenmarket,Wednesday  8am-4pm,Year-round,Y,YR,40.75298,-73.96989,N,Y,Y,"(40.75298, -73.96989)"
New York,El Barrio Youth Marqueta,116th St. at Park Ave.,116th Street and Park Ave.,New York,NY,10029,Kori Petrovic,2127887476,http://www.grownyc.org,Sat/Thu  11am-5pm,July 9-November 19,Y,M,40.79925,-73.9431,N,Y,Y,"(40.79925, -73.9431)"
New York,Fort Washington Greenmarket,Fort Washington Ave. btwn 168th & 169th Sts.,Fort Washington Ave and West 168th St,New York,NY,10032,Chelsea Whittaker,2127887476,http://www.grownyc.org/greenmarket,Tuesday  8am-4pm,June 7-November 22,Y,M,40.84217,-73.94229,N,Y,Y,"(40.84217, -73.94229)"
New York,Gouverneur Health Youthmarket,Madison St. btwn Clinton & Jefferson Sts.,227 Madison Street,New York,NY,10002,Kori Petrovic,2127887476,http://www.grownnyc.org/youthmarket,Thursday  8:30am-3pm,July 7-November 17,Y,M,40.71321,-73.98779,N,Y,Y,"(40.71321, -73.98779)"
New York,Grass Roots Farmers' Market,"Around Jackie Robinson Park 145th St., btwn Edgecomb & Bradhurst Aves.",West 145th St and Edgecombe Ave,New York,NY,10030,Yvonne Andre,2122522113,,Sat/Tue  9am-4pm,July 9-November 29,Y,M,40.82365,-73.94385,N,Y,Y,"(40.82365, -73.94385)"
New York,Hamilton Heights Green Youth Market,"Johnny Hartman Plaza (North Corner), Amsterdam Ave btwn 143rd & 144th sts.",143rd Street and Amsterdam Ave,Manhattan,NY,10031,Nando Rodriguez,2122837044,http://brotherhood-sistersol.org/programs/environmental-program,Wed/Thu  11am-5pm,July 6-November 23,Y,M,40.82396,-73.94855,N,Y,Y,"(40.82396, -73.94855)"
New York,Harvest Home East Harlem Farmers' Market,E 104th St. & Third Ave.,East 104th St and Third Ave,New York,NY,10029,Maritza Owens,2128283361,http://www.harvesthomefm.org,Thursday  8am-4pm,July 7-November 17,Y,M,40.79024,-73.94564,N,Y,Y,"(40.79024, -73.94564)"
New York,Harvest Home East River Farmers' Market,416 E 111th St. corner of New st.,416 E 111th St,New York,NY,10029,Maritza Owens,2128283361,http://www.harvesthomefm.org,Saturday  9am-4pm,July 9-November 19,Y,M,40.7923,-73.93666,N,Y,Y,"(40.7923, -73.93666)"
New York,Harvest Home Harlem Hospital Farmers' Market,"506 Lenox Ave. , Btwn W 135th & W 137th Sts.",137th Street and Lennox Avenue,New York,NY,10037,Maritza Owens,2128283361,http://www.harvesthomefm.org,"Friday  8am-4pm, Dec-April 9am-3pm",Year-round,Y,YR,40.81539,-73.93985,N,Y,Y,"(40.81539, -73.93985)"
New York,Harvest Home Lenox Ave. Farmers' Market,Lenox Ave. btwn W 117th & W 118th Sts.,150 Lenox Avenue,New York,NY,10027,Maritza Owens,2128283361,http://www.harvesthomefm.org,Saturday  8am-5pm,June 13-November 21,Y,M,40.80295,-73.9489,N,Y,Y,"(40.80295, -73.9489)"
New York,Harvest Home Metropolitan Farmers' Market,East 99th St. & 3rd Ave.,East 99th St and Third Ave,New York,NY,10029,Maritza Owens,2128283361,http://www.harvesthomefm.org,Friday  8am-4pm,June 10-November 18,Y,M,40.78713,-73.94792,N,Y,Y,"(40.78713, -73.94792)"
New York,Harvest Home West Harlem Farmers' Market,137th St. & Broadway,137th St and Broadway,New York,NY,10031,Maritza Owens,2128283361,http://www.harvesthomefm.org,Tuesday  8am-4pm,July 5-November 22,Y,M,40.82136,-73.95404,N,Y,Y,"(40.82136, -73.95404)"
New York,Inwood Greenmarket,"Isham St., Isham Park, btwn Seaman Ave. & Cooper St.",Isham St and Seaman St,New York,NY,10034,Chelsea Whittaker,2127887476,http://www.grownyc.org/greenmarket,Saturday  8am-3pm,Year-round,Y,YR,40.86988,-73.9209,N,Y,Y,"(40.86988, -73.9209)"
New York,Lower East Side Youthmarket,Grand Ave. btwn Pitt & Willett Sts.,Grand St and Pitt St,New York,NY,10002,Kori Petrovic,2127887476,http://www.grownyc.org/youthmarket,Thursday  8am-4pm,July 7-November 17,Y,M,40.71523,-73.9843,N,Y,Y,"(40.71523, -73.9843)"
New York,Marcus Garvey Mart Farmers' Market,Marcus Garvey Park on 124th st & 5th Ave New York,2 east 124th st,New York,NY,10035,Jean Chatman,3472752615,,Saturday  9am-6pm,Sept. 24-December 31,Y,M/X,40.8057,-73.9427,N,N,Y,"(40.8057, -73.9427)"
New York,Morningside Park Farmers' Market,W 110th St. & Manhattan Ave.,West 110th St and Manhattan Ave,New York,NY,10025,Emily Grayson,9149234837,http://www.downtoearthmarkets.com,Saturday  9am-4pm,Year-round,Y,YR,40.80116,-73.95965,N,Y,Y,"(40.80116, -73.95965)"
New York,Mount Sinai Hospital Greenmarket,Madison Ave. at E 99th St.,East 99th St and Madison Ave,New York,NY,10029,Chelsea Whittaker,2127887476,http://www.grownyc.org/greenmarket,Wednesday  8am-5pm,June 29-November 23,Y,M,40.78918,-73.95276,N,Y,Y,"(40.78918, -73.95276)"
New York,Project EATS Frederick Douglass Houses Farm Stand,840 Columbus Aves.,830 Amsterdam Ave,New York,NY,10025,Matt Linder,2126121528,http://www.projecteats.org,Saturday  9am-3pm,May 28-November 26,Y,P/M,40.79703,-73.96822,N,Y,Y,"(40.79703, -73.96822)"
New York,Rachel Mae's Farmers' Market,"Seward Pk (Fountain Area) Essex St. , Btwn Hester & Canal Sts.",36 Canal Street,New York,NY,10002,Rachel McGrath,5162413620,,Saturday  9am-5pm,April 30-December 18,Y,P/M/X,40.71491,-73.98925,N,N,Y,"(40.71491, -73.98925)"
New York,Rockefeller Center Greenmarket,Rockefeller Plaza at 50th St.,Rockefeller Plaza and West 50th St,New York,NY,10112,Chelsea Whittaker,2127887476,http://www.grownyc.org/greenmarket,Wed/Thu/Fri  8am-5pm,July 20-August 26,Y,M,40.75907,-73.97846,N,Y,Y,"(40.75907, -73.97846)"
New York,Saint Mark's Church Greenmarket,E 10th St. at 2nd Ave.,East 10th St and Second Ave,New York,NY,10003,Chelsea Whittaker,2127887476,http://www.grownyc.org/greenmarket,Tuesday  8am-6pm,June 7-November 22,Y,M,40.72975,-73.98682,N,Y,Y,"(40.72975, -73.98682)"
New York,Staten Island Ferry Whitehall Greenmarket,4 South St. inside Ferry Terminal Bldg.,4 South St,New York,NY,10004,Chelsea Whittaker,2127887476,http://www.grownyc.org/greenmarket,Tue/Fri  8am-7pm,Year-round,Y,YR,40.70155,-74.01213,N,Y,Y,"(40.70155, -74.01213)"
New York,Stuyvesant Town Greenmarket,14th St. Loop & Ave A South end of oval,1 Stuyvesant Oval,New York,NY,10009,Chelsea Whittaker,2127887476,http://www.grownyc.org/greenmarket,Sunday  9:30am-4pm,May 22-November 20,Y,P/M/X,40.73146,-73.97875,N,Y,Y,"(40.73146, -73.97875)"
New York,Sugar Hill Greenmarket,W 155th St. & St. Nicholas Ave.,451 W. 155th Street,New York,NY,10032,Chelsea Whittaker,2127887476,http://www.grownyc.org/greenmarket,Saturday  8am-4pm,June 18-November 19,Y,M,40.830911,-73.94137,N,Y,Y,"(40.830911, -73.94137)"
New York,Tompkins Square Greenmarket,Tompkins Square Park E 7 St. at Ave A,Avenue A and East 7th St,New York,NY,10009,Chelsea Whittaker,2127887476,http://www.grownyc.org/greenmarket,Sunday  9am-6pm,Year-round,Y,YR,40.72602,-73.98353,N,Y,Y,"(40.72602, -73.98353)"
New York,Tribeca Greenmarket Saturday,Greenwich St. btwn Chambers & Duane Sts,Greenwich St and Chambers St,New York,NY,10007,Chelsea Whittaker,2127887476,http://www.grownyc.org/greenmarket,Saturday  8am-3pm,Year-round,Y,YR,40.7163,-74.01097,N,Y,Y,"(40.7163, -74.01097)"
New York,Tribeca Greenmarket Wednesday,Greenwich St. btwn Chambers & Duane Sts,Greenwich St and Chambers St,New York,NY,10007,Chelsea Whittaker,2127887476,http://www.grownyc.org/greenmarket,Wed  8am-3pm,March 23-December 21,Y,P/M/X,40.71629,-74.01095,N,Y,Y,"(40.71629, -74.01095)"
New York,Tucker Square Greenmarket,Columbus Ave btwn W 65th & W 66th Sts.,Columbus and West 66th St,New York,NY,10023,Chelsea Whittaker,2127887476,http://www.grownyc.org/greenmarket,Thu/Sat  8am-5pm,Year-round,Y,YR,40.77361,-73.98158,N,Y,Y,"(40.77361, -73.98158)"
New York,Union Square Greenmarket,"E. 17th St. & Broadway , West & North side of Park",Broadway and East 17th St,New York,NY,10003,Chelsea Whittaker,2127887476,http://www.grownyc.org/greenmarket,M/W/F/Sat  8am-6pm,Year-round,Y,YR,40.73712,-73.99029,N,Y,Y,"(40.73712, -73.99029)"
New York,Uptown Go Green,"181 St. Manhattan, btwn Audobon & St. Nicholas Aves.",181 Street between Audobon and Saint Nicholas Avenues,Bronx,NY,10033,Walter Sotelo,9174637707,http://www.uptowncommunitychurch.com,"Wednesday  4pm-8pm, Saturday  10am-5pm",July 9-August 27,Y,M,40.84988,-73.93592,N,N,Y,"(40.84988, -73.93592)"
New York,Water Street at Coenties Greenmarket,Water Street at Coenties Slip,Water Street and Coenties Slip,New York,NY,10004,Chelsea Whittaker,2127887476,http://www.grownyc.org/greenmarket,Thursday  8am-6pm,June 2-November 17,Y,M,40.70328,-74.01024,N,Y,Y,"(40.70328, -74.01024)"
Niagara,Barker Farmers' Market,"Faith United Methodist Church, 1449 Quaker Rd.",Main St and Quaker Rd,Barker,NY,14012,Grace Bodine,7167953098,,Thursday  5pm-7pm,June 16-September 15,Y,M,43.33012,-78.55481,N,N,Y,"(43.33012, -78.55481)"
Niagara,Lockport Community Farmer's Market,57 Canal Street,57 Canal Street,Lockport,NY,14094,TBA TBA,5184576880,http://www.lockportcommunitymarket.com,Saturday  9am-2pm,July 2-October 1,Y,M,43.17073,-78.69438,N,Y,Y,"(43.17073, -78.69438)"
Niagara,Newfane Methodist Farmers' Market,2699 Main St. Newfane,2699 Main St.,Newfane,NY,14108,Amy Luckman,7167787011,https://www.facebook.com/NewfaneMethodist/?ref=ts&rf=113675188665485,Wednesday  4:30pm-7pm,June 22-October 5,Y,M,43.28365,-78.70879,N,N,Y,"(43.28365, -78.70879)"
Niagara,Niagara Falls City Market,19th St. & Pine Ave.,1800-1808 Pine Ave,Niagara Falls,NY,14301,Victor Muto,7167540798,http://www.local-farmers-markets.com/market/3569/niagara-falls/niagara-falls-city-market,Mon/Wed/Fri  9am-5pm,Year-round,Y,YR,43.09513,-79.03972,N,N,Y,"(43.09513, -79.03972)"
Niagara,North Tonawanda City Farmers' Market,Robinson Rd. & Payne Ave.,310 Robinson Road,North Tonawanda,NY,14120,Dale Rogers,7166958555,,Tue/Thu/Sat  7am-1pm,Year-round,Y,YR,43.03386,-78.86971,N,Y,Y,"(43.03386, -78.86971)"
Niagara,Prudom Farms Farm Stand,2570 Carmen Rd. Middleport,2575 Carmen Road,Middleport,NY,14105,Stacey & Lynne McAvoy,7165149645,http://www.prudomfarms.com,Daily  10am-8pm,May 1-December 1,Y,P/M/X,43.28346,-78.48709,N,Y,Y,"(43.28346, -78.48709)"
Niagara,Schwab Farm Market,"9035 Rochester Rd , Gasport",9035 Rochester Rd,Gasport,NY,14067,Sharon Brent,7165600853,http://www.schwabsfarm.com,"Mon-Fri  8am-7pm, Saturday  8am-6pm, Sunday  9am-5pm",Year-round,Y,YR,43.20425,-78.52308,N,Y,Y,"(43.20425, -78.52308)"
Oneida,Berkshire-Rome Vendors Market,101 W. Dominick St.  Berkshire Bank parking lot,101 West Dominick Street,Rome,NY,13440,Judith Wagner,3153395182,https://www.facebook.com/Berkshire-Rome-Vendors-Market-903457103006178/,Friday  9am-6pm,April 29-November 18,Y,P/M,43.21208,-75.46034,Y,Y,Y,"(43.21208, -75.46034)"
Oneida,Boonville Farmers' Market,Erwin Park parking lot,Carol Ave and Ford St,Boonville,NY,13309,Melinda Wittwer,3159425112,http://boonvillechamber.com,Thursday  12:30pm-5:30pm,June 16-October 6,Y,M,43.48178,-75.34404,N,N,Y,"(43.48178, -75.34404)"
Oneida,City of Sherrill Farmers' Market,"Skating Rink Mumford Park, 377 Sherrill Rd.",377 Sherrill Rd.,Sherrill,NY,13641,Sara Getman,3153636525,http://www.sherrillny.org,Tuesday  3pm-7pm,May 17-October 4,Y,P/M,43.07179,-75.59931,N,N,Y,"(43.07179, -75.59931)"
Oneida,City of Utica Farmers' Market,Chancellor Park Elizabeth St. & Academy,Bleeker St and 1st St,Utica,NY,13501,Thalia Hunter,3157920114,,Wednesday  8am-5pm,June-October,Y,M,43.10043,-75.22483,Y,Y,Y,"(43.10043, -75.22483)"
Oneida,Clinton Farmers' Market,Village Green  21 West Park Row,21 W Park Row,Clinton,NY,13323,Jackie Walters,3158531735,http://www.clintonnychamber.org/farmers-market.html,Thursday  10am-4pm,June 2-October 6,Y,M,43.04823,-75.37883,Y,Y,Y,"(43.04823, -75.37883)"
Oneida,Oneida County Public Market,"REA Wing  Union Station, 321 Main St. Downtown Utica",321 Main Street,Utica,NY,13501,Elizabeth Irons,3157983639,http://www.oneidacountymarket.com,Saturday  9am-1pm,May 21-October 29,Y,P/M,43.10393,-75.2239,Y,Y,Y,"(43.10393, -75.2239)"
Oneida,Oneida County WINTER Public Market,"Inside Main Lobby Union Station, 321 Main Street Downtown Utica",321 Main Street,Utica,NY,13501,Elizabeth Irons,3157983639,http://www.oneidacountymarket.com,Alt Saturdays  9am-1pm,November 12-April 22,N,M/X/W/P,43.10393,-75.2239,Y,Y,Y,"(43.10393, -75.2239)"
Oneida,Rome Farmers' Market,1106 N James St. Franklyn's Field (City Park),1106 North James Street,Rome,NY,13440,Jake DiBari,3152717090,http://www.positivelyrome.com,Wednesday  2pm-7pm,May 18-October 12,Y,P/M,43.22396,-75.44779,N,N,Y,"(43.22396, -75.44779)"
Oneida,Sylvan Beach Farmers' Market,Spencer Ave.,Spencer Ave,Sylvan Beach,NY,13157,Wanda Clerks,3157624844,http://www.sylvanbeach.org/calendar.html,Tuesday 9am-5pm,June 21-September 21,N,M,43.19564,-75.72848,N,N,Y,"(43.19564, -75.72848)"
Oneida,Top of the Hill Flea & Farmers' Market,7595 State Route 13 Blossvale,7595 State Route 13,Blossvale,NY,13308,AmyJo Pfeifer,3153355056,http://topofthehillmarket.com,Sat/Sun 10am-4pm,May 28-September 4,Y,M,43.22926,-75.73017,N,N,Y,"(43.22926, -75.73017)"
Oneida,Trenton Farmers' Market,Village Green in Holland Patent,Main St and Church St,Holland Patent,NY,13354,William Hajdasz,3155257513,http://www.trentonmarket.com,Saturday  9am-1pm,June 11-October 15,Y,M,43.24131,-75.25753,Y,Y,Y,"(43.24131, -75.25753)"
Oneida,Wagner Farms Farm Stand,5841 Old Oneida Rd. Rome,5841 Old Oneida Rd,Rome,NY,13440,Ronald Wagner,3153395182,https://www.facebook.com/pages/Wagner-Farms/320403351460689?rf=100489860011908,Sat-Thu  9am-6pm,May-December 24,Y,P/M/X,43.1805,-75.50086,N,Y,Y,"(43.1805, -75.50086)"
Oneida,Waterville Farmers' Market,Village Green,Village Green,Waterville,NY,13480,Debra Atkinson,3157505785,,Wednesday  2pm-6pm,June 1-September 28,Y,M,42.91184,-75.37849,N,Y,Y,"(42.91184, -75.37849)"
Oneida,Westmoreland Farmers' Market,Seymour's Diner 4825 State Route 233,4834 State Route 233,Westmoreland,NY,13490,Denise & Bernie Szarek,3158535901,,Sunday  9am-1pm,June 5-October 2,Y,M,43.16264,-75.41751,N,N,Y,"(43.16264, -75.41751)"
Oneida,Whitesboro Farmers' Market,8 Park Ave.,8 Park Ave.,Whitesboro,NY,13492,Robert Friedlander,3157361613,https://www.facebook.com/whitesboromarket/,Monday  3pm-7pm,June 6-October 10,Y,M,43.121773,-75.291136,N,N,Y,"(43.121773, -75.291136)"
Oneida,Whitesboro WINTER Farmers' Market,Dunham Public Library 76 Main St.,76 Main St.,Whitesboro,NY,13492,Susan Hansen,3157369734,,1st and 3rd Mon  3pm-7pm,October 17-April 17,N,M/X/W/P,43.121106,-75.289193,N,N,Y,"(43.121106, -75.289193)"
Onondaga,Baltimore Woods WINTER Farmers' Market,"Baltimore Woods Nature Center, 4007 Bishop Hill Road",4007 Bishop Hill Road,Marcellus,NY,13108,Sue Jones,3156731350,https://www.facebook.com/winterfarmersmarketatbaltimorewoods/,2nd Saturday  10am-1pm,November-April,N,X/W/P,42.964885,-76.344609,N,N,Y,"(42.964885, -76.344609)"
Onondaga,Bayberry Plaza Farmers' Market,Kinney lot 7608 Oswego Rd. Liverpool,7608 Oswego Rd,Liverpool,NY,13090,Kathy Parrotta,3156521463,http://www.bayberryplaza.com,Wednesday  8am-3pm,May 4-October 26,Y,P/M,43.13779,-76.22602,N,N,Y,"(43.13779, -76.22602)"
Orange,City of Port Jervis Farmers' Market,corner of Pike & Hammond Streets,54-56 Front St,Port Jervis,NY,12771,Mary Ann Schultes,8458584017,,Saturday  9am-1pm,June 25-October 29,Y,M,41.373036,-74.691185,N,N,Y,"(41.373036, -74.691185)"
Onondaga,Brownson Family Farm Farm Stand,"8149 Bridgeport Kirkville Rd. , Kirkville",8149 Bridgeport Kirkville Rd,Kirkville,NY,13082,James A Brownson,3156562025,http://www.brownsonfamilyfarm.com,"Mon-Sat  9am-6pm, Sunday  10am-6pm",April 1-December 31,Y,P/M/X,43.12132,-75.95507,N,N,Y,"(43.12132, -75.95507)"
Onondaga,Central NY Regional Market Authority,"2100 Park St. , Syracuse",2100 Park Street,Syracuse,NY,13208,Amanda Vitale,3154228647,http://www.cnyrma.com,"Sat/Sun  7am-2pm, Thu  7am-2pm  May-Nov",Year-round,Y,YR,43.07269,-76.16835,Y,Y,Y,"(43.07269, -76.16835)"
Onondaga,Downtown Syracuse Farmers' Market,100 Clinton Square,Clinton St and Water St,Syracuse,NY,13202,Charles McFadden,3154228284,http://www.downtownsyracuse.com,Tuesday  7am-3pm,June 14-October 11,Y,M,43.05054,-76.15354,N,Y,Y,"(43.05054, -76.15354)"
Onondaga,Fayetteville Farmers' Market,"Fayetteville Town Center, 504 Burdick St.",Genesee Turnpike and South Manlius Street,Fayetteville,NY,13066,Stephanie Lipsey,3157509124,http://www.fayettevillefarmersmarketcny.com,"Thu  11am-3pm , Nov-Dec  bi-weekly, Jan-Apr 1st Thu",Year-round,Y,YR,43.02999,-76.00452,N,N,Y,"(43.02999, -76.00452)"
Onondaga,Skaneateles Farmers' Market,"1 East Austin St. , Austin Park Pavilion",One E. Austin St,Skaneateles,NY,13152,Sue Murphy,3157279320,http://www.townofskaneateles.com,"Thursday  3:30pm-6:30pm, Saturday  10am-1pm",May 19-November,Y,P/M,42.95089,-76.4309,N,N,Y,"(42.95089, -76.4309)"
Onondaga,Syracuse Eastside Neighborhood Market,Westcott Community Ctr 826 Euclid Ave,826 Euclid Ave,Syracuse,NY,13210,Jennifer Walton,3154788634,http://www.wescottcc.org/farmers-market,Wednesday  2pm-6pm,June 8-October 26,Y,M,43.03662,-76.1192,N,Y,Y,"(43.03662, -76.1192)"
Onondaga,Syracuse Farm Fresh Mobile Market,"Contact market for locations & times, 315-345-0600",500 West Newell Street,Syracuse,NY,13205,Diane Turner,3153450600,https://ssinterfaithcdc.org/projects/farm-fresh-mobile-market/,Mon-Fri  9am-5pm,Year-round,Y,YR,43.016878,-76.153714,Y,Y,Y,"(43.016878, -76.153714)"
Ontario,Canandaigua Farmers' Market,167 Mill St.,Beeman St and Mill St,Canandaigua,NY,14424,Phillip Munson,5853297666,http://www.canandaiguafarmersmarket.com,Sat  8:30am-12:30pm,June 4-October 29,Y,M,42.88534,-77.27837,N,N,Y,"(42.88534, -77.27837)"
Ontario,Canandaigua VA Farmers' Market,VA Medical Center Parking lot 1A 400 Fort Hill Rd.,400 Fort Hill Ave,Canandaigua,NY,14424,Debbie Brahm,5853937803,,Tuesday  1:30pm-5pm,June 21-October 11,Y,M,42.90096,-77.27033,N,N,Y,"(42.90096, -77.27033)"
Ontario,Canandaigua WINTER Farmers' Market,"Antis St. Parkling lot, Behind Byrne Dairy",Antis St.,Canandaigua,NY,14424,Phillip Munson,5853297666,,"Every other Sat  , 10am-11am",November 5-May 27,Y,M/X/W/P,42.88362,-77.2801,N,N,Y,"(42.88362, -77.2801)"
Ontario,Cheshire Union Farmers' Market,4244 Route 21 Canandaigua,4244 Route 21,Canandaigua,NY,14424,TBA TBA,5184576880,http://www.cugifts.com/Farm-Market.html,Monday  2pm-6pm,June 20-September 26,N,M,42.82312,-77.32714,N,N,Y,"(42.82312, -77.32714)"
Ontario,Clifton Springs Farmers' Market,Kendal St. and Railroad Ave.,17-31 Railroad Ave,Clifton Springs,NY,14432,Natalie Baris,3157303981,http://www.cliftonchamber.com,Friday  3pm-6pm,June 3-September 30,N,M,42.963153,-77.139598,N,Y,Y,"(42.963153, -77.139598)"
Ontario,Curbside Market-Clifton Springs Hospital,2 Coulter Rd. Clifton Springs,2 Coulter Road,Clifton Springs,NY,14432,Mitch Gruber,5853283380,http://www.foodlinkny.org,Tuesday  10am-10:30am,Jul-November,Y,M,42.96042,-77.13637,N,Y,Y,"(42.96042, -77.13637)"
Ontario,Curbside Market-Elizabeth Blackwell Apts,235 Genesee St. Geneva,235 Genesee St.,Geneva,NY,14456,Mitch Gruber,5853283380,,Friday 12pm-12:30pm,July-November,Y,M,42.86865,-76.98364,N,Y,Y,"(42.86865, -76.98364)"
Ontario,Curbside Market-Geneva General Hospital,196 North St. Geneva,196 North Street,Geneva,NY,14456,Mitch Gruber,5853283380,http://www.foodlinkny.org,Friday  10am-10:45am,July-November,Y,M,42.87649,-76.9883,N,Y,Y,"(42.87649, -76.9883)"
Ontario,Curbside Market-GHA Courtyard Apts,10 Goodman St. Geneva,10 Goodman St.,Geneva,NY,14456,Mitch Gruber,5853283380,,Friday 12:40pm-1:15pm,July-November,Y,M,42.88021,-76.96444,N,Y,Y,"(42.88021, -76.96444)"
Ontario,Curbside Market-GHA Elmcrest Apts,99 Lewis St. Geneva,99 Lewis St.,Geneva,NY,14456,Mitch Gruber,5853283380,,Friday 11am-11:45am,July-November,Y,M,42.87091,-76.9846,N,Y,Y,"(42.87091, -76.9846)"
Ontario,Curbside Market-Rotating,Contact Foodlink for more information,24 Park Place,Geneva,NY,14456,Mitch Gruber,5853283380,http://www.foodlinkny.org,By Request,July 7 - November 28,N,M,42.86471,-76.98491,N,Y,Y,"(42.86471, -76.98491)"
Ontario,Curbside Market-Spa Apartments,11 East Main St. Clifton Springs,11 East Main St.,Clifton Springs,NY,14432,Mitch Gruber,5853283380,,Tuesday 10:45am-11:15am,July-November,Y,M,42.96143,-77.13613,N,Y,Y,"(42.96143, -77.13613)"
Ontario,Geneva Farmers' Market,Municipal parking lot Exchange St.,400 Exchange St,Geneva,NY,14456,Marie Milligan,3157897811,http://localharvest.org/genevafarmersmarket,Thursday  7am-1:30pm,June 9-October 20,Y,M,42.8691,-76.98096,N,N,Y,"(42.8691, -76.98096)"
Ontario,Victor Farmers' Market,Village Hall Parking Lot 60 East Main St.,60 East Main St,Victor,NY,14564,Amber Reifsteck,5859243311,https://www.facebook.com/VictorFarmersMarket,Wednesday  3pm-7pm,June 1-October 26,Y,M,42.98134,-77.40859,N,N,Y,"(42.98134, -77.40859)"
Ontario,West Bloomfield Farmers' Market,West Bloomfield United Church of Christ,9035 State Route 5,West Bloomfield,NY,14580,TBA TBA,5184576880,,Friday  3pm-7pm,June 10-October 14,N,M,42.90581,-77.53785,N,N,Y,"(42.90581, -77.53785)"
Orange,Cornwall Farmers' Market,Town Hall 183 Main St.,183 Main St,Cornwall,NY,12518,Carrie Sabins,8457755574,https://www.facebook.com/townofcornwallfarmersmarket/,Wednesday  12pm-6pm,June 1-Oct 26,N,M,41.438985,-74.028493,N,N,Y,"(41.438985, -74.028493)"
Orange,Cornwall WINTER Farmers' Market,Cornwall Senior Center 40 Munger Dr,395 Hudson St. (address for library-ctr is behind library),Cornwall,NY,12518,Carrie Sabins,8457755574,,1st & 3rd Sat  10am-2pm,November-April,N,M/X/W/P,41.441816,-74.02609,N,N,Y,"(41.441816, -74.02609)"
Orange,Downing Park Farmers' Market,Downing Park South St. & 9W Newburgh,South St. and 9W,Newburgh,NY,12550,Karen McCarthy,8455655229,http://www.downingpark.org,Friday  10am-3pm,July 8-October 28,Y,M,41.50755,-74.0205,N,Y,Y,"(41.50755, -74.0205)"
Orange,Florida Farmers' Market,North Main St across from Dollar Tree,133 N Main Street,Florida,NY,10921,Lisa Bell,8457722662,http://warwickinfo.net/floridafarmersmarket/,Tuesday  10am-4pm,June 14-October 25,Y,M,41.33775,-74.35873,N,N,Y,"(41.33775, -74.35873)"
Orange,Goshen Farmers' Market,Village Park S. Church St. & Rt. 207,Main St and Church St,Goshen,NY,10924,Terri Smallin,8452947741,https://www.facebook.com/Goshen-Farmers-Market-120704554614696/,Friday  10am-5pm,May 20-October 28,Y,P/M,41.40219,-74.32408,N,N,Y,"(41.40219, -74.32408)"
Orange,Healthy Orange Farmers' Market,"130 Broadway (lawn next to DMV bldg), btwn Johnston & Landers St. Newburgh",131 Broadway,Newburgh,NY,12550,Meg Oakes,8453606691,,Tuesday  10am-2pm,July 5-October 25,Y,M,41.50009,-74.01254,Y,Y,Y,"(41.50009, -74.01254)"
Orange,JADS Farm Stand,641 County Route 1 Pine Island,641 County Route 1,Pine Island,NY,19069,Kristie Madura,8452581102,http://www.johndmadurafarms.com,Daily  9am-6pm,April 1-December 24,Y,P/M/X,41.29626,-74.46234,N,N,Y,"(41.29626, -74.46234)"
Orange,Middletown Farmers' Market,Erie Way btwn Montgomery & Cottage Sts.,32-48 Cottage Street,Middletown,NY,10940,Anne Kelly,8453438075,http://www.middletownbid.org,Saturday  8am-1pm,June 4-October 29,Y,M,41.44814,-74.41459,N,N,Y,"(41.44814, -74.41459)"
Orange,Monroe Museum Village Farmers' Market,1010 Rt. 17M Museum Village parking lot,1010 State Route 17M,Monroe,NY,10950,John Lupinski,8452945557,,Wednesday  9am-3pm,June 8-October 26,Y,M,41.344,-74.19742,N,N,Y,"(41.344, -74.19742)"
Orange,Municipal Square Farmers' Market,One Municipal Square  Walden,5 Scofield St,Walden,NY,12586,Kerri-Ann Lynch,8454766241,http://www.villageofwalden.org,Thursday  2pm-7pm,June 2-October 13,Y,M,41.55983,-74.1895,N,Y,Y,"(41.55983, -74.1895)"
Orange,Newburgh Mall Farmers' Market,Newburgh Mall Parking lot  1401 Route 300,1401 Route 300,Newburgh,NY,12550,Katie Levato,8455641400,http://www.newburghmall.com,Saturday  10am-2pm,July 16-October 15,Y,M,41.51758,-74.0714,N,N,Y,"(41.51758, -74.0714)"
Orange,Pine Bush Farmers' Market,behind Crawford Cultural Center New & Main Streets,New and Main Streets,Pine Bush,NY,12566,Liana Hoodes,9144435759,http://www.pinebushfarmersmarket.com,Saturday  9am-2pm,May 28-October 15,Y,P/M,41.60918,-74.3005,N,N,Y,"(41.60918, -74.3005)"
Orange,Sycamore Farms Farm Stand,1887 Route 211 East in Middletown,1887 Route 211 East,Middletown,NY,10941,Kevin & Susan Smith,8453411224,http://www.sycamorefarmsny.com,Tues-Sun  9am-6pm,June 3-October 30,Y,M,41.48505,-74.29294,N,N,Y,"(41.48505, -74.29294)"
Orange,Tuxedo Farmers' Market,Tuxedo Park Train Station lot 240 Rt. 17,240 State Route 17,Tuxedo,NY,10987,Christina Tremblay,8453231460,http://www.tuxedofarmersmarket.com,Saturday  9am-2pm,June 18-November 19,Y,M,41.19447,-74.18447,N,N,Y,"(41.19447, -74.18447)"
Orange,Tuxedo WINTER Farmers' Market,"Tuxedo Train Station lot indoor, 240 Rt. 17",240 New York 17,Tuxedo Park,NY,10987,Christina Tremblay,8453231460,,2nd Saturday  10am-2pm,December-April,N,X/W/P,41.194475,-74.184519,N,N,Y,"(41.194475, -74.184519)"
Orange,Village of Monroe Farmers' Market,Park & Ride Commuter Lot Millpond Parkway,68 Millpond Pkwy,Monroe,NY,10950,Irene Conklin,8452389050,,Sunday  9am-2pm,June 5-November 13,Y,M,41.32983,-74.189196,N,N,Y,"(41.32983, -74.189196)"
Orange,Warwick Valley Farmers' Market,"South St. parking lot, Municipal lot 1 block east of Main St.",South St and Bank St,Warwick,NY,10990,Penny Steyer,8459860043,http://www.warwickvalleyfarmersmarket.org,Sunday  9am-2pm,May 8-November 20,Y,P/M,41.25656,-74.35858,Y,Y,Y,"(41.25656, -74.35858)"
Orleans,Canal Village Farmers' Market,127 W Center St. Medina,127 W Center St.,Medina,NY,14103,Gail Miller,5857983904,http://www.bentshall.org/market,"Saturday  9am-1pm, June-September  8am-1pm",Year-round,Y,YR,43.220217,-78.38851,N,N,Y,"(43.220217, -78.38851)"
Orleans,Curbside Market-Ricky's Place,"Maple Ridge Estates, 200 Ricky Pl. Medina",200 Ricky Pl.,Medina,NY,14103,Mitch Gruber,5853283380,,Wednesday 10am-10:30am,July-November,Y,M,43.20801,-78.38317,N,Y,Y,"(43.20801, -78.38317)"
Orleans,Curbside Market-The Main Street Store,"131 south Main Street, Albion",131 south Main Street,Albion,NY,14411,Mitch Gruber,5853283380,http://www.foodlinkny.org,Wednesday 11:30am-12:!5pm,July-Novmeber,Y,M,43.24344,-78.19381,N,Y,Y,"(43.24344, -78.19381)"
Orleans,Kirbys Cider Mill Farm Stand,"3461 Butts Road Albion, Albion",3461 Butts Road Albion,Albion,NY,14411,Douglas and Karen Kirby,5855897370,https://www.facebook.com/Kirbys-Cider-Mill-163939397096547/,Roadside Stand,Seasonal,N,P/M,43.24953,-78.16592,N,N,Y,"(43.24953, -78.16592)"
Orleans,Partyka Farms Farm Stand,1420 County Line Rd. Kendall,1420 County Line Rd.,Kendall,NY,14470,Lora Partyka,5857520258,http://www.partykafarms.com,Daily,April 13-December 31,Y,P/M/X,43.29811,-77.99548,N,N,Y,"(43.29811, -77.99548)"
Orleans,Roberts Farm Market,11170 Maple Ridge Rd. Medina,11170 Maple Ridge Rd.,Medina,NY,14103,Margaret Robert,7165601200,http://www.robertsfarmmarket.com,Mon-Sat  9am-6pm,Year-round,Y,YR,43.20679,-78.40098,N,N,Y,"(43.20679, -78.40098)"
Orleans,Watt Farms Country Market,3121 Oak Orchard Rd. Albion,3121 Oak Orchard Rd,Albion,NY,14411,Karen Watt,5855898000,http://www.wattfarms.com,Fri/Sat/Sun/Mon  9am-7pm,May 1-December 24,Y,P/M/X,43.265158,-78.192266,N,N,Y,"(43.265158, -78.192266)"
Oswego,Fulton Farmers' Market,"Canalview Mall parking lot, South Second St. (Rt. 481)",South Second St and Canalview Mall,Fulton,NY,13069,Danielle Hayden,3153437681,,Saturday  8am-12pm,May 28-October 22,Y,P/M,43.32321,-76.41577,Y,Y,Y,"(43.32321, -76.41577)"
Oswego,Godfrey's Last Stand Farm Stand,"1232 State Route 264 , Phoenix",1232 State Route 264,Phoenix,NY,13135,Roberta Godfrey,3155937291,,"Mon-Fri  9am-7pm, Sat-Sun  9am-6pm",Year-round,Y,YR,43.31155,-76.29001,N,Y,Y,"(43.31155, -76.29001)"
Oswego,Hillside Antique & Farmers' Market,"7753 State Route 3 (Seaway Trail), Pulaski",7753 State Route 3,Pulaski,NY,13142,Dennis Palmer,6316031650,http://www.hillsidefleamarkets.com,"Friday  10am-4pm (July-August), Sat/Sun  9am-5pm",May 1-September 25,N,P/M,43.58759,-76.17348,N,N,Y,"(43.58759, -76.17348)"
Oswego,Oswego Farmers' Market,West First St. btwn Bridge & W. Oneida St.,West Bridge St and West 1st St,Oswego,NY,13126,Danielle Hayden,3153437681,,Thursday  4:30pm-8pm,May 26-October 6,Y,P/M,43.45656,-76.51127,Y,Y,Y,"(43.45656, -76.51127)"
Oswego,Pulaski Farmers' Market,South Park Main St.,Lake St and Broad St,Pulaski,NY,13142,Brian Leary,3155589976,http://www.pulaskifarmersmarket.com,Friday  4pm-8pm,June 3-September 30,Y,M,43.56714,-76.12813,N,N,Y,"(43.56714, -76.12813)"
Otsego,Cooperstown Farmers' Market,101 Main St. in Pioneer Alley,101 Main St,Cooperstown,NY,13326,Shannon Kirch,6075476195,http://www.cooperstownfarmersmarket.org,"Sat  9am-2pm, Jan-Apr  10am-2pm",Year-round,Y,YR,42.70001,-74.92526,N,Y,Y,"(42.70001, -74.92526)"
Otsego,Morris Farmers' Market,"Guy Rathbon Park Main St., behind Firehouse",Main St and Church St,Morris,NY,13808,Paul Tourtellotte,6072635423,,Thursday  3pm-6pm,May 26-October 13,Y,P/M,42.54813,-75.24686,N,N,Y,"(42.54813, -75.24686)"
Otsego,Oneonta Farmers' Market,Muller Plaza 205 Main St. (Rt. 7),202 Main Street,Oneonta,NY,13820,Betty Lee,6072671807,http://www.oneontafarmersmarket.org,Saturday  9am-1pm,May 7-October 29,Y,P/M,42.454,-75.06185,N,N,Y,"(42.454, -75.06185)"
Otsego,Richfield Springs Area Farmers' Market,"Spring Park Main St. (Rt. 20), across from Post Office",Main St and Church St,Richfield Springs,NY,13439,Ronald Bayzon,3158582703,,"Thursday  2pm-6pm, Saturday  8am-1pm",June 18-October 29,Y,M,42.85359,-74.98476,N,N,Y,"(42.85359, -74.98476)"
Putnam,Brewster Farmers' Market,98 Oak Street,98 Oak Street,Brewster,NY,10509,Jenny Hinsman,8452797927,http://www.brewsterfarmersmarket.com,Sat/Wed  9am-2pm,June 11-November 19,Y,M,41.39616,-73.61259,N,N,Y,"(41.39616, -73.61259)"
Putnam,Cold Spring Farmers' Market,Boscobel House & Gardens  1601 Rt 9D Garrison,1601 State Route 9D,Garrison,NY,10516,Zoe Markwalter,8452654774,http://www.csfarmmarket.org,Saturday  8:30am-1:30pm,May 7-October 30,Y,P/M,41.41403,-73.93809,Y,Y,Y,"(41.41403, -73.93809)"
Putnam,Cold Spring WINTER Farmers' Market,"St. Mary's Church Parish Hall, 1 Chestnut Street",1 Chestnut St,Cold Spring,NY,10516,Zoe Markwalter,8452654774,http://www.csfarmmarket.org,Saturday  9:30am-1:30pm,November 1-April 30,N,M/X/W/P,41.419897,-73.954688,Y,Y,Y,"(41.419897, -73.954688)"
Putnam,Hudson Valley Regional Farmers' Market,15 Mt Ebo Rd South Brewster,15 Mt Ebo Drive,Brewster,NY,10509,Melissa Kamin,8456292824,http://www.hudsonvalleyfarmersmarket.org,Sunday  10am-2pm,Year-round,Y,YR,41.43643,-73.57217,N,N,Y,"(41.43643, -73.57217)"
Putnam,Ryder Farm Cottage Farm Stand,"400 Starr Ridge Road, Brewster",400 Starr Ridge Road,Brewster,NY,10509,Elizabeth Ryder,8452794161,http://www.ryderfarmorganic.com,Daily,Spring-Fall,N,P/M,41.36527,-73.59472,N,N,Y,"(41.36527, -73.59472)"
Queens,Astoria Greenmarket,14th St.  btwn 31st Ave. & 31st Rd.,14th St and 31st Ave,Astoria,NY,11106,Chelsea Whittaker,2127887476,http://www.grownyc.org/greenmarket,Wednesday  8am-3pm,July 6-November 16,Y,M,40.76825,-73.93203,N,Y,Y,"(40.76825, -73.93203)"
Queens,Corona Greenmarket,Roosevelt Ave. btwn 103rd & 104th Sts.,Roosevelt Ave and 103rd St,Corona,NY,11368,Chelsea Whittaker,2127887476,http://www.grownyc.org/greenmarket,Friday  8am-3pm,July 8-November 18,Y,M,40.74994,-73.86221,N,Y,Y,"(40.74994, -73.86221)"
Queens,Culinary Kids Farm Rockaway Farmers' Market,444 Beach 58th St. & Beach Channel Dr.,444 58th Street,Queens,NY,11692,Malisa Rivera,3473210423,http://www.culinarykidsdaycamp.org,Sat/Sun  11am-4pm,June-August,Y,M,40.59446,-73.78804,N,Y,Y,"(40.59446, -73.78804)"
Queens,Culinary Kids Farmers' Market,30-15 Seagirt Blvd. & Beach 31 St. Far Rockaway,Seagirt Blvd and Beach 31st St,Far Rockaway,NY,11691,Malisa Rivera,3473210423,http://www.culinarykidsdaycamp.org,Saturday  10am-3pm,June 11-September 24,Y,M,40.59581,-73.76384,N,Y,Y,"(40.59581, -73.76384)"
Queens,Ditmars Park Youthmarket,Ditmars Park on Steinway St.,22-00 Steinway St.,Queens,NY,11105,Kori Petrovic,2127887476,http://www.grownyc/youthmarket,Saturday  9am-4pm,July 9-November 19,Y,M,40.77165,-73.90699,N,N,Y,"(40.77165, -73.90699)"
Queens,Edgemere Farm Stand,385 Beach 45th St. Far Rockaway,385 Beach 45th Street,Queens,NY,11691,Heidi Woolever,9177555609,http://www.edgemerefarm.org,Saturday  9am-1pm,May 7-October 29,Y,P/M,40.59536,-73.77654,N,Y,Y,"(40.59536, -73.77654)"
Queens,Elmhurst Hospital Greenmarket,41st Ave. btwn 80th & 81st Sts.,41st Ave and 80th St,Elmhurst,NY,11373,Chelsea Whittaker,2127887476,http://www.grownyc.org,Tuesday  8am-4pm,June 7-November 22,Y,M,40.7458,-73.88548,N,Y,Y,"(40.7458, -73.88548)"
Queens,Far Rock Farm Stand,Beach 45th St. & Beach Channel Drive,385 Beach 45th Street,Far Rockaway,NY,11691,Jenny Marks,9143305191,http://bedstuyagainsthunger.org,Saturday  10am-2pm,June 18-November 19,Y,M,40.595287,-73.776572,N,N,Y,"(40.595287, -73.776572)"
Queens,Forest Hills Greenmarket,Queens Blvd. at 70th Ave. near Post Office,106-28 Queens Blvd.,Queens,NY,11375,Chelsea Whittaker,2127887476,http://www.grownyc.org/greenmarket,Sunday  8am-3pm,Year-round,Y,YR,40.72193,-73.84676,N,Y,Y,"(40.72193, -73.84676)"
Queens,Harvest Home City Line Farmers' Market,Drew St. btwn 101st & Liberty Aves. Jamaica,Liberty Ave and 101st Ave,Brooklyn,NY,11208,Maritza Owens,2128283361,http://www.harvesthomefm.org,Saturday  8am-4pm,July 9-November 19,Y,M,40.67922,-73.86376,N,Y,Y,"(40.67922, -73.86376)"
Queens,Jackson Heights Greenmarket,34th Ave. at 78th St,34th Ave and 78th St,Jackson Heights,NY,11372,Chelsea Whittaker,2127887476,http://www.grownyc.org/greenmarket,Sunday  8am-3pm,Year-round,Y,YR,40.75334,-73.88876,N,Y,Y,"(40.75334, -73.88876)"
Queens,Jamaica Friday Farmers' Market,Parson's Blvd between Archer & Jamaica Ave.,160th St and Jamaica Ave,Jamaica,NY,11432,Emily Grayson,9149234837,http://www.downtoearthmarkets.com,Friday  8:30am-4pm,June 17-November 18,Y,M,40.70374,-73.79914,N,Y,Y,"(40.70374, -73.79914)"
Queens,Jamaica Saturday Farmers' Market,160th St. off Jamaica Ave.,160th Street and Jamaica Avenue,Queens,NY,11432,Emily Grayson,9149234837,http://www.downtoearthmarkets.com,Saturday  8:30am-4pm,June 18-November 19,Y,M,40.70374,-73.79914,N,Y,Y,"(40.70374, -73.79914)"
Queens,Joseph Addabbo FHC Farmers' Market,6200 Beach Channel Dr. parking lot Arverne,6200 Beach Channel Dr,Arverne,NY,11692,Viviana Fajardo,7189457150,http://www.addabbo.org,Saturday  8am-2pm,July 9-November 19,Y,M,40.59322,-73.79174,N,N,Y,"(40.59322, -73.79174)"
Queens,Pomonok Community Farmers' Market,"67-09 Kissena Blvd. Flushing, Btwn Melbourne & 65 Aves.",67-09 Kissena Blvd,Flushing,NY,11365,Brendan Frodell,7185916060,http://www.facebook.com/QCHFarmersMarket,Wednesday  9am-6pm,June-November 30,Y,M,40.73513,-73.8141,N,Y,Y,"(40.73513, -73.8141)"
Queens,Queens Botanical Garden Farmers' Market,sidewalk outside Garden Dahlia Ave. at Main St.,Main St and Dahlia Ave,Flushing,NY,11355,Emily Grayson,9149234837,http://www.downtoearthmarkets.com,Friday  8:30am-4pm,June 17-November 18,Y,M,40.75186,-73.82636,N,Y,Y,"(40.75186, -73.82636)"
Queens,Queens County Farm Museum Farm Stand,73-50 Little Neck Pkway Floral Park,73-50 Little Neck Parkway,Queens,NY,11004,Deborah Greig,7183473276,http://www.queensfarm.org,"Wed-Fri  11am-3pm, Sat/Sun  11am-5pm",May 18-November 6,Y,M,40.74818,-73.72124,N,Y,Y,"(40.74818, -73.72124)"
Queens,Queens Hospital Center Farmers' Market,82-68 164th St. Jamaica,82-68 164th St,Jamaica,NY,11432,Sandra Springer,7188832576,,Thursday  8am-4pm,July 14-November 17,Y,M,40.71753,-73.80373,N,N,Y,"(40.71753, -73.80373)"
Queens,Queens Hospital Center Farmers' Market II,114-02 Guy R Brewer Blvd. Jamaica,114-02 Guy R Brewer Blvd,Queens,NY,11434,Sandra Springer,7188832576,,Thursday  8am-4pm,July 14-November 17,Y,M,40.68851,-73.78588,N,N,Y,"(40.68851, -73.78588)"
Queens,Ridgewood Youthmarket,Cypress Ave. btwn Myrtle & Putnam Aves.,Myrtle Ave and Cypress Ave,Ridgewood,NY,11385,Kori Petrovic,2127887476,http://www.grownyc.org/youthmarket,Saturday  8am-4pm,July 9-November 19,Y,M,40.70011,-73.90619,N,Y,Y,"(40.70011, -73.90619)"
Queens,Rockaway Youthmarket,Beach 58th St. & Beach Channel Drive,58-00 Beach Channel Drive,Arverne,NY,11692,Kori Petrovic,2127887476,http://www.grownyc.org/youthmarket,Saturday  9am-3pm,July 9-November 19,Y,M,40.59454,-73.78811,N,Y,Y,"(40.59454, -73.78811)"
Queens,Socrates Sculpture Park Greenmarket,Vernon Blvd. & Broadway inside park,Vernon Blvd and Broadway,Astoria,NY,11106,Chelsea Whittaker,2127887476,http://www.grownyc.org/greenmarket,Saturday  8am-4pm,June 4-November 19,Y,M,40.76769,-73.93618,N,Y,Y,"(40.76769, -73.93618)"
Queens,Sunnyside Greenmarket,Skillman Ave. btwn 42 & 43rd Sts.,Skillman Ave and 42nd St,Sunnyside,NY,11104,Chelsea Whittaker,2127887476,http://www.grownyc.org/greenmarket,Saturday  8am-3pm,Year-round,Y,YR,40.74694,-73.92139,N,Y,Y,"(40.74694, -73.92139)"
Rensselaer,Brunswick Farmers' Market,"Brunswick Community Center, 18 Keyes Lane",18 Keyes Lane,Brunswick,NY,12180,Sheila Hyde,5182793461,http://www.townofbrunswick.org,Tuesday 5pm-8pm,June 21-August 23,N,M,42.75296,-73.61916,N,N,Y,"(42.75296, -73.61916)"
Rensselaer,Capital Roots Produce Market,594 River Street Troy,594 River Street,Troy,NY,12180,Liz Boyer,5182748685,http://www.capitalroots.org,Mon-Fri  9:30am-4:30pm,Year-round,Y,YR,42.74208,-73.68525,Y,Y,Y,"(42.74208, -73.68525)"
Rensselaer,East Greenbush Farmers' Market,"East Greenbush Library, 10-20 Community Way",10 Community Way,East Greenbush,NY,12061,JoAnn Jakiela,5184777476,http://www.eastgreenbushlibrary.org,Wednesday  4pm-7pm,June 15-October 5,Y,M,42.619083,-73.695351,N,N,Y,"(42.619083, -73.695351)"
Rensselaer,Farm to Preschool IV Farmers' Market,"Lansingburgh Family Resource Center, 754 4th Ave. Troy",754 4th Ave,Troy,NY,12182,Darlene Yule,5184267181,http://www.cdcccc.org,Wednesday  1:30pm-4:30pm,June 15-September 28,Y,M,42.78096,-73.67137,Y,Y,Y,"(42.78096, -73.67137)"
Rensselaer,Krugs Brookside Farm Stand,2302 East Schodack Rd. East Schodack,2302 East Schodack Rd.,East Schodack,NY,12063,Elizabeth Krug,5184777593,,"Tue-Fri  9am-7pm , Saturday  9am-5pm, Sun-Mon  9am-4pm",April 1-December 31,Y,P/M/X,42.561548,-73.640533,N,Y,Y,"(42.561548, -73.640533)"
Rensselaer,North Greenbush Farmers' Market,Twin Town Little League Park  Williams Rd.,95 Williams Rd,North Greenbush,NY,12180,Kathryn Conolly,5182834306,http://www.townofng.com,Thursday  2:30pm-6pm,June 9-September 8,Y,M,42.69013,-73.67672,N,N,Y,"(42.69013, -73.67672)"
Rensselaer,Troy Waterfront Farmers' Market,"Monument Square, 282 River Street Downtown Troy",282 River St,Troy,NY,12180,Liz Hammond,5187084216,http://www.troymarket.org,Saturday  9am-2pm,May 7-October 29,Y,P/M,42.73214,-73.6905,Y,Y,Y,"(42.73214, -73.6905)"
Rensselaer,Troy Waterfront WINTER Farmers' Market,"Uncle Sam Atrium, Downtown Troy, 49 4th Street",49 4th Street,Troy,NY,12180,Liz Hammond,5187084216,http://www.troymarket.org,Saturday  9am-2pm,November 1-April 30,N,X/W/P,42.73196,-73.68893,Y,Y,Y,"(42.73196, -73.68893)"
Rensselaer,Veggie Mobile Sprout-Barker Park,Corner 3rd & State St. Troy,3rd and State St.,Troy,NY,12180,Audrey Bridge,5182748685,http://www.capitalroots.org,Tue 11:30am-12pm,Year-round,Y,YR,42.73006,-73.69055,Y,Y,Y,"(42.73006, -73.69055)"
Rensselaer,Veggie Mobile Sprout-Blooming Grove Sr Housing,105 Bloomingrove Dr. Troy,105 Bloomingrove Drive,Troy,NY,12180,Audrey Bridge,5182748685,http://www.capitalroots.org,Tue 12:30pm-1pm,Year-round,Y,YR,42.68802,-73.68097,Y,Y,Y,"(42.68802, -73.68097)"
Rensselaer,Veggie Mobile Sprout-Burns Apts,720 Federal St. Troy,720 Federal Street,Troy,NY,12180,Audrey Bridge,5182748685,http://www.capitalroots.org,Thu  12:30pm-1:15pm,Year-round,Y,YR,42.733148,-73.684555,Y,Y,Y,"(42.733148, -73.684555)"
Rensselaer,Veggie Mobile Sprout-Church of the Redeemer,1249 3rd Street,1249 3rd Street,Rensselaer,NY,12180,Audrey Bridge,5182748685,http://www.capitalroots.org,Thu 3pm-3:45pm,Year-round,Y,YR,42.65038,-73.73443,Y,Y,Y,"(42.65038, -73.73443)"
Rensselaer,Veggie Mobile Sprout-Edward A. Kane Apts,115th Street & 2nd Ave,5 115th Street,Rensselaer,NY,12182,Audrey Bridge,5182748685,http://www.capitalroots.org,Tue 11am-11:30am,Year-round,Y,YR,42.7748,-73.67761,Y,Y,Y,"(42.7748, -73.67761)"
Rensselaer,Veggie Mobile Sprout-Lansingburgh Apts,41 114th Street Troy,41 114th Street,Troy,NY,12182,Audrey Bridge,5182748685,http://www.capitalroots.org,Wed 2:30pm-3:15pm,Year-round,Y,YR,42.77277,-73.67227,Y,Y,Y,"(42.77277, -73.67227)"
Rensselaer,Veggie Mobile Sprout-Mayor John Warden Apts,85 Aiken Ave,85 Aiken Ave,Rensselaer,NY,12144,Audrey Bridge,5182748685,http://www.capitalroots.org,Tue 2:15pm-3pm,Year-round,Y,YR,42.63326,-73.73991,Y,Y,Y,"(42.63326, -73.73991)"
Rensselaer,Veggie Mobile Sprout-O'Neil Apts,2121 6th Ave. Troy,2121 6th Ave.,Troy,NY,12180,Audrey Bridge,5182748685,http://www.capitalroots.org,Wed 3:30-4:15pm,Year-round,Y,YR,42.73436,-73.68587,Y,Y,Y,"(42.73436, -73.68587)"
Rensselaer,Veggie Mobile Sprout-Patroons  Dorp,Fowler Ave. & First St.,fowler ave and first street,Rensselaer,NY,12144,Audrey Bridge,5182748685,http://www.capitalroots.org,Tue 3:15pm-4pm,Year-round,Y,YR,42.65482,-73.73432,Y,Y,Y,"(42.65482, -73.73432)"
Rensselaer,Veggie Mobile Sprout-Public Library Sr. Ctr,1501 Broadway,1501 Broadway,Rensselaer,NY,12144,Audrey Bridge,5182748685,http://www.capitalroots.org,Thu 2pm-2:45pm,Year-round,Y,YR,42.65514,-73.73516,Y,Y,Y,"(42.65514, -73.73516)"
Rensselaer,Veggie Mobile-Kennedy Towers Apts,2100 6th Ave. Troy,2100 6th Avenue,Troy,NY,12180,Audrey Bridge,5182748685,http://www.capitalroots.org,Thu 2:45pm-3:45pm,Year-round,Y,YR,42.73471,-73.68416,Y,Y,Y,"(42.73471, -73.68416)"
Rensselaer,Veggie Mobile-Renwyck Place,18 4th Ave. Rensselaer,18 4th Ave,Troy,NY,12180,Audrey Bridge,5182748685,http://www.capitalroots.org,Thu 11:30am-12pm,Year-round,Y,YR,42.73315,-73.68824,Y,Y,Y,"(42.73315, -73.68824)"
Rensselaer,Veggie Mobile-Van Rensselaer Heights,460 Forbes Ave. Rensselaer,460 Forbes Avenue,Rensselaer,NY,12144,Audrey Bridge,5182748685,http://www.capitalroots.org,Thu 10:45am-11:15am,Year-round,Y,YR,42.65924,-73.72879,Y,Y,Y,"(42.65924, -73.72879)"
Richmond,Saint George Greenmarket,St. Mark's Place & Hyatt St.,St Marks Pl and Hyatt St,Staten Island,NY,10301,Chelsea Whittaker,2127887476,http://www.grownyc.org/greenmarket,Saturday  8am-2pm,Year-round,Y,YR,40.64159,-74.07791,N,Y,Y,"(40.64159, -74.07791)"
Richmond,Staten Island Mall Greenmarket,Marsh Ave. & Ring Rd. Commuter Lot,2655 Richmond Ave,Staten Island,NY,10314,Chelsea Whittaker,2127887476,http://www.grownyc.org/greenmarket,Saturday  8am-3pm,June 4-November 19,Y,M,40.58199,-74.16607,N,Y,Y,"(40.58199, -74.16607)"
Rockland,Haverstraw Farmers' Market,Haverstraw Village Hall  40 New Main St,New Main St and Maple Ave,Haverstraw,NY,10927,Mariely Urena,8454290300,,Sunday  9am-1pm,June 12-October 9,Y,M,41.19639,-73.96645,N,Y,Y,"(41.19639, -73.96645)"
Rockland,Nyack Farmers' Market,Main St. Municipal Parking Lot,Main St and Franklin St,Nyack,NY,10960,Pam Moskowitz,8453532221,http://www.nyackchamber.org,Thursday  8am-2pm,April 7-November 23,Y,P/M,41.09154,-73.9216,Y,Y,Y,"(41.09154, -73.9216)"
Rockland,Nyack WINTER Farmers' Market,Nyack Center 58 Depew Ave.,"58 Depew Ave,, NY",Nyack,NY,10960,Pam Moskowitz,8453532221,http://www.nyackchamber.org,Thursday  8am-2pm,December 1-March 30,N,X/W,41.089496,-73.919311,N,Y,Y,"(41.089496, -73.919311)"
Rockland,Palisades Indoor WINTER Farmers' Market,"Palisades Community Center, 675 Oak Tree Rd",675 Oak Tree Rd,Palisades,NY,10964,Carol Baxter,8453593988,http://www.palisadesfm.org,Saturday  9am-1pm,January 14-May 20,N,W/P,41.011524,-73.917671,N,N,Y,"(41.011524, -73.917671)"
Rockland,Piermont Farmers' Market,M & T Bank lot Ash St. & Piermont Ave.,Ash St and Piermont Ave,Piermont,NY,10968,Frankie Rowland,9149234837,http://www.downtoearthmarkets.com,Sunday  9:30am-3pm,May 22-November 20,Y,P/M,41.04136,-73.91642,N,N,Y,"(41.04136, -73.91642)"
Rockland,Ramapo Farmers' Market,Eugene Levy Park 920 Route 45,New York 45 and North Side Plaza,Pomona,NY,10970,Michelle Antosca,8453576100,http://www.ramapoparks.org,Sunday  9am-4pm,July 10-October 9,Y,M,41.1636,-74.03411,N,N,Y,"(41.1636, -74.03411)"
Rockland,Spring Valley Farmers' Market,West Church St. & Route 45 (N. Main St.),32 N. Main Street,Spring Valley,NY,10977,Alexandr Kravets,9173628917,,Wed  8am-3pm,June 29-November 30,Y,M,41.113281,-74.044617,N,Y,Y,"(41.113281, -74.044617)"
Rockland,Suffern Farmers' Market,"Commuter Center parking lot A, Lafayette & Orange Aves.",Orange Ave & Lafayette Ave,Suffern,NY,10901,Cara Cea,8453572378,http://www.suffernfarmersmarket.wordpress.com,Saturday  8:30am-1pm,May 7-October 29,Y,M,41.11636,-74.154625,N,Y,Y,"(41.11636, -74.154625)"
Rockland,West Haverstraw Farmers' Market,Village Hall 40 New Main St. & Maple Ave,40 New Main Street,West Haverstraw,NY,10927,Catherine Kopf,8459472800,http://www.voh-ny.com/farmers.htm,Sunday 9am-1pm,June -October,N,M,41.19644,-73.96592,N,N,Y,"(41.19644, -73.96592)"
Saratoga,Arnold's Farm Fresh Produce Farm Stand,"1319 Sacandaga Rd., West Charlton",1319 Sacandaga Rd,West Charlton,NY,12010,Jason Arnold,5182699562,http://www.arnoldsproduce.com,"Sun-Thu  10am-6pm, Fri/Sat  9am-7pm",June 1-October 31,Y,M,42.97177,-74.02945,N,N,Y,"(42.97177, -74.02945)"
Saratoga,Ballston Spa Farmers' Market,"Wiswall Park, Front & Low Sts.",Front St and Low St,Ballston Spa,NY,12020,Ellen Mottola,5188852772,http://www.ballston.org,"Saturday  9am-12pm, Thursday  3pm-6pm",June 9-October 8,Y,M,43.00256,-73.84964,N,N,Y,"(43.00256, -73.84964)"
Saratoga,Clifton Park Farmers' Market,St. George's Church 912 Rt. 146 at Maxwell Drive,912 State Route 146,Clifton Park,NY,12065,Justine Denison,5186642510,http://www.saratogafarmersmarket.org,Thursday  2pm-5pm,July 7-October 27,Y,M,42.866,-73.79782,N,N,Y,"(42.866, -73.79782)"
Saratoga,Gansevoort Farmers' Market,Gansevoort Village Park Catherine St.,Main St. at Catherine St.,Gansevoort,NY,12831,Linda Gifford,5187920198,,Thursday  3pm-6pm,June 9-October 27,Y,M,43.19612,-73.65167,N,N,Y,"(43.19612, -73.65167)"
Saratoga,Greenfield Center Farmers' Market,"Middle Grove Park, 428 Middle Grove Rd. Greenfield Center",428 Middle Grove Rd,Middle Grove,NY,12850,Himanee Gupta-Carlson,5182223191,http://greenfieldhistoricalsociety.com/farmers-market,Friday  4pm-7pm,June 24-September 9,Y,M,43.090317,-73.916441,N,N,Y,"(43.090317, -73.916441)"
Saratoga,Poverty Acres Farm Farm Stand,129 Hop City Rd.  Ballston Spa,129 Hop City Rd.,Ballston Spa,NY,12020,Gaynell Bliss,5189353341,,Daily  9am-5pm,July 15-October,Y,M,42.95105,-73.91653,N,N,Y,"(42.95105, -73.91653)"
Saratoga,Route 50 Green Market,802 Saratoga Rd. Burnt Hills,802 Saratoga Rd.,Burnt Hills,NY,12027,Sarah Emerich,5185738705,,Saturday  9am-1pm,June 11-October 1,Y,M,42.90853,-73.89973,N,N,Y,"(42.90853, -73.89973)"
Saratoga,Saratoga Farmers' Market,High Rock Park on High Rock Avenue,High Rock Ave and York Street,Saratoga Springs,NY,12866,Justine Denison,5186642510,http://www.saratogafarmersmarket.com,"Saturday  9am-1pm, Wednesday  3pm-6pm",May 7-October 29,Y,P/M,43.08552,-73.78121,Y,Y,Y,"(43.08552, -73.78121)"
Saratoga,Saratoga WINTER Farmers' Market,Lincoln Baths bldg Saratoga Spa State Park,65 South Broadway,Saratoga,NY,12866,Phyllis Underwood,5184577076,http://www.saratogafarmersmarket.org/saratoga-farmers-market/,Saturday  9am-1pm,November 5 - April 29,N,M/X/W/P,43.06464,-73.79044,Y,Y,Y,"(43.06464, -73.79044)"
Saratoga,South Glens Falls Farmers' Market,Village Park 5th St.,64 Spring St,South Glens Falls,NY,12803,Linda Gifford,5187920198,,Monday  10am-1pm,June 6-October 24,Y,M,43.30035,-73.63221,N,N,Y,"(43.30035, -73.63221)"
Saratoga,Spa City Sunday Farmers' Market,"Lincoln Bath House Building , Saratoga Spa State Park",65 South Broadway,Saratoga Springs,NY,12866,Colleen Zorbas,5183390958,http://www.spacityfarmersmarket.com,"Sundays  10am-2pm, May-Oct  10am-3pm",Year-round,N,YR,43.06474,-73.78876,N,N,Y,"(43.06474, -73.78876)"
Saratoga,Town of Galway Farmers' Market,"Pavilion at Town playing fields, 5078 Sacandaga Rd. Route 147",5078 Sacandaga Road,Galway,NY,12074,Amanda McBrady Watrobski,5182212277,http://www.galwayfarmersmarket.org,Friday  3pm-6pm,June 17-September 30,Y,M,43.00913,-74.03011,N,N,Y,"(43.00913, -74.03011)"
Schenectady,Farm to Preschool I Farmers' Market,"YWCA NENY, 44 Washington Ave. Schenectady",44 Washington Ave,Schenectady,NY,12305,Darlene Yule,5184267181,http://www.cdcccc.org,Tue.  2:30pm-5:30pm,June 14-September 27,Y,M,42.81645,-73.9492,Y,Y,Y,"(42.81645, -73.9492)"
Schenectady,Farm to Preschool II Farmers' Market,"Parsons Early Learning Center, 125 Bigelow Ave. Schenectady",125 Bigelow Ave,Schenectady,NY,12304,Darlene Yule,5184267181,http://www.cdcccc.org,Thursday  2pm-4:30pm,June 16-September 29,Y,M,42.79534,-73.92505,Y,Y,Y,"(42.79534, -73.92505)"
Schenectady,Roots & Wisdom Youth Market,Corner of Fehr & Central Park Rd. Schenectady,Fehr and Central Park Rd.,Schenectady,NY,12304,Jenny CCE,5183721622,http://cceschenectady.org/agriculture/roots-wisdom,Thursday 3pm-5pm,July-mid August,N,M,42.79346,-73.91424,N,N,Y,"(42.79346, -73.91424)"
Schenectady,Schenectady City Hall Farmers' Market,City Hall 105 Jay St.,Franklin St and Jay St,Schenectady,NY,12305,Steve Feeney,5183862225,http://www.schenectadyfarmersmarket.com,Thursday  9:30am-1:30pm,May 12-November 24,Y,P/M,42.81378,-73.94032,Y,Y,Y,"(42.81378, -73.94032)"
Schenectady,Schenectady Greenmarket,105 Jay St. near City Hall,Franklin St and Jay St,Schenectady,NY,12305,Jennifer Jennings,5189860318,http://www.schenectadygreenmarket.org,Sunday  10am-2pm,May 1-October 30,Y,P/M,42.81372,-73.94015,Y,Y,Y,"(42.81372, -73.94015)"
Schenectady,Schenectady Saint Luke's Farm Stand,St. Luke's Church  1241 State Street,1241 State St,Schenectady,NY,12304,Steve Feeney,5183862225,http://www.schenectadyfarmersmarket.com,Tuesday  10am-1pm,July 5-October 25,Y,M,42.79894,-73.92413,N,N,Y,"(42.79894, -73.92413)"
Schenectady,Schenectady WINTER Greenmarket,"Proctors Theater, 432 State St.",432 State St.,Schenectady,NY,12305,Jennifer Jennings,5189860318,http://www.schenectadygreenmarket.org,Sunday  10am-2pm,November 1-April 24,N,X/W/P,42.812373,-73.941802,Y,Y,Y,"(42.812373, -73.941802)"
Schenectady,Upper Union St. Farmers' Market,1760 Union St. Municipal Parking Lot,1760 Union St,Niskayuna,NY,12309,Al Lansing,5182752570,https://www.facebook.com/UpperUnionStreetFarmersMarket,Saturday  9am-1:30pm,May 7-October 29,Y,P/M,42.8022,-73.8992,N,N,Y,"(42.8022, -73.8992)"
Schenectady,Veggie Mobile-Father Leo Obrien,3151 Marra Ln,3151 Marra Lane,Schenectady,NY,12303,Audrey Bridge,5182748685,http://www.capitalroots.org,Mon 1pm-1:45pm,Year-round,Y,YR,42.76062,-73.94004,Y,Y,Y,"(42.76062, -73.94004)"
Schenectady,Veggie Mobile-Hometown Health Ctr,1044 State St,1044 State Street,Schenectady,NY,12307,Audrey Bridge,5182748685,http://www.capitalroots.org,Mon 2pm-2:45pm,Year-round,Y,YR,42.8014,-73.9278,Y,Y,Y,"(42.8014, -73.9278)"
Schenectady,Veggie Mobile-Summit Towers,720 Albany St. Schenectady,720 Albany street,Schenectady,NY,12307,Audrey Bridge,5182748685,http://www.capitalroots.org,Fri 1:30pm-2pm,Year-round,Y,YR,42.80923,-73.93822,Y,Y,Y,"(42.80923, -73.93822)"
Schenectady,Veggie Mobile-Ten Eyck Apts,375 Broadway Schenectady,375 Broadway,Schenectady,NY,12305,Audrey Bridge,5182748685,http://www.capitalroots.org,Fri 3:15pm-4pm,Year-round,Y,YR,42.80919,-73.94511,Y,Y,Y,"(42.80919, -73.94511)"
Schoharie,Barber Family Farm Farm Stand,"Middleburgh, 3617 State Route 30",3617 State Route 30,Fulton,NY,12122,Cindy Barber,5188275454,http://www.barbersfarm.com,"Daily  9am-5:30pm, Jan-May  Sa/Su 9a-1p",Year-round,Y,YR,42.58123,-74.39189,N,Y,Y,"(42.58123, -74.39189)"
Schoharie,Parsons Vegetable Farm,756 US Highway 20 Sharon Springs,756 US Highway 20,Sharon Springs,NY,13459,Kenyon Parsons,5182842330,,Daily  10am-7pm,July 1-December 25,Y,M/X,42.78332,-74.60004,N,N,Y,"(42.78332, -74.60004)"
Schoharie,Schoharie Co. Festival Farmers' Market,"McCarthy Tire Center parking lot, 942 E. Main Rt. 7E Cobleskill",942 East Main St,Cobleskill,NY,12043,Donna Olsen,5182842609,,"Saturday  10am-2pm , Wed  3pm-5pm",July 9-October 8,Y,M,42.67886,-74.46711,N,Y,Y,"(42.67886, -74.46711)"
Schoharie,Schoharie Valley Farms,"The Carrot Barn, 5605 State Route 30",5605 State Route 30,Schoharie,NY,12157,Jolyn Borst,5182957139,http://www.schoharievalleyfarms.com/,Daily 9am-6pm,March 1-December 24,Y,P/M/X,42.68477,-74.29692,N,N,Y,"(42.68477, -74.29692)"
Schoharie,Sharon Springs Farmers' Market,Main Street across from the Roseboro Hotel,Main Street and Washington Street,Sharon Springs,NY,13459,Kate Miller,5189350940,http://sharonspringschamber.com/sharon-springs-farmers-market-2/,Saturday  9am-1pm,June-September,N,M,42.79545,-74.61721,N,Y,Y,"(42.79545, -74.61721)"
Schuyler,Montour Falls Farmers' Market,300 West Main Street  Montour Falls,300 West Main Street,Montour Falls,NY,14685,Roxanne Leyes,6075357489,https://www.facebook.com/MontourFallsFarmersMarket/,Thursday  4pm-7pm,May 5-October 27,Y,P/M,42.34629,-76.84783,N,N,Y,"(42.34629, -76.84783)"
Schuyler,Watkins Glen Farmers' Market,Lafayette Park 4th St.,Fifth St and Porter St,Watkins Glen,NY,14891,Jylle Benson-Gauss,6072271333,https://www.facebook.com/Watkins-Glen-Farmers-Market-132465933495746/,Friday  3pm-7pm,May 27-October 28,Y,P/M,42.38096,-76.86954,N,Y,Y,"(42.38096, -76.86954)"
Schuyler,Watkins Glen WINTER Farmers' Market,316 E Fourth Street  Watkins Glen,316 East Fourth Street,Watkins Glen,NY,14891,Jylle Benson-Gauss,6072271333,http://www.facebook.com/pages/Watkins-Glen-Farmers-Market/132465933495746,Friday  2:30pm-6pm,November 4-February 24,N,M/X/W,42.38204,-76.86855,N,Y,Y,"(42.38204, -76.86855)"
Seneca,Seneca Falls Farmers' Market,35 Water St.,Water St and Bridge St,Seneca Falls,NY,13148,Menzo Case,3155685855,,Wednesday  9am-1:30pm,June 8-October 12,Y,M,42.90412,-76.80005,Y,Y,Y,"(42.90412, -76.80005)"
St. Lawrence,Canton Farmers' Market,Canton Park corner of Park & Main Sts.,Main St and Park St,Canton,NY,13617,Linda Kingston,3152764331,http://www.cantonnychamber.org,Tue/Fri  9am-2pm,May 13-October 28,Y,P/M,44.59564,-75.16921,N,Y,Y,"(44.59564, -75.16921)"
St. Lawrence,Gouverneur Farmers' Market,Gouverneur Village Park  Church St.,Church St and John St,Gouverneur,NY,13642,Linda Seymour,3152129476,http://www.gouverneurchamber.net,Thursday  9am-2pm,June 9-October 20,Y,M,44.33524,-75.46764,N,Y,Y,"(44.33524, -75.46764)"
St. Lawrence,Hammond Farmers' and Artisans Market,Hammond Museum 1 N. Main St./Rt 37,Hammond Museum,Hammond,NY,13646,Lori Thistle,3153245032,https://www.facebook.com/thehammondfarmersmarket,Wednesday  3pm-6pm,June 29-September 28,Y,M,44.44895,-75.69412,N,Y,Y,"(44.44895, -75.69412)"
St. Lawrence,Martin's Farm Stand,11 Needham Rd. Potsdam,11 Needham Rd.,Potsdam,NY,13676,Daniel Martin,3152651246,http://martinsfarmstand.com,Mon-Sat  10am-6pm,May 9-November 19,Y,P/M,44.67107,-74.90401,N,Y,Y,"(44.67107, -74.90401)"
St. Lawrence,Massena Farmers' Market,"Triple A parking lot, 3 Malby Ave.",345 E Orvis St,Massena,NY,13362,Shirley Peck,3157695322,,"Mon/Thu/Fri/Sun  , 10am-5pm",July 6-October 31,Y,M,44.93605,-74.87095,N,Y,Y,"(44.93605, -74.87095)"
St. Lawrence,Potsdam Main Street Farmers' Market,Main St. near Ives Park adjacent to Clarkson Inn,Main St and Union St,Potsdam,NY,13676,Daisy Cox,3152653920,http://potsdamfm.wix.com/potsdamfarmersmarket,Sat/Wed  9am-2pm,May 14-October 30,Y,P/M,44.66865,-74.98493,N,Y,Y,"(44.66865, -74.98493)"
St. Lawrence,Whitten Family Farm Stand,1101 Cty 49 Winthrop,1101 County Road 49,Winthrop,NY,13697,Cherie Whitten,3153285559,http://www.whittenfamilyfarm.com,Mon/Tue  2pm-5pm,May 27-September 6,Y,P/M,44.74885,-74.75351,N,Y,Y,"(44.74885, -74.75351)"
St. Lawrence,Whitten Mobile Market-Apt to Travel Agency,36 Main St. Potsdam,36 Main St.,Potsdam,NY,13676,Cherie Whitten,3153285559,,Tuesday  3pm-5pm,June 28-September 20,Y,M,44.6687,-74.98355,N,Y,Y,"(44.6687, -74.98355)"
St. Lawrence,Whitten Mobile Market-Health Hub,211 Park St. Tupper Lake,211 Park St.,Tupper Lake,NY,12986,Cherie Whitten,3153285559,,Friday  3pm-6pm,June 24-September 23,Y,M,44.22445,-74.45898,N,Y,Y,"(44.22445, -74.45898)"
St. Lawrence,Whitten Mobile Market-Laurel Ave Sr Housing,Laurel Ave Massena,Laurel Ave,Massena,NY,13662,Cherie Whitten,3153285559,,Thursday  2pm-3:30pm,June 30-September 22,Y,M,44.92833,-74.88923,N,Y,Y,"(44.92833, -74.88923)"
Steuben,Bath Saturday Farmers' Market,Pulteney Park Steuben St.,Steuben St and Liberty St,Bath,NY,14810,Phillip Glosick,6077763577,,Saturday  9am-2pm,May 7-October 29,Y,P/M,42.33353,-77.31842,N,N,Y,"(42.33353, -77.31842)"
Steuben,Bath Wednesday Farmers' Market,Pulteney Square Park Steuben St.,Steuben St and Liberty St,Bath,NY,14810,David Clarke,6073294159,,Wednesday  9am-3pm,May 4-October 26,Y,P/M,42.33353,-77.31842,N,Y,Y,"(42.33353, -77.31842)"
Steuben,Bath WINTER Farmers' Market,"Bath VA Medical Center, 76 Veterans Ave.",76 Veterans Ave,Bath,NY,14810,Kelley Elliot,6075833358,,"Alt. Tuesday  3pm-6pm, Thursday  2pm-5pm  Nov-Mar",June 9-March 24,N,M/X/W,42.34342,-77.34613,N,N,Y,"(42.34342, -77.34613)"
Steuben,CCA Bath Farm to PreSchool,"36 East Morris Street, Bath Community Child Care Center",36 East Morris Street,Bath,NY,14810,Angel Hoffman,6077762126,,Monday  2:30pm-5:30pm,July 7-September 29,Y,M,42.33227,-77.31501,Y,Y,Y,"(42.33227, -77.31501)"
Steuben,CCA Corning Farm to PreSchool,"428 Watauqua Ave, Great Beginnings Child Care Center",428 Watauga Ave,Corning,NY,14830,Angel Hoffman,6077762126,,Wednesday  2:30pm-5:30pm,July 6-September 28,Y,M,42.13571,-77.03831,Y,Y,Y,"(42.13571, -77.03831)"
Steuben,CCA Hornell Farm to PreSchool,233 Main Street Hornell,233 Main Street,Hornell,NY,14843,Angel Hoffman,6077762126,,Tuesday  2:30pm-5:30pm,July 5-September 27,Y,M,42.32554,-77.65605,Y,Y,Y,"(42.32554, -77.65605)"
Steuben,Corning Farmers' Market,"1 Riverfront Plaza, Riverfront Centennial Park  Gaffer District",Centennial Park East Tioga Ave,Corning,NY,14830,Lin Kotlinski,6079376292,http://www.gafferdistrict.com,Thursday  10am-3pm,June 9-October 27,Y,M,42.1443,-77.05339,N,N,Y,"(42.1443, -77.05339)"
Steuben,Corning WINTER Farmers' Market,"1 West Market Street, inside the Information Center of Corning",1 West Market Street,Corning,NY,14830,Stephanie Mehlenbacher,,http://www.facebook.com/corningwinterfarmersmarket,1st & 3rd Saturdays  11am-3pm,November 5-April 15,N,M/X/W/P,42.14351,-77.05495,N,Y,Y,"(42.14351, -77.05495)"
Steuben,Hornell Farmers' Market,30-32 Broadway Mall,30-32 Broadway Mall,Hornell,NY,14843,Shelly Stevens,6073249786,http://facebook.com/hornellfarmersmarket,Thursdays  12pm-4pm,June 2-August 25,Y,M,42.32558,-77.66094,N,N,Y,"(42.32558, -77.66094)"
Steuben,Painted Post Farmers' Market,227 Steuben Street,277 Steuben Street,Painted Post,NY,14870,Cathy Halm,6075278730,http://www.facebook.com/paintedpostfarmersmarket,Saturday  10am-2pm,June 4-October 29,Y,M,42.16242,-77.09126,N,N,Y,"(42.16242, -77.09126)"
Steuben,Painted Post WINTER Market,227 Steuben Street,227 Steuben Street,Painted Post,NY,14870,Cathy Halm,6075278730,http://www.facebook.com/paintedpostfarmersmarket,alt Sat  11am-3pm,Nov 12-April 22,Y,M/X/W/P,42.16067,-77.09283,N,N,Y,"(42.16067, -77.09283)"
Suffolk,Amityville Farmers' Market,21 Ireland Place,21 Ireland Place,Amityville,NY,11701,Cindy Sierra,6313970197,,Friday  2pm-7pm,June 3-November 18,Y,M,40.67742,-73.41858,N,N,Y,"(40.67742, -73.41858)"
Suffolk,Babylon Village Farmers' Market,"LIRR Babylon Station parking lot, Railroad and Deer Park Aves.",Grove and N. Carl Ave,Babylon,NY,11702,Lona Graepel,6319442661,http://www.longislandfarmersmarkets.com,Sunday  8am-1pm,June 5-November 20,Y,M,40.69954,-73.32597,N,Y,Y,"(40.69954, -73.32597)"
Suffolk,Bridgehampton Hayground Farmers' Market,"Hayground School, 151 Mitchell Lane Bridghampton",151 Mitchells Lane,Bridgehampton,NY,11932,Michael Denslow,6319873553,https://www.facebook.com/pages/Hayground-School-Farmers-Market/159768760730144,Friday  3pm-6:30pm,May 20-September 30,N,P/M,40.94127,-72.314546,N,N,Y,"(40.94127, -72.314546)"
Suffolk,East Hampton Farmers' Market,Nick & Toni's lot 136 N. Main St.,136 North Main St,Easthampton,NY,11937,Katherine Plumb,6317259133,,Friday  9am-1pm,May 27-September 2,Y,P/M,40.97017,-72.18133,Y,Y,Y,"(40.97017, -72.18133)"
Suffolk,Flanders Farm Fresh Youth Market,"Crohan Community Senior Center, 655 Flanders Road (Rt 24)",655 Flanders Rd,Flanders,NY,11901,Nancy Lynott,6317022417,http://www.southamptontownny.gov,Saturday  10am-1pm,July 2-October 22,Y,M,40.90867,-72.63666,N,Y,Y,"(40.90867, -72.63666)"
Suffolk,Free's Farm Stand at Brentwood,"1725 Brentwood Road, Brentwood",1725 Brentwood Ave.,Brentwood,NY,11717,Carol Morgenstern,5162971894,http://www.familyres.org,Tue/Thu  12pm-4pm,June 1-October 31,Y,M,40.77236,-73.24615,N,Y,Y,"(40.77236, -73.24615)"
Suffolk,Greater Bellport Community Youth Market,Boys & Girls Club 471 Atlantic Ave.,471 Atlantic Avenue,Bellport,NY,11713,Jason Neal,6312869090,https://www.soilmate.com/markets/greater-bellport-community-youth-market#listing-tabs=hours,Saturday  10am-4pm,July 9-October 29,Y,M,40.77519,-72.94828,N,Y,Y,"(40.77519, -72.94828)"
Suffolk,Greenport Farmers' Market,South St. Lot at 2nd St.,170 South St,Greenport,NY,11944,Lara McNeil,6317743695,http://www.greenportfarmersmarket.com,Saturday  9am-1pm,May 28-October 8,Y,P/M,41.103267,-72.361801,N,Y,Y,"(41.103267, -72.361801)"
Suffolk,Hampton Bays Farmers' Market,"165 Ponquogue Ave., St. Mary's Church lawn",165 Ponquogue Ave,Hampton Bays,NY,11946,Paula Godfrey,6317230902,http://www.stmaryshb.org,Saturday  9am-1pm,May 28-September 3,Y,P/M,40.8593,-72.51301,N,N,Y,"(40.8593, -72.51301)"
Suffolk,Huntington Village Farmers' Market,"Downtown Huntington Village, Main St. Rt. & 25A of Rt. 110",State Route 110 and Main St,Huntington,NY,11743,Ethel Terry,6313233653,http://www.longislandgrowersmarket.com,Sunday  7am-12pm,May 29-November 20,Y,P/M,40.87121,-73.42629,N,N,Y,"(40.87121, -73.42629)"
Suffolk,Huntington WINTER Farmers' Market,"Jack Abrams School, 155 Lowndes Ave, Huntington Station","155 Lowndes Ave,",Huntington Station,NY,11746,Jaime Greci,5162977997,http://www.winterfarmersmarketlongisland.com,Sunday  9am-1pm,December 6-April 27,N,X/W/P,40.85485,-73.41419,N,N,Y,"(40.85485, -73.41419)"
Suffolk,Islip Farmers' Market,"Town Hall lot Rt. 27A (Montauk Hwy), 655 Main Street",655 Main Street,Islip,NY,11751,Ethel Terry,6313233653,http://www.longislandgrowersmarket.com,Saturday 7am-12pm,May 28-November 19,Y,P/M,40.72975,-73.21077,N,N,Y,"(40.72975, -73.21077)"
Suffolk,Kings Park Farmers' Market,"Municipal Lot Route 25A Main St., at corner of Church St",1 E. Main St.,Kings Park,NY,11754,Georgia Meckes,8458023090,http://www.ligreenmarket.org/,Sunday  9am-2pm,June 5-November 20,Y,M,40.88422,-73.25243,Y,Y,Y,"(40.88422, -73.25243)"
Suffolk,Marks of Excellence Farmers' Market,"Marks of Excellence Child Care Center, 455 Albany Ave. Amityville",455 Albany Ave,Amityville,NY,11701,Dana Youkilis,5163589250,http://www.childcarenassau.org,Thursday  3pm-6pm,June 30-September 29,Y,M,40.69899,-73.40921,Y,Y,Y,"(40.69899, -73.40921)"
Suffolk,Montauk Farmers' Market,Montauk Village Green  743 Montauk Hwy,742 Montauk Hwy,Montauk,NY,11954,Laraine Creegan,6316682355,https://www.facebook.com/montaukfarmersmarket,Thurs  9am-2pm,June 6-September 30,Y,M,41.03436,-71.94424,N,N,Y,"(41.03436, -71.94424)"
Suffolk,Nesconset Plaza Farmers' Market,Nesconset Plaza 127 Smithtown Blvd.,127 Smithtown Boulevard,Nesconset,NY,11767,Georgia Meckes,8458023090,http://www.ligreenmarket.org,Saturday  9am-1pm,June 4-November 19,Y,M,40.83764,-73.15999,Y,Y,Y,"(40.83764, -73.15999)"
Suffolk,Patchogue #1 Farmers' Market,"7-11 Parking Lot, 1201 Montauk Hwy East Patchogue",1201 Montauk Hwy,East Patchogue,NY,11772,Ethel Terry,6313233653,http://www.longislandgrowersmarket.com,Friday  8am-1pm,July 8-November 4,Y,M,40.76664,-73.00872,N,N,Y,"(40.76664, -73.00872)"
Suffolk,Patchogue #2 Farmers' Market,S. Ocean Ave. & Division St. Patchogue,210 S. Ocean Ave.,Patchogue,NY,11772,Ethel Terry,6313233653,http://www.longislandgrowersmarket.com,Sunday  9am-1pm,May 29-November 20,Y,P/M,40.76165,-73.01337,N,N,Y,"(40.76165, -73.01337)"
Suffolk,Port Jefferson Farmers' Market,"Steam Room parking lot, Rts. 25A & 112",State Route 25A and State Route 112,Port Jefferson,NY,11776,Ethel Terry,6313233653,http://www.longislandgrowersmarket.com,Thursday  10am-4:30pm,July 8-September 29,Y,M,40.93177,-73.05283,N,N,Y,"(40.93177, -73.05283)"
Suffolk,Riverhead Saturday Farmers' Market,117 East Main Street  Riverhead,117 East Main Street,Riverhead,NY,11901,Chris Kempner,6317273200,https://www.facebook.com/RiverheadFarmersMarket,Saturday  10am-3pm,November 19-April 29,N,X/W/P,40.91709,-72.66031,N,N,Y,"(40.91709, -72.66031)"
Suffolk,Rocky Point Farmers' Market,"Old Depot Park (Broadway & Prince Rd.), Rocky Point",Broadway and Prince Rd,Rocky Point,NY,11778,Charles Bevington,6318493488,,Sunday  8am-1pm,May 8-November 20,Y,P/M,40.94927,-72.92391,N,N,Y,"(40.94927, -72.92391)"
Suffolk,Shiloh Community Youth Farmers' Market,"221 Merritt Ave., New Shiloh Baptist Church Wyandanch",221 Merritt Ave,Wyandanch,NY,11798,Sondra Cochran,6316434786,http://www.wyandanchcdc.org,Saturday  1pm-4pm,July 9-October 1,Y,M,40.75311,-73.36709,Y,Y,Y,"(40.75311, -73.36709)"
Suffolk,Tanger Outlets Farmers' Market,152 The Arches Circle  Deer Park,152 The Arches Circle,Deer Park,NY,11729,Jim Thompson,5166942859,http://www.eatlocallongisland.com,Saturday  10am-3pm,June 4-November 5,Y,M,40.76401,-73.30346,N,N,Y,"(40.76401, -73.30346)"
Suffolk,Taste NY LI Welcome Center Farmers' Market,Exit 52 Long Island Expressway Dix Hills,Exit 52 Long Island Expressway,Dix Hills,NY,11746,Georgia Meckes,8458023090,http://www.ligreenmarket.org,"Saturday  9am-2pm, Sunday  11am-5pm",October 1-November 20,Y,M,40.81753,-73.39598,N,N,Y,"(40.81753, -73.39598)"
Westchester,Gossett Farmers' Market,"Gossett's Nursery, 1202 Rt. 35 S. Salem",1193 Rt. 35,S. Salem,NY,10590,Tom Gossett,9147633001,,Saturday  9am-1pm,Year-round,N,YR,41.274616,-73.567154,N,N,Y,"(41.274616, -73.567154)"
Sullivan,Callicoon Farmers' Market,Callicoon Creek Park Audrey Dorrer Dr.,A Dorrer Dr,Callicoon,NY,12723,Scott Goodman,8459328492,http://callicoonfarmersmarket.org/,Sunday  11am-2pm,May 1-October 30,Y,P/M,41.76559,-75.05797,Y,Y,Y,"(41.76559, -75.05797)"
Sullivan,Callicoon WINTER Farmers' Market,"Delaware Youth Center, 8 Creamery Road Callicoon",8 Creamery Road,Callicoon,NY,12723,Scott Goodman,8459328492,http://callicoonfarmersmarket.org/,Sunday  11am-2pm,November 6-April 30,Y,M/X/W/P,41.76418,-75.05712,Y,Y,Y,"(41.76418, -75.05712)"
Sullivan,Liberty Farmers' Market,Creekside Park 91 S. Main St,91 S. Main St,Liberty,NY,12754,Beth Scullion,,http://www.catskillmountainkeeper.org,Friday  4pm-7pm,May 27-October 28,Y,M,41.79832,-74.74473,Y,Y,Y,"(41.79832, -74.74473)"
Sullivan,Monticello Farmers' Market,"Ted Stroebele Recreation Center, 10 Jefferson St. Monticello",10 Jefferson St.,Monticello,NY,12790,Beth Scullion,,http://www.catskillmountainkeeper.org,Monday  11am-2pm,June 27-October 10,Y,M,41.65754,-74.69302,Y,Y,Y,"(41.65754, -74.69302)"
Sullivan,Rock Hill Farmers' Market,223 Rock Hill Drive,223 Rock Hill Drive,Rock Hill,NY,12775,Michelle Lipari,8456994976,http://www.rockhillfarmersmarket.com,Saturday  10am-1pm,June 4-September 24,Y,M,41.62515,-74.59634,N,N,Y,"(41.62515, -74.59634)"
Sullivan,Root 'N Roost Farm Stand,64 & 68 Mineral Springs Rd.  Livingston Manor,68 Mineral Springs Road,Livingston Manor,NY,12758,Cheyenne Zigmund,8452929126,http://www.rootnroost.com,Fri-Sun  10am-7pm,May 20-October 28,Y,P/M,41.8011,-74.82248,N,N,Y,"(41.8011, -74.82248)"
Sullivan,Roscoe Farmers' Market,"Near Roscoe Fire House, Rt 17",10 Union Street and Route 17,Roscoe,NY,12776,Elaine Fettig,8454394039,,Sunday 10am-2pm,May 8-October 16,Y,P/M,41.93306,-74.91377,N,N,Y,"(41.93306, -74.91377)"
Tioga,Candor Farmers' Market,Town Hall 101 Owego Rd.,101 Owego Rd,Candor,NY,13743,Joellen Carling,6077684072,http://www.candorfarmersmarket.org/,Thursday  3:30pm-6:30pm,June 9-September 29,Y,M,42.23249,-76.33317,Y,Y,Y,"(42.23249, -76.33317)"
Tioga,Our Green Acres Farm Stand,"3965 Waverly Rd. , Owego",3965 Waverly Rd.,Owego,NY,13827,Frank Wiles,6076872874,http://www.ourgreenacres.com,"Mon-Fri  9:30am-6pm, Saturday 9:30am-5pm, Sunday  11am-5pm",June 1-November 1,Y,M,42.097588,-76.28106,N,Y,Y,"(42.097588, -76.28106)"
Tioga,Owego Marketplace Farmers' Market,200-204 Front Street,200-204 Front Street,Owego,NY,13827,Janelle Malia,6077278636,http://www.owego.org/farm-to-fork,Thursday  4pm-8pm,June 16-September 29,Y,M,42.10242,-76.26011,N,Y,Y,"(42.10242, -76.26011)"
Tioga,Seven Counties Farmers' Market,Rite Aid parking lot 153 Main St. Owego,Main St and Central Ave,Owego,NY,13827,John Purdy,6076428439,,Tue/Fri  9am-1pm,June 17-October 28,Y,M,42.10324,-76.26314,N,N,Y,"(42.10324, -76.26314)"
Tioga,Spencer-Van Etten Farmers' Market,"Nichols Pond on Main Street, near Fire Department",Owego Street Ext and N Main St,Spencer,NY,14883,Terry Carling,6075897367,,Saturday  9am-12:30pm,June 4-September 24,Y,M,42.21138,-76.49267,N,N,Y,"(42.21138, -76.49267)"
Tioga,Terry's Berry Farm stand,"284 Church Street , Barton",284 Church Street,Barton,NY,13734,Teresa Bishop,6079727553,http://www.localharvest.org/terrys-berry-farm-M65646,Saturday  9am-5pm,June 11-October 8,Y,M,42.03167,-76.37274,N,N,Y,"(42.03167, -76.37274)"
Tioga,Waverly Farmers' Market,Mini Park Broad & Waverly Sts,Broad st and Waverly St,Waverly,NY,14892,Teresa Bishop,6079727553,https://www.facebook.com/WaverlyFarmersMarketMonday/timeline?ref=page_internal,Tuesday  3pm-6pm,June 20-September 26,Y,M,42.00108,-76.54003,N,Y,Y,"(42.00108, -76.54003)"
Tompkins,Brooktondale Farmers' Market,"Brooktondale Community Center, 522 Valley Rd. Brooktondale",522 Valley Rd,Brooktondale,NY,14817,Erin Barrett,6073518507,,Tuesday  4pm-7pm,June 7-September 27,Y,M,42.38092,-76.39357,N,N,Y,"(42.38092, -76.39357)"
Tompkins,Dryden Farmers' Market,"Dryden Agway Hardware Store, 59 West Main St.",65 West Main St. (actual google address for Agway),Dryden,NY,13053,Kelly Ritter,6078448663,,Saturday  9am-1pm,June 18-October 29,Y,M,42.490184,-76.303993,N,Y,Y,"(42.490184, -76.303993)"
Tompkins,Finger Lakes WINTER Market,235 S Cayuga St.  Ithaca,235 South Cayuga Street,Ithaca,NY,14850,Melissa Redman-Rupe,6075929606,,Sunday  11am-2pm,January 8-March 26,N,W,42.43748,-76.49887,N,N,Y,"(42.43748, -76.49887)"
Tompkins,Ithaca Farmers' Market (Dewitt Park),Dewitt Park N. Cayuga & E. Buffalo Sts.,North Cayuga St and East Buffalo St,Ithaca,NY,14850,Aaron Munzer,6072737109,http://www.ithacamarket.com,Tuesday  9am-2pm,May 3-October 25,Y,P/M,42.44131,-76.49911,Y,Y,Y,"(42.44131, -76.49911)"
Tompkins,Ithaca Farmers' Market (East Hill),East Hill Plaza 330 Pine Tree Rd,380 Pine Tree Road,Ithaca,NY,14850,Aaron Munzer,6072737109,http://www.ithacamarket.com,Wednesday  4pm-7pm,June 1-October 26,Y,M,42.4385,-76.46559,Y,Y,Y,"(42.4385, -76.46559)"
Tompkins,Ithaca Farmers' Market (Steamboat),"Steamboat Landing, 545 Third St. off Rt. 13",545 Third Street,Ithaca,NY,14850,Aaron Munzer,6072737109,http://www.ithacamarket.com,"Saturday  9am-3pm, Sunday  10am-3pm, Thu nights Jul-Sep",April 2-December 17,Y,P/M/X,42.44958,-76.50785,Y,Y,Y,"(42.44958, -76.50785)"
Tompkins,Ithaca WINTER Farmers' Market,"The Space@GreenStar, 700 West Buffalo St. Ithaca",700 West Buffalo St.,Ithaca,NY,14850,Aaron Munzer,6072737109,http://www.ithacamarket.com,Saturday  11am-2pm,January 7-March 25,N,W,42.44097,-76.51093,Y,Y,Y,"(42.44097, -76.51093)"
Tompkins,Trumansburg Farmers' Market,"Village Park, Intersection of Routes 96 & 227",State Route 96 and State Route 227,Trumansburg,NY,14886,Avi Miner,6072275173,http://www.tburgfarmersmarket.com,Wednesday  4pm-7pm,May 11-October 26,Y,P/M,42.54224,-76.66579,Y,Y,Y,"(42.54224, -76.66579)"
Ulster,Caradonna Farm Stand,1394 Route 9W Marlboro,798 Lattintown Road,Milton,NY,12547,Bernard Caradonna,8456294547,,Daily 9am-6pm,May 1-October 31,Y,M,41.65546,-74.00413,N,N,Y,"(41.65546, -74.00413)"
Ulster,Ellenville Farmers Market,Market and Center Streets,Market and Center Streets,Ellenville,ny,12428,John Clark,8454431946,https://www.facebook.com/Ellenville-Farmers-Market-130898950326230/,Sunday  10am-2pm,June 19-October 30,Y,M,41.71607,-74.39407,N,N,Y,"(41.71607, -74.39407)"
Ulster,Heart of the Hudson Valley Farmers' Market,Cluett-Schantz Park 1801-1805 Rt 9W Milton,1801-1805 Rt 9W Milton,Milton,NY,12547,Sheila Mannese,8456167824,http://www.hhvfarmersmarket.com,Saturday  9am-2pm,June 25-October 8,Y,M,41.65383,-73.964683,N,N,Y,"(41.65383, -73.964683)"
Ulster,Kingston Farmers' Market,Old Dutch Church 272 Wall Street,Wall St and John St,Kingston,NY,12401,Katy Kondrat,3477217386,http://www.kingstonfarmersmarket.org,Saturday  9am-2pm,May 7-November 19,Y,P/M,41.93384,-74.01968,Y,Y,Y,"(41.93384, -74.01968)"
Ulster,Kingston WINTER Farmers' Market,"Bethany Hall Old Dutch Church, 272 Wall Street corner Wall & Main St.",272 Wall Street,Kingston,NY,12401,Katy Kondrat,3477217386,http://www.kingstonfarmersmarket.org,Alt Saturdays  10am-2pm,December 3-April 22,N,X/W/P,41.93286,-74.01884,Y,Y,Y,"(41.93286, -74.01884)"
Ulster,Kingston YMCA Farm Proj. MM Health Alliance,Health Alliance of the Hudson Valley 105 Mary's Ave,80 Marys Ave,Kingston,NY,12401,Kaycee Wimbish,8453322927,http://www.kingstonymcafarmproject.org,Tuesday  3pm-4pm,June 14-September 13,Y,M,41.922141,-73.998347,Y,Y,Y,"(41.922141, -73.998347)"
Ulster,Kingston YMCA Farm Proj. MM Library,Kingston Public Library 55 Franklin St.,55 Franklin Street,Kingston,NY,12401,Kaycee Wimbish,8453322927,http://www.kingstonymcafarmproject.org,Tuesday  5:15pm-6:30pm,June 14-September 13,Y,M,41.92979,-74.01071,Y,Y,Y,"(41.92979, -74.01071)"
Ulster,Kingston YMCA Farm Proj. MM Yosman Towers,Yosman Towers 295 Broadway,295 Broadway,Kingston,NY,12401,Kaycee Wimbish,8453322927,http://www.kingstonymcafarmproject.org,Tuesday  4:15pm-5pm,June 14-September 13,Y,M,41.92463,-73.99039,Y,Y,Y,"(41.92463, -73.99039)"
Ulster,Kingston YMCA Farm Stand,507 Broadway,507 Broadway,Kingston,NY,12401,Kaycee Wimbish,8453322927,http://www.kingstonymcafarmproject.org,Thursday  3:30pm-6pm,June 2-October 27,Y,M,41.92776,-74.00109,Y,Y,Y,"(41.92776, -74.00109)"
Ulster,Rosendale Farmers' Market,"Behind Rosendale Theater, 408 Main Street",408 Main Street,Rosendale,NY,12472,Megan Sperry,9179306726,http://www.facebook.com/pages/Rosendale-Farmers-Market/232869283220,Sunday  10am-2pm,June 5-October 30,Y,M,41.84418,-74.08215,N,Y,Y,"(41.84418, -74.08215)"
Ulster,Rosendale WINTER Farmers' Market,"Rosendale Recreation Center, 1055 State Route 32",1055 State Route 32,Rosendale,NY,12472,Megan Sperry,9179306726,http://www.facebook.com/pages/Rosendale-Farmers-Market/232869283220,Sundays  10am-2pm (bi-monthly),December-April,N,X/W/P,41.842373,-74.075752,N,Y,Y,"(41.842373, -74.075752)"
Ulster,Saugerties Farmers' Market,Cahill School Parking Lot 115 Main St.,115 Main St,Saugerties,NY,12477,Barry Benepe,8452466491,http://saugertiesfarmersmarket.com/,Saturday  10am-2pm,May 28-October 29,Y,P/M,42.07899,-73.94896,Y,Y,Y,"(42.07899, -73.94896)"
Ulster,South Pine Street City Farm,27 South Pine St. Kingston,27 South Pine Street,Kingston,NY,12401,Patricia Hawkins,8455320011,http://southpinestreetcityfarm.org,Mon/Wed/Fri  3pm-7pm,May 30-November 23,Y,P/M,41.9237,-74.01066,N,N,Y,"(41.9237, -74.01066)"
Ulster,Woodstock Farm Festival Farmers' Market,6 Maple Lane,6 Maple Ln,Woodstock,NY,12498,Kathleen Reynolds,8456795345,http://www.woodstockfarmfestival.com,Wed  3:30pm-dusk,June 1-October 19,Y,M,42.04018,-74.11797,N,N,Y,"(42.04018, -74.11797)"
Warren,Bolton Landing Farmers' Market,5 Cross St directly behind Town Hall,5 Cross Street,Bolton,NY,12814,Diane Burk,5186443166,http://www.boltonlandingfarmersmarket.com,Friday  9am-2pm,June 24-September 2,Y,M,43.55744,-73.65727,N,Y,Y,"(43.55744, -73.65727)"
Warren,Glens Falls Farmers' Market,South Street Market Pavilion,25 South Street,Glens Falls,NY,12801,Richard Sandora,5187920438,http://www.gffma.com,Saturday  8am-12pm,May 7-October 29,Y,P/M,43.3099,-73.64699,N,Y,Y,"(43.3099, -73.64699)"
Warren,Glens Falls WINTER Farmers' Market,Sanford St. School 10 Sanford St.,10 Sanford Street,Glens Falls,NY,12801,Richard Sandora,5187920438,http://www.glensfallsfarmersmarket.com,Saturday  9am-12pm,November 5-April 29,N,X/W/P,43.3173,-73.65347,N,Y,Y,"(43.3173, -73.65347)"
Warren,Landon Hill Estate Farm Farm Stand,95 Landon Hill Rd. Chestertown,95 Landon Hill Rd.,Chestertown,NY,12817,Rand Fosdick,5184947942,http://landonhillestatefarm.com,Mon-Sat  10am-3pm,June 15-September 30,Y,M,43.66217,-73.80349,N,N,Y,"(43.66217, -73.80349)"
Warren,North Creek Farmers' Market,112 Ski Bowl Rd.,112 Ski Bowl Rd.,North Creek,NY,12853,Susan Therio,5182512099,http://www.northcreekfarmersmarket.com,Thursday  3pm-6pm,June 23-October 6,Y,M,43.70036,-73.99126,N,N,Y,"(43.70036, -73.99126)"
Warren,Warrensburgh Riverfront Farmers' Market,"Warrenburgh Mills Historic District, Rt 418 (River St.) near Curtis Lumber",River St and Commercial St,Warrensburg,NY,12885,Teresa Whalen,5184665497,http://www.localharvest.org/warrensburgh-riverfront-farmers-market-M22857,Friday  3pm-6pm,May 27-October 7,Y,P/M,43.48906,-73.77828,N,N,Y,"(43.48906, -73.77828)"
Washington,Cambridge Farmers' Market,Broad and Main Street (corner),4 West Main Street,Cambridge,NY,12816,Sarah Ashton,5186773555,http://www.cambridgevalleyfarmersmarket.com,Sunday  10am-2pm,May 22-October 30,Y,P/M,43.02848,-73.38146,N,N,Y,"(43.02848, -73.38146)"
Washington,Cambridge WINTER Farmers' Market,Hubbard Hall Lovejoy Building 4 West Main St.,W  Main St. and Broad st.,Cambridge,NY,12816,Sarah Ashton,5186773555,http://www.cambridgevalleyfarmersmarket.com/,Sunday  10am-2pm,"Dec 10, 17  Jan 7-Apr 15",Y,M,43.028018,-73.381394,N,N,Y,"(43.028018, -73.381394)"
Washington,Fort Edward Farmers' Market,Broadway Lanes 359 Broadway Route 4,359 Broadway,Fort Edward,NY,12828,Linda Gifford,5187920198,,Friday  10am-1pm,June 10-October 28,Y,M,43.28393,-73.58721,N,N,Y,"(43.28393, -73.58721)"
Washington,Granville Rt. 22 Farmers' Market,"88 Quaker St., Moutian View Commons Green",88 Quaker St,Granville,NY,12832,Cyd Groff,5186421653,,Monday  2pm-5pm,June 6-October 24,Y,M,43.39845,-73.2658,N,N,Y,"(43.39845, -73.2658)"
Washington,Greenwich Farmers' Market,106 Main Street,106 Main Street,Greenwich,NY,12834,Julie Callahan,5189447149,,Wednesday  3pm-6pm,Year-round,Y,YR,43.08931,-73.49854,N,N,Y,"(43.08931, -73.49854)"
Washington,Salem Rt. 22 Farmers' Market,Village Park Gazebo Rt. 22 Main St,Route 22 and Railroad St.,Salem,NY,12865,Cyd Groff,5186421653,https://www.facebook.com/pages/Route-22-Farmers-Market-Salem-Granville-Whitehall/104950399561700,Saturday  10am-1pm,May 28-October 29,Y,P/M,43.17322,-73.32837,N,N,Y,"(43.17322, -73.32837)"
Washington,Sandy Hill Farmers Market,"Juckett Park, Hudson Falls",179 Main St,Hudson Falls,NY,12839,Michael Willig,5189554459,https://www.facebook.com/Sandy-Hill-Farmers-Market-1618849331730169/,"Sunday 9-1, Sept 16-Oct 16:, Sunday 10-1",June 4 - October 16,N,M,43.30111,-73.58657,N,N,Y,"(43.30111, -73.58657)"
Washington,Whitehall Rt. 22 Farmers' Market,Canal Park on Skenesborough Dr. near Gazebo,Route 22 and Poultney Street,Whitehall,NY,12887,Cyd Groff,5186421653,,Tuesday  11am-2pm,June 7-October 25,Y,M,43.54858,-73.4054,N,N,Y,"(43.54858, -73.4054)"
Wayne,Curbside Market-Newark Wayne Hospital,1200 Driving Park Ave. Newark,1200 Driving Park Ave,Newark,NY,14513,Mitch Gruber,5853283380,http://www.foodlinkny.org,Tuesday  11:35am-12:15pm,July-November,Y,M,43.05973,-77.10224,N,Y,Y,"(43.05973, -77.10224)"
Wayne,Ginegaw Farmers' Market,Ginegaw Park  3600 Lorraine Drive Walworth,3600 Lorraine Drive,Walworth,NY,14568,Jacqueline VanLare,3159861400,,Tuesday  3pm-6pm,June 14-October 11,Y,M,43.13404,-77.28888,N,Y,Y,"(43.13404, -77.28888)"
Wayne,Lyons Farmers' Market,Village Square Church St.,Church St and William St,Lyons,NY,14489,Sean Dobbins,3153744597,http://www.lyonsny.com/farmers-market,Saturday  7:30am-11am,June 11-October 22,Y,M,43.06336,-76.99243,N,N,Y,"(43.06336, -76.99243)"
Wayne,Macedon Farmers' Market,"Gravino Park, 200 East Main Street",200 East Main St,Macedon,NY,14502,Robert Putney,5854782014,https://www.facebook.com/macedoncommunityfarmersmarket/timeline?ref=page_internal,Wed  2pm-6pm,June 29-October 19,Y,P/M,43.07009,-77.29046,N,N,Y,"(43.07009, -77.29046)"
Wayne,Newark Farmers' Market,100 Church St.,Church St and South Main St,Newark,NY,14513,Jessica Wells,3153319129,http://www.facebook.com/newarkfarmersmarket,Thursday  2:30pm-6pm,June 2-October 20,Y,M,43.04468,-77.09522,Y,Y,Y,"(43.04468, -77.09522)"
Wayne,Sodus Farmers' Market,"Sodus Methodist Church parking lot, 58 W. Main St.",58 West Main St,Sodus,NY,14551,Sandy Hall,3154838029,,Wednesday  2:30pm-6pm,June 15-October 12,Y,M,43.23615,-77.06587,Y,Y,Y,"(43.23615, -77.06587)"
Wayne,The Apple Shed Farm Stand,"3391 Fairville Maple Ridge Rd.  , Newark",3391 Fairville Maple Ridge Rd,Newark,NY,14513,Jessica Wells,3153316294,http://www.theappleshed.com,"Mon-Sat  10am-6pm, Sunday  12pm-6pm",June 11-December 23,Y,M/X,43.12916,-77.09792,N,Y,Y,"(43.12916, -77.09792)"
Wayne,Wolcott Area Farmers' Market,Northup Park New Hartford St. Wolcott,Washington Street and New Hartford Street,Wolcott,NY,14590,Allen Tompkins,3157297885,,Thursday  2:30pm-6pm,June 9-October 6,Y,M,43.21855,-76.81491,Y,Y,Y,"(43.21855, -76.81491)"
Westchester,Bowen Farm Stand,"14 N Columbus Ave. , Mt. Vernon","14 North Columbus Ave.,",Mount Vernon,NY,10553,Ruth Crosby,9144821749,,"Tue-Fri  10am-6pm, Saturday  9am-6pm",June 1-November 30,Y,M,40.9125,-73.82372,N,N,Y,"(40.9125, -73.82372)"
Westchester,Bronxville Farmers' Market,26 Paxton Ave.,26 Paxton Ave.,Bronxville,NY,10708,Pascale Le Draoulec,9148063380,http://www.bronxvillefarmersmarket.com,Saturday  8:30am-1pm,May 7-November 19,Y,P/M,40.94093,-73.83796,N,N,Y,"(40.94093, -73.83796)"
Westchester,Chappaqua Farmers' Market,"Chappaqua Train Station, 108 Allen Place",108 Allen Place,Chappaqua,NY,10514,Pascale Le Draoulec,9148063380,http://chappaquafarmersmarket.org/,Saturdays 8:30am - 1pm,May-November,N,P/M,41.158667,-73.774039,N,N,Y,"(41.158667, -73.774039)"
Westchester,Croton on Hudson Farmers' Market,"Municipal lot off Route 129 across from 9A exit ramp, 1 VanWyck St.",1 VanWyck St.,Croton-on-Hudson,NY,10520,Frankie Rowland,9149234837,http://www.downtoearthmarkets.com,Sunday  9am-2pm,June 5-December 18,Y,M/X,41.20811,-73.88748,N,N,Y,"(41.20811, -73.88748)"
Westchester,Dobbs Ferry Farmers' Market,Cedar & Main St.,Cedar St and Main St,Dobbs Ferry,NY,10522,Nancy Chiocchi,9146932935,,Friday  10am-4pm,June 3-November 18,Y,M,41.01628,-73.87365,N,N,Y,"(41.01628, -73.87365)"
Westchester,Food Family Farm Farmers' Market,"East Prospect Ave. Mt. Vernon, Municipal Lot #11, Between Park & North 3rd Ave",31 East Prospect Ave,Mount Vernon,NY,10550,Barry Crumbley,9145137200,,Saturday  9am-2pm,August 6-November 26,Y,M,40.91274,-73.8356,N,N,Y,"(40.91274, -73.8356)"
Westchester,Hartsdale Farmers' Market,Hartsdale Train Station East Hartsdale Ave.,East Hartsdale Ave and Fenimore Rd,Hartsdale,NY,10530,Nancy Chiocchi,9146932935,,Saturday  8am-4pm,June 4-November 19,Y,M,41.01072,-73.79656,N,N,Y,"(41.01072, -73.79656)"
Westchester,Harvest for Health Farmers' Market,"1980 Crompond Rd., Cortlandt Manor",1980 Crompond Rd.,Cortland Manor,NY,10567,Emilie Berner,9147343780,http://www.hvhc.org/patient-service/farmers-market.html,1st & 3rd Tue 11am-4pm,May 3-November 30,Y,P/M,41.29265,-73.89242,N,Y,Y,"(41.29265, -73.89242)"
Westchester,Hastings Farmers' Market,7 Maple Ave.,7 Maple Ave,Hastings,NY,10706,Pascale Le Draoulec,9148063380,http://www.hastingsfarmersmarket.org,Saturday  8:30am-1:30pm,June 4-November 19,Y,M,40.99561,-73.88317,N,Y,Y,"(40.99561, -73.88317)"
Westchester,Hastings WINTER Farmers' Market,"James Harmon Community Center, 44 Main St.",44 Main St.,Hastings,NY,13036,Pascale Le Draoulec,9148063380,http://www.hastingsfarmersmarket.org,2nd & 4th Saturday  9am-1pm,Dec-May,N,X/W,43.29237,-76.14928,N,Y,Y,"(43.29237, -76.14928)"
Westchester,Hilltop Hanover Farm Farm Stand,1271 Hanover St Yorktown Heights,1271 Hanover St,Yorktown heights,NY,10598,Michelle Graham,9149622368,http://www.hilltophanoverfarm.org,"Friday 1pm-6pm, Saturday 10am-4pm",April 1- November 25,Y,P/M,41.25172,-73.77248,N,N,Y,"(41.25172, -73.77248)"
Westchester,John Jay Homestead Farmers' Market,400 Jay St. Katonah,400 Jay St.,Katonah,NY,10536,Heather Iannucci,9142325651,http://www.johnjayhomestead.org,Saturday  9am-1pm,June 11-October 29,Y,M,41.24819,-73.65956,N,N,Y,"(41.24819, -73.65956)"
Westchester,Larchmont Farmers' Market,Metro North pkng lot Chatsworth Ave. enter Myrtle Blvd,Chatsworth Ave and North Ave,Larchmont,NY,10538,Frankie Rowland,9149234837,http://www.downtoearthmarkets.com,Saturday  8:30am-1pm,April 23-December 17,Y,P/M/X,40.93321,-73.75965,N,N,Y,"(40.93321, -73.75965)"
Westchester,Mamaroneck WINTER Farmers' Market,"Saint Thomas Episcopal Church, 168 W. Boston Post Rd.",168 W. Boston Post Rd.,Mamaroneck,NY,10543,Frankie Rowland,9149234837,http://www.downtoearthmarkets.com,Saturday  9am-1pm,January 7-April 15,N,W/P,40.948085,-73.734649,N,N,Y,"(40.948085, -73.734649)"
Westchester,Muscoot Farmers' Market,"Muscoot Farm, 51 Route 100, Katonah",51 Route 100,Katonah,NY,10536,Sue Moga,9148647284,http://www.muscootfarm.org,Sunday 9:30am-2:30pm,May 8-November 13,N,P/M,41.261,-73.72325,N,N,Y,"(41.261, -73.72325)"
Westchester,New Rochelle Farmers' Market,"Huguenot Park/Twin Lakes, North Ave. next to Children's Library",794 North Ave,New Rochelle,NY,10801,Frankie Rowland,9149234837,http://www.downtoearthmarkets.com,Friday  8:30am-2:30pm,June 3-November 18,Y,M,40.92803,-73.78952,N,N,Y,"(40.92803, -73.78952)"
Westchester,New Rochelle Grand Market,Library Plaza at Lawton & Huegenot St.,Library Green,New Rochelle,NY,10801,Jennifer Furioli,9178807964,http://www.newrochellegrandmarket.com,Saturday  9am-2pm,June 4-October 29,Y,M,40.91014,-73.78299,N,N,Y,"(40.91014, -73.78299)"
Westchester,Ossining Farmers' Market,"Market Square, Main & Spring Sts.",Main St and Spring St,Ossining,NY,10562,Frankie Rowland,9149234837,http://www.downtoearthmarkets.com,Saturday  8am-1pm,Year-round,Y,YR,41.16105,-73.86351,N,N,Y,"(41.16105, -73.86351)"
Westchester,Peekskill Farmers' Market,Bank St. Downtown Peekskill btwn Park & Main St.,13 Bank St,Peekskill,NY,10566,Corinna Makris,9144184920,http://www.peekskillfarmersmarket.com,Saturday  8am-2pm,June 4-November 19,Y,M,41.29168,-73.91888,N,N,Y,"(41.29168, -73.91888)"
Westchester,Pleasantville Farmers' Market,"Memorial Plaza parking lot, off Manville Rd. next to Train Station",Manville Rd and Wheeler Ave,Pleasantville,NY,10570,Steven Bates,9142054545,http://www.pleasantvillefarmersmarket.org,Saturday  8:30am-1pm,April 2-November 19,Y,P/M,41.13526,-73.79218,N,Y,Y,"(41.13526, -73.79218)"
Westchester,Pleasantville WINTER Farmers' Market,"Pleasantville Middle School, 40 Romer Ave",40 Romer Ave,Pleasantville,NY,10570,Steven Bates,9142054545,http://www.pleasantvillefarmersmarket.org,Saturday  9am-1pm,December 3-March 25,N,X/W,41.134501,-73.785274,N,Y,Y,"(41.134501, -73.785274)"
Westchester,Rye Farmers' Market,"Parking lot on Theodore Freud Ave., Behind Purchase Street Stores",Theodore Fremd Ave and Purchase St,Rye,NY,10580,Frankie Rowland,9149234837,http://www.downtoearthmarkets.com,Sunday  8:30am-2pm,May 22-December 4,Y,P/M/X,40.98485,-73.68464,N,N,Y,"(40.98485, -73.68464)"
Westchester,Saint John's Church - Yonkers Farmers' Market,Church Courtyard 1 Hudson St.,1 Hudson St,Yonkers,NY,10701,George M. Morrison,9149633033,http://stjohnsfarmersmarket.blogspot.com,Thursday  8am-5pm,July 7-November 17,Y,M,40.93364,-73.89879,N,N,Y,"(40.93364, -73.89879)"
Westchester,Saw Mill Farmers' Market,Van der Donck Park Dock St.  Yonkers,Main Street and Van der Donck Street,Yonkers,NY,10705,Curt Collier,9143752151,http://www.groundworkhv.org,Friday  12pm-5pm,June 3-October 28,Y,M,40.93464,-73.90402,Y,Y,Y,"(40.93464, -73.90402)"
Westchester,Tarrytown & Sleepy Hollow TaSH Farmers' Market,Patriots Park Route 9,Patriots Park Route 9,Sleepy Hollow,NY,10591,Suzanne Sorrentino,9142551574,http://www.tashfarmersmarket.com,Saturday  8:30am-2pm,May 28-November 19,Y,P/M,41.08525,-73.85924,N,Y,Y,"(41.08525, -73.85924)"
Westchester,White Plains (International) Farmers' Market,125 Court St.  btwn Martine Ave. & Main St.,125 Court St,White Plains,NY,10601,Johanna Safar,9143181067,http://www.bensidounusa.com,Wednesday  8am-4pm,May 4-November 23,Y,P/M,41.02952,-73.7663,N,N,Y,"(41.02952, -73.7663)"
Wyoming,Artisan Villa Farmers' Market,140 North Main St.  Warsaw,140 North Main Street,Warsaw,NY,14569,Lisa Seewaldt,5857868766,http://www.marketatthevilla.com,Thursday  3pm-7pm,May 26-September 29,Y,P/M,42.74314,-78.13162,N,N,Y,"(42.74314, -78.13162)"
Wyoming,Perry Farmers' Market,Perry Festival Plaza  S. Main Street Downtown,Main St and Borden Ave,Perry,NY,14530,Rick Hauser,5859696006,http://www.perryfarmersmarket.com,Sat  8:30am-12:30pm,June 18-September 24,Y,M,42.71842,-78.00218,N,N,Y,"(42.71842, -78.00218)"
Wyoming,Warsaw Farmers' Market,Full Gospel Church parking lot  2444 N. Main St.,2444 N. Main St.,Warsaw,NY,14569,Patricia Reiter,5855911358,,Thursday  12pm-4pm,July 14-October 13,Y,M,42.74796,-78.13257,N,N,Y,"(42.74796, -78.13257)"
Yates,Branchport Farmers' Market,3369 Guyanoga Rd.,3369 Guyanoga Rd.,Branchport,NY,14418,Denise Toomey,3155367567,,Thursday  4pm-7pm,May 26-October 27,Y,P/M,42.60112,-77.15534,Y,Y,Y,"(42.60112, -77.15534)"
Yates,Keuka Trail Farm Stand,3554 Darby's Corners Rd. Branchport,3554 Darby's Corners Rd.,Branchport,NY,14418,Mathew Cramer,3156942934,,Fri/Sat/Sun  9am-6pm,May 27-November 1,Y,P/M,42.59296,-77.18803,N,N,Y,"(42.59296, -77.18803)"
Yates,The Windmill Farmers' Market,3900 Route 14A at Hobson Road in Penn Yan,3900 State Route 14A,Penn Yan,NY,14527,Juanita Dombroski,3155363032,http://www.thewindmill.com,Saturday  8am-4:30pm,April 30-December 10,Y,P/M/X,42.57687,-77.03609,N,N,Y,"(42.57687, -77.03609)"
Yates,Yates Co. Co-op Farm & Craft Market,Sidewalk Main St. btwn Elm & Jacobs St.,Main St and Elm St,Penn Yan,NY,14527,Rivka Davis,6072435234,http://facebook.com/PennYan.Farmers.Market,Saturday  7:30am-12pm,May 28-October 15,Y,P/M,42.66095,-77.05365,N,N,Y,"(42.66095, -77.05365)"